{"type": "FeatureCollection", "features": [{"type": "Feature", "properties": {"id": 1, "NAME": "1", "text-color": "#000000", "text-size": 16, "TotalPop": 989948, "PopDevPct": 0, "DemPct": 0.56626871, "RepPct": 0.4189022, "WhitePct": 0.62437671, "MinorityPct": 0.37562329, "BlackPct": 0.22762886, "HispanicPct": 0.08666531, "PacificPct": 0.001349, "AsianPct": 0.04834195, "NativePct": 0.01994402, "TotalVAP": 783543, "Margin": 0.06626871, "color": "#e10000", "opacity": "0.5", "year": 2022, "state": "DE", "state-district": "DE-01"}, "geometry": {"type": "MultiPolygon", "coordinates": [[[[-75.555639, 39.605817], [-75.556974, 39.607576], [-75.557432, 39.609534], [-75.556641, 39.610934], [-75.557203, 39.613081], [-75.557898, 39.61751], [-75.558908, 39.618483], [-75.559455, 39.622314], [-75.559566, 39.625418], [-75.558773, 39.629987], [-75.557327, 39.632591], [-75.554055, 39.635745], [-75.551203, 39.636622], [-75.548534, 39.63777], [-75.54718, 39.639502], [-75.544418, 39.642192], [-75.541978, 39.645425], [-75.539111, 39.645854], [-75.535083, 39.646814], [-75.533524, 39.647557], [-75.531344, 39.64946], [-75.530964, 39.650273], [-75.527829, 39.653064], [-75.526167, 39.655621], [-75.52729, 39.656078], [-75.525936, 39.656471], [-75.524464, 39.657549], [-75.521838, 39.660988], [-75.520947, 39.66164], [-75.517972, 39.663757], [-75.516008, 39.665758], [-75.514196, 39.668395], [-75.513297, 39.670581], [-75.51219, 39.671767], [-75.510993, 39.675351], [-75.510056, 39.679725], [-75.510508, 39.680381], [-75.50918, 39.685266], [-75.509086, 39.685931], [-75.509491, 39.686519], [-75.509163, 39.69208], [-75.509874, 39.693915], [-75.509291, 39.694195], [-75.506536, 39.697263], [-75.501127, 39.699408], [-75.499287, 39.699449], [-75.496312, 39.700956], [-75.495621, 39.701779], [-75.494915, 39.704134], [-75.493797, 39.706146], [-75.493892, 39.706879], [-75.492034, 39.708881], [-75.491476, 39.710827], [-75.488384, 39.714708], [-75.486126, 39.715822], [-75.483625, 39.715288], [-75.481883, 39.713686], [-75.479728, 39.713665], [-75.47853, 39.714074], [-75.476519, 39.716101], [-75.47625, 39.719455], [-75.476775, 39.72283], [-75.476302, 39.723946], [-75.477169, 39.72497], [-75.47507, 39.729683], [-75.475693, 39.733658], [-75.472831, 39.738487], [-75.47096, 39.740312], [-75.470532, 39.741777], [-75.469095, 39.743532], [-75.467696, 39.747066], [-75.466235, 39.750795], [-75.46355, 39.757014], [-75.463921, 39.760763], [-75.462198, 39.763197], [-75.45944, 39.765811], [-75.452339, 39.769013], [-75.449295, 39.774436], [-75.450293, 39.775279], [-75.445235, 39.779453], [-75.4383, 39.784402], [-75.436172, 39.785009], [-75.42677, 39.788402], [-75.405414, 39.796396], [-75.420056, 39.804774], [-75.423104, 39.806709], [-75.428275, 39.809379], [-75.433298, 39.811838], [-75.433357, 39.811866], [-75.436893, 39.813518], [-75.437255, 39.813684], [-75.440365, 39.815079], [-75.441238, 39.815462], [-75.445638, 39.817337], [-75.446214, 39.817576], [-75.449516, 39.818915], [-75.449836, 39.819041], [-75.450106, 39.819148], [-75.457449, 39.821925], [-75.459739, 39.822743], [-75.463409, 39.824008], [-75.468187, 39.825571], [-75.472179, 39.826804], [-75.47266, 39.826802], [-75.481039, 39.829319], [-75.492757, 39.832188], [-75.498956, 39.833503], [-75.507499, 39.835091], [-75.5115, 39.835749], [-75.512728, 39.835939], [-75.514834, 39.836255], [-75.517243, 39.836597], [-75.518656, 39.836789], [-75.52278, 39.837311], [-75.523381, 39.837383], [-75.524074, 39.837464], [-75.524838, 39.837549], [-75.525785, 39.837657], [-75.527955, 39.837887], [-75.539585, 39.838863], [-75.539716, 39.838925], [-75.550206, 39.839369], [-75.560284, 39.839516], [-75.564842, 39.839476], [-75.571175, 39.839306], [-75.575586, 39.839112], [-75.576379, 39.83907], [-75.579646, 39.83888], [-75.585045, 39.838489], [-75.592636, 39.837773], [-75.597402, 39.837228], [-75.598487, 39.837094], [-75.605779, 39.836086], [-75.617948, 39.834], [-75.623193, 39.832941], [-75.625292, 39.83249], [-75.626932, 39.832127], [-75.633831, 39.830504], [-75.641979, 39.828321], [-75.649527, 39.826053], [-75.658776, 39.822927], [-75.664685, 39.820716], [-75.667167, 39.819736], [-75.673269, 39.817195], [-75.680962, 39.813704], [-75.681206, 39.813588], [-75.681325, 39.813532], [-75.681639, 39.813381], [-75.68974, 39.809301], [-75.694432, 39.806751], [-75.700089, 39.803478], [-75.70606, 39.799773], [-75.706135, 39.799724], [-75.710495, 39.796839], [-75.713918, 39.794464], [-75.722516, 39.788025], [-75.723872, 39.786942], [-75.72501, 39.786018], [-75.732482, 39.779574], [-75.739433, 39.772928], [-75.741268, 39.77105], [-75.744442, 39.767668], [-75.745924, 39.766026], [-75.748448, 39.763127], [-75.75142, 39.759538], [-75.752727, 39.757893], [-75.75769, 39.751231], [-75.759338, 39.748848], [-75.760353, 39.747406], [-75.766009, 39.738114], [-75.766056, 39.738031], [-75.768802, 39.732938], [-75.770797, 39.728914], [-75.773622, 39.722595], [-75.774253, 39.722199], [-75.788596, 39.722199], [-75.788596, 39.719727], [-75.788596, 39.716715], [-75.788598, 39.715902], [-75.788595, 39.715745], [-75.788591, 39.700542], [-75.788592, 39.699825], [-75.788586, 39.695142], [-75.788586, 39.694233], [-75.788585, 39.693413], [-75.788586, 39.691248], [-75.788586, 39.690561], [-75.788589, 39.687856], [-75.788589, 39.687259], [-75.788591, 39.685655], [-75.788594, 39.68195], [-75.788595, 39.680818], [-75.788595, 39.680726], [-75.788591, 39.679541], [-75.788597, 39.678428], [-75.788599, 39.676222], [-75.788599, 39.671513], [-75.788922, 39.664569], [-75.789013, 39.659543], [-75.788999, 39.65821], [-75.788915, 39.654881], [-75.788894, 39.654282], [-75.788881, 39.653938], [-75.788546, 39.648458], [-75.788521, 39.648133], [-75.788274, 39.645122], [-75.788112, 39.643142], [-75.787775, 39.639005], [-75.787753, 39.638731], [-75.787638, 39.637323], [-75.787121, 39.630904], [-75.786369, 39.621665], [-75.785127, 39.606411], [-75.785111, 39.606208], [-75.78383, 39.590478], [-75.783696, 39.588821], [-75.782356, 39.572296], [-75.780924, 39.554636], [-75.779812, 39.540876], [-75.779457, 39.536516], [-75.779382, 39.535554], [-75.779313, 39.534731], [-75.778174, 39.520669], [-75.777632, 39.51398], [-75.777569, 39.513182], [-75.776037, 39.494348], [-75.774946, 39.480951], [-75.773869, 39.467586], [-75.773813, 39.466868], [-75.773705, 39.465529], [-75.77328, 39.460303], [-75.772093, 39.445583], [-75.770186, 39.422134], [-75.769688, 39.416001], [-75.769389, 39.41226], [-75.769362, 39.411919], [-75.767868, 39.393334], [-75.765758, 39.367182], [-75.764311, 39.349305], [-75.763938, 39.344682], [-75.762841, 39.331066], [-75.760911, 39.307185], [-75.760431, 39.30128], [-75.760101, 39.297153], [-75.760074, 39.296819], [-75.758476, 39.276832], [-75.758142, 39.272646], [-75.756969, 39.258067], [-75.756004, 39.246066], [-75.754797, 39.231163], [-75.754494, 39.227418], [-75.753338, 39.213026], [-75.75226, 39.199459], [-75.750995, 39.183646], [-75.750444, 39.176792], [-75.749551, 39.165633], [-75.748004, 39.146348], [-75.747761, 39.143338], [-75.74654, 39.128087], [-75.746118, 39.122795], [-75.745937, 39.120537], [-75.745493, 39.114968], [-75.745374, 39.113522], [-75.74529, 39.112515], [-75.745186, 39.111082], [-75.744906, 39.107648], [-75.744571, 39.103495], [-75.744265, 39.099665], [-75.742682, 39.07977], [-75.742268, 39.074562], [-75.742032, 39.071635], [-75.741981, 39.071007], [-75.740772, 39.055831], [-75.739799, 39.04362], [-75.739159, 39.035641], [-75.739076, 39.034619], [-75.738679, 39.029688], [-75.738502, 39.027462], [-75.738366, 39.02578], [-75.735941, 38.995361], [-75.734675, 38.979353], [-75.734403, 38.975972], [-75.73358, 38.965596], [-75.732926, 38.957392], [-75.732883, 38.956851], [-75.732835, 38.956252], [-75.730994, 38.933089], [-75.729841, 38.918655], [-75.728482, 38.901489], [-75.728439, 38.900943], [-75.728009, 38.895486], [-75.727903, 38.894142], [-75.727376, 38.887542], [-75.727159, 38.884802], [-75.726606, 38.877844], [-75.725829, 38.868186], [-75.725287, 38.861386], [-75.724833, 38.855641], [-75.724455, 38.850879], [-75.724126, 38.846703], [-75.723823, 38.842854], [-75.723053, 38.833098], [-75.722944, 38.831733], [-75.722797, 38.829851], [-75.722055, 38.820367], [-75.720586, 38.801867], [-75.719383, 38.786773], [-75.718228, 38.772152], [-75.717704, 38.765598], [-75.717216, 38.759423], [-75.716954, 38.756099], [-75.716657, 38.752337], [-75.715753, 38.740925], [-75.71474, 38.728104], [-75.714623, 38.72664], [-75.713959, 38.718191], [-75.712964, 38.705623], [-75.712366, 38.698013], [-75.711834, 38.691238], [-75.711298, 38.684438], [-75.709618, 38.663019], [-75.709348, 38.659519], [-75.708024, 38.642727], [-75.707447, 38.635396], [-75.707279, 38.633265], [-75.705177, 38.60661], [-75.704879, 38.602817], [-75.704644, 38.599831], [-75.7035, 38.585303], [-75.701931, 38.56533], [-75.701627, 38.561477], [-75.701569, 38.560736], [-75.701467, 38.559433], [-75.700374, 38.545522], [-75.700147, 38.542619], [-75.698536, 38.522047], [-75.698022, 38.515524], [-75.697692, 38.511317], [-75.696526, 38.496493], [-75.694389, 38.469242], [-75.69367, 38.46008], [-75.691563, 38.460004], [-75.674054, 38.459376], [-75.66267, 38.458967], [-75.630673, 38.457809], [-75.609692, 38.457047], [-75.601871, 38.456761], [-75.582581, 38.456251], [-75.581001, 38.456147], [-75.57987, 38.456133], [-75.578424, 38.456078], [-75.578208, 38.456081], [-75.57803, 38.456078], [-75.576807, 38.456061], [-75.575448, 38.456061], [-75.574222, 38.456028], [-75.573149, 38.456], [-75.571199, 38.455948], [-75.569834, 38.455911], [-75.566372, 38.45578], [-75.564352, 38.455703], [-75.564113, 38.455686], [-75.56318, 38.455649], [-75.562824, 38.455641], [-75.562348, 38.455641], [-75.560762, 38.455594], [-75.560529, 38.455593], [-75.560292, 38.455594], [-75.558394, 38.45557], [-75.558138, 38.455568], [-75.556698, 38.455559], [-75.555338, 38.455525], [-75.553113, 38.455468], [-75.539503, 38.455098], [-75.538034, 38.455058], [-75.533804, 38.454945], [-75.509887, 38.454295], [-75.497181, 38.454058], [-75.481447, 38.453767], [-75.432397, 38.452834], [-75.428643, 38.452767], [-75.418666, 38.452571], [-75.41088, 38.452297], [-75.408646, 38.452377], [-75.39377, 38.452127], [-75.377809, 38.452134], [-75.370891, 38.452238], [-75.368212, 38.452223], [-75.355433, 38.452131], [-75.34039, 38.452028], [-75.336979, 38.452003], [-75.331475, 38.451966], [-75.273027, 38.451537], [-75.252864, 38.451384], [-75.239482, 38.451279], [-75.236269, 38.451254], [-75.233107, 38.451229], [-75.232706, 38.451226], [-75.227219, 38.45122], [-75.220282, 38.451219], [-75.218548, 38.451219], [-75.210862, 38.451218], [-75.206376, 38.451215], [-75.205133, 38.451214], [-75.195461, 38.451211], [-75.185554, 38.451206], [-75.152501, 38.451185], [-75.142015, 38.451176], [-75.137146, 38.451177], [-75.134005, 38.451181], [-75.132338, 38.451183], [-75.128206, 38.451187], [-75.121606, 38.451195], [-75.113832, 38.451203], [-75.107924, 38.451209], [-75.085814, 38.451228], [-75.082068, 38.451323], [-75.070356, 38.451239], [-75.067181, 38.451241], [-75.066218, 38.451242], [-75.065643, 38.451242], [-75.065393, 38.451242], [-75.064719, 38.451243], [-75.062133, 38.451242], [-75.061801, 38.451244], [-75.05801, 38.451248], [-75.057663, 38.451247], [-75.054647, 38.45125], [-75.053584, 38.451249], [-75.052405, 38.451249], [-75.052232, 38.451249], [-75.05077, 38.45125], [-75.04884, 38.451262], [-75.047605, 38.451261], [-74.999625, 38.451132], [-74.986282, 38.451632], [-74.986184, 38.466301], [-74.985128, 38.473851], [-74.984664, 38.486837], [-74.9842, 38.497094], [-74.984165, 38.500111], [-74.984386, 38.509929], [-74.985171, 38.528171], [-74.986251, 38.539164], [-74.987761, 38.549785], [-74.988842, 38.560946], [-74.989669, 38.577367], [-74.992303, 38.595844], [-74.993519, 38.612501], [-74.994095, 38.614439], [-74.997268, 38.625111], [-74.999622, 38.62878], [-75.001968, 38.631683], [-75.001671, 38.635815], [-75.002181, 38.640623], [-75.002132, 38.645664], [-75.00192, 38.649729], [-75.002595, 38.655211], [-75.002745, 38.666235], [-75.002136, 38.67591], [-75.0027, 38.679677], [-75.002751, 38.683274], [-75.003025, 38.685964], [-75.004637, 38.692223], [-75.005936, 38.699892], [-75.006726, 38.70245], [-75.008994, 38.711973], [-75.009534, 38.716916], [-75.009861, 38.719908], [-75.01243, 38.734003], [-75.014212, 38.745036], [-75.014265, 38.748531], [-75.013867, 38.750112], [-75.013268, 38.756147], [-75.013154, 38.767573], [-75.013382, 38.772212], [-75.01521, 38.777576], [-75.01675, 38.784516], [-75.017366, 38.786639], [-75.015123, 38.788657], [-75.016109, 38.79053], [-75.048958, 38.847865], [-75.06412, 38.87433], [-75.064769, 38.875112], [-75.075728, 38.894434], [-75.11465, 38.962271], [-75.124381, 38.979231], [-75.128993, 38.987417], [-75.134653, 38.997572], [-75.138461, 39.002697], [-75.142827, 39.011487], [-75.168462, 39.056179], [-75.179779, 39.067398], [-75.191671, 39.079], [-75.219075, 39.115947], [-75.224, 39.123053], [-75.236967, 39.141472], [-75.248151, 39.157766], [-75.249017, 39.158945], [-75.300521, 39.225274], [-75.316223, 39.245307], [-75.321021, 39.251379], [-75.332356, 39.260805], [-75.346518, 39.272489], [-75.38113, 39.300845], [-75.40182, 39.318286], [-75.42007, 39.333884], [-75.444751, 39.355089], [-75.469436, 39.373147], [-75.471189, 39.375021], [-75.48136, 39.387555], [-75.48764, 39.392844], [-75.531125, 39.430197], [-75.550198, 39.446749], [-75.560538, 39.455645], [-75.560485, 39.456845], [-75.563586, 39.483048], [-75.563562, 39.48329], [-75.55909, 39.495806], [-75.546486, 39.496242], [-75.542606, 39.496574], [-75.538384, 39.496942], [-75.527861, 39.498139], [-75.526823, 39.499411], [-75.529368, 39.501229], [-75.5294, 39.502842], [-75.530051, 39.504817], [-75.530022, 39.510414], [-75.528971, 39.513663], [-75.527522, 39.515614], [-75.527394, 39.517443], [-75.528264, 39.518082], [-75.527926, 39.521634], [-75.527079, 39.523707], [-75.526654, 39.526638], [-75.526921, 39.528612], [-75.526671, 39.530215], [-75.527496, 39.532715], [-75.52733, 39.534189], [-75.527799, 39.535364], [-75.531968, 39.537165], [-75.533975, 39.540218], [-75.533412, 39.542044], [-75.530193, 39.545262], [-75.527028, 39.547655], [-75.521364, 39.552914], [-75.518144, 39.556684], [-75.515007, 39.562612], [-75.513501, 39.564721], [-75.51196, 39.56729], [-75.51277, 39.57829], [-75.514189, 39.579348], [-75.514658, 39.580788], [-75.515685, 39.580905], [-75.518065, 39.58284], [-75.520619, 39.583499], [-75.522055, 39.583423], [-75.524611, 39.584137], [-75.527693, 39.584112], [-75.529309, 39.58608], [-75.530493, 39.5868], [-75.531279, 39.588697], [-75.532992, 39.589032], [-75.534216, 39.590342], [-75.536941, 39.591872], [-75.537375, 39.593532], [-75.540118, 39.594344], [-75.542146, 39.594519], [-75.543499, 39.595797], [-75.546142, 39.597371], [-75.548144, 39.599325], [-75.550318, 39.600766], [-75.553398, 39.601766], [-75.554031, 39.603818], [-75.555059, 39.604691], [-75.555639, 39.605817]]]]}}]}