{"type": "FeatureCollection", "features": [{"type": "Feature", "properties": {"id": 1, "NAME": "1", "text-color": "#000000", "text-size": 16, "TotalPop": 726395, "PopDevPct": -0.00170484, "DemPct": 0.61500964, "RepPct": 0.36769812, "WhitePct": 0.16086665, "MinorityPct": 0.83913335, "BlackPct": 0.0311444, "HispanicPct": 0.06607429, "PacificPct": 0.17927326, "AsianPct": 0.68122064, "NativePct": 0.01871738, "TotalVAP": 585659, "Margin": 0.11500964, "color": "#e10000", "opacity": "0.5", "year": 2022, "state": "HI", "state-district": "HI-01"}, "geometry": {"type": "MultiPolygon", "coordinates": [[[[-157.794208, 21.366455], [-157.797412, 21.367274], [-157.807322, 21.368029], [-157.80796, 21.368867], [-157.809655, 21.36933], [-157.810374, 21.370355], [-157.810307, 21.372497], [-157.810755, 21.37556], [-157.813414, 21.378362], [-157.813618, 21.378642], [-157.81529, 21.379905], [-157.818636, 21.381936], [-157.821988, 21.383273], [-157.823555, 21.38503], [-157.824155, 21.38703], [-157.825154, 21.38843], [-157.824554, 21.38993], [-157.825454, 21.39203], [-157.824054, 21.39513], [-157.824954, 21.39563], [-157.828454, 21.39623], [-157.829254, 21.39693], [-157.829854, 21.39843], [-157.833454, 21.39973], [-157.835725, 21.400297], [-157.838903, 21.401987], [-157.839491, 21.403138], [-157.838679, 21.403169], [-157.838663, 21.403826], [-157.838502, 21.410739], [-157.838323, 21.410982], [-157.838237, 21.411099], [-157.838196, 21.411155], [-157.837739, 21.411593], [-157.837189, 21.411929], [-157.837054, 21.412029], [-157.836947, 21.412101], [-157.836762, 21.412227], [-157.836646, 21.412339], [-157.836554, 21.412429], [-157.836501, 21.412683], [-157.837983, 21.414046], [-157.838425, 21.417798], [-157.840302, 21.418361], [-157.840554, 21.418829], [-157.840954, 21.419029], [-157.843353, 21.420329], [-157.84497, 21.421824], [-157.848144, 21.423694], [-157.850553, 21.426129], [-157.854309, 21.426719], [-157.858551, 21.4281], [-157.859153, 21.428629], [-157.859553, 21.430029], [-157.860382, 21.430072], [-157.860534, 21.431262], [-157.861572, 21.432273], [-157.862675, 21.434282], [-157.864166, 21.436164], [-157.866882, 21.436786], [-157.872467, 21.439792], [-157.873962, 21.443297], [-157.874572, 21.447603], [-157.874453, 21.449228], [-157.873748, 21.450521], [-157.873962, 21.451563], [-157.873015, 21.452825], [-157.873564, 21.454916], [-157.874952, 21.456328], [-157.874754, 21.458353], [-157.875212, 21.459284], [-157.87625, 21.459474], [-157.876219, 21.460897], [-157.879851, 21.460306], [-157.882201, 21.460581], [-157.882811, 21.46142], [-157.885039, 21.461874], [-157.887206, 21.463568], [-157.887755, 21.466837], [-157.888549, 21.468246], [-157.889313, 21.468578], [-157.890694, 21.472256], [-157.890035, 21.47539], [-157.889203, 21.476697], [-157.890439, 21.478967], [-157.89094, 21.482072], [-157.890352, 21.483927], [-157.891734, 21.486693], [-157.89157, 21.488284], [-157.892229, 21.489781], [-157.892054, 21.4929], [-157.894268, 21.495846], [-157.894954, 21.498109], [-157.896254, 21.499943], [-157.895804, 21.50071], [-157.896243, 21.50156], [-157.898798, 21.501697], [-157.901251, 21.501527], [-157.901487, 21.50079], [-157.902433, 21.500939], [-157.904233, 21.500176], [-157.904691, 21.499001], [-157.905912, 21.498689], [-157.908018, 21.499055], [-157.91406, 21.498197], [-157.91583, 21.498339], [-157.917692, 21.497202], [-157.91998, 21.497679], [-157.925931, 21.497251], [-157.928159, 21.49592], [-157.929532, 21.495802], [-157.931699, 21.496492], [-157.934446, 21.497038], [-157.937314, 21.49666], [-157.940702, 21.496538], [-157.942533, 21.495245], [-157.945402, 21.494413], [-157.94827, 21.494993], [-157.951017, 21.494265], [-157.951749, 21.493689], [-157.953031, 21.493906], [-157.956235, 21.492384], [-157.95947, 21.491481], [-157.960172, 21.490378], [-157.96237, 21.489596], [-157.964842, 21.489238], [-157.968596, 21.487075], [-157.970488, 21.48762], [-157.972197, 21.487121], [-157.974089, 21.487697], [-157.976061, 21.487736], [-157.978116, 21.487258], [-157.980375, 21.487533], [-157.983751, 21.487229], [-157.986448, 21.487506], [-157.987751, 21.487229], [-157.989744, 21.487864], [-157.991086, 21.487567], [-157.996051, 21.485329], [-157.999658, 21.489409], [-157.999918, 21.489313], [-158.001176, 21.489166], [-158.001974, 21.489739], [-158.001297, 21.49104], [-158.001475, 21.492619], [-158.002094, 21.492496], [-158.002129, 21.491136], [-158.0019, 21.491516], [-158.001835, 21.490812], [-158.002046, 21.490372], [-158.002805, 21.489703], [-158.003139, 21.489515], [-158.003354, 21.490095], [-158.003296, 21.490575], [-158.003542, 21.491013], [-158.004394, 21.490804], [-158.004848, 21.490352], [-158.005427, 21.490247], [-158.006157, 21.490243], [-158.007683, 21.490583], [-158.008261, 21.490466], [-158.007404, 21.48959], [-158.007585, 21.489204], [-158.00822, 21.488459], [-158.008647, 21.488385], [-158.008953, 21.488677], [-158.009536, 21.489758], [-158.009623, 21.488795], [-158.010416, 21.488842], [-158.011789, 21.489402], [-158.012339, 21.489883], [-158.012461, 21.489695], [-158.012609, 21.488797], [-158.013096, 21.488744], [-158.013496, 21.489622], [-158.013801, 21.489574], [-158.014499, 21.489141], [-158.014744, 21.489243], [-158.015023, 21.490175], [-158.015237, 21.490562], [-158.015572, 21.490716], [-158.015996, 21.490285], [-158.015934, 21.489809], [-158.016296, 21.489072], [-158.017086, 21.488483], [-158.018061, 21.488848], [-158.018204, 21.48961], [-158.018581, 21.489134], [-158.019038, 21.489049], [-158.019374, 21.48918], [-158.019526, 21.489485], [-158.019407, 21.490025], [-158.019028, 21.49052], [-158.019838, 21.490511], [-158.020656, 21.490049], [-158.020837, 21.489443], [-158.021322, 21.489254], [-158.021868, 21.488676], [-158.021891, 21.488295], [-158.022262, 21.488351], [-158.022505, 21.488157], [-158.022871, 21.4882], [-158.023361, 21.488796], [-158.024123, 21.489016], [-158.024978, 21.489378], [-158.024944, 21.488681], [-158.0254, 21.488505], [-158.025889, 21.488742], [-158.026488, 21.489472], [-158.026805, 21.489191], [-158.027997, 21.49002], [-158.028303, 21.490406], [-158.028305, 21.490969], [-158.027695, 21.491563], [-158.027798, 21.491763], [-158.027942, 21.491698], [-158.028063, 21.491644], [-158.028366, 21.491491], [-158.028403, 21.491474], [-158.02852, 21.491461], [-158.028359, 21.489916], [-158.028308, 21.489666], [-158.028178, 21.488937], [-158.027782, 21.486751], [-158.026543, 21.479856], [-158.026277, 21.478429], [-158.025466, 21.474269], [-158.023889, 21.465657], [-158.02347, 21.46242], [-158.023512, 21.461954], [-158.023752, 21.459331], [-158.027129, 21.455136], [-158.029135, 21.451732], [-158.028974, 21.449206], [-158.02877, 21.447777], [-158.027875, 21.445717], [-158.029555, 21.442859], [-158.029418, 21.441468], [-158.028319, 21.43939], [-158.028349, 21.436831], [-158.028746, 21.434168], [-158.029753, 21.432448], [-158.03018, 21.430784], [-158.029814, 21.428034], [-158.02777, 21.427069], [-158.026752, 21.426232], [-158.026091, 21.424742], [-158.024901, 21.425291], [-158.024752, 21.424132], [-158.027452, 21.424432], [-158.028349, 21.424021], [-158.028441, 21.422052], [-158.029265, 21.421492], [-158.028105, 21.421251], [-158.028288, 21.420645], [-158.031035, 21.420383], [-158.031371, 21.419776], [-158.030455, 21.419231], [-158.027464, 21.418391], [-158.026549, 21.416141], [-158.027464, 21.413791], [-158.026428, 21.412254], [-158.024414, 21.411075], [-158.022857, 21.408507], [-158.020904, 21.407993], [-158.021057, 21.406005], [-158.02008, 21.404075], [-158.018873, 21.403357], [-158.02004, 21.402447], [-158.018189, 21.401166], [-158.017974, 21.398934], [-158.018653, 21.397734], [-158.01972, 21.397062], [-158.020101, 21.395664], [-158.019446, 21.393943], [-158.019232, 21.39053], [-158.019216, 21.390295], [-158.023187, 21.388663], [-158.025583, 21.387319], [-158.031992, 21.383717], [-158.032161, 21.38362], [-158.039517, 21.37945], [-158.043742, 21.377597], [-158.048782, 21.375601], [-158.051875, 21.373668], [-158.057296, 21.368827], [-158.060069, 21.366345], [-158.060317, 21.366137], [-158.062067, 21.364385], [-158.063044, 21.362478], [-158.064122, 21.35721], [-158.065759, 21.353544], [-158.067979, 21.350978], [-158.071515, 21.347718], [-158.075461, 21.344053], [-158.077672, 21.342007], [-158.080344, 21.339348], [-158.083973, 21.335085], [-158.085684, 21.333314], [-158.08775, 21.332298], [-158.089447, 21.332081], [-158.089535, 21.332081], [-158.089532, 21.331955], [-158.08953, 21.331869], [-158.08955, 21.33158], [-158.089555, 21.331512], [-158.089559, 21.331456], [-158.089571, 21.331356], [-158.089596, 21.331171], [-158.089614, 21.331059], [-158.08963, 21.330961], [-158.08982, 21.329766], [-158.089894, 21.329256], [-158.089885, 21.329195], [-158.089848, 21.329134], [-158.090021, 21.328337], [-158.090771, 21.326815], [-158.08869, 21.326251], [-158.088522, 21.325714], [-158.087803, 21.321716], [-158.088269, 21.31891], [-158.088084, 21.313752], [-158.088071, 21.313605], [-158.088022, 21.313004], [-158.087056, 21.301175], [-158.085981, 21.29565], [-158.085306, 21.292903], [-158.085274, 21.292551], [-158.084955, 21.28904], [-158.084919, 21.23928], [-158.072479, 21.241923], [-158.05981, 21.241274], [-158.049248, 21.242549], [-158.044429, 21.242874], [-158.039048, 21.243236], [-158.032586, 21.244503], [-158.028134, 21.246839], [-158.027219, 21.24785], [-158.025655, 21.248339], [-158.021955, 21.248739], [-158.018255, 21.248739], [-158.013355, 21.249239], [-158.004455, 21.249239], [-158.000055, 21.249639], [-157.995555, 21.249639], [-157.991855, 21.250139], [-157.987336, 21.24972], [-157.985155, 21.250139], [-157.983355, 21.250139], [-157.979955, 21.250739], [-157.974355, 21.252039], [-157.972746, 21.252575], [-157.968255, 21.254339], [-157.966655, 21.255339], [-157.963555, 21.257738], [-157.958755, 21.256039], [-157.956555, 21.255639], [-157.953355, 21.254639], [-157.947055, 21.253839], [-157.941955, 21.253039], [-157.939455, 21.251339], [-157.936655, 21.249939], [-157.933655, 21.248839], [-157.931455, 21.248339], [-157.925055, 21.247839], [-157.922456, 21.247839], [-157.919856, 21.247239], [-157.917356, 21.247539], [-157.913456, 21.247539], [-157.911756, 21.247839], [-157.907856, 21.247839], [-157.905256, 21.248039], [-157.901856, 21.248839], [-157.898656, 21.249939], [-157.897956, 21.248839], [-157.895956, 21.246839], [-157.894809, 21.246839], [-157.886051, 21.243228], [-157.881329, 21.23935], [-157.873653, 21.228779], [-157.872257, 21.228278], [-157.865821, 21.219726], [-157.859067, 21.213135], [-157.85096, 21.209072], [-157.829093, 21.200941], [-157.828089, 21.20085], [-157.810229, 21.199238], [-157.790852, 21.201676], [-157.771407, 21.207833], [-157.760082, 21.214386], [-157.757984, 21.2156], [-157.753337, 21.2194], [-157.747257, 21.220916], [-157.745311, 21.221671], [-157.739958, 21.216855], [-157.730909, 21.212455], [-157.723192, 21.21041], [-157.719701, 21.209485], [-157.708324, 21.208202], [-157.689378, 21.209184], [-157.675777, 21.213801], [-157.66507, 21.21994], [-157.653476, 21.229114], [-157.648097, 21.23619], [-157.645863, 21.240573], [-157.638931, 21.244103], [-157.634071, 21.246833], [-157.631985, 21.248456], [-157.624233, 21.254036], [-157.622252, 21.255331], [-157.616131, 21.260429], [-157.607693, 21.269134], [-157.600922, 21.282919], [-157.597909, 21.295134], [-157.597288, 21.310662], [-157.59758, 21.313817], [-157.622254, 21.313826], [-157.647857, 21.313929], [-157.648967, 21.311004], [-157.649957, 21.30973], [-157.651111, 21.308843], [-157.651501, 21.308643], [-157.652775, 21.308717], [-157.654341, 21.309485], [-157.657334, 21.308843], [-157.657298, 21.308635], [-157.65861, 21.308935], [-157.660426, 21.308134], [-157.662246, 21.309534], [-157.663052, 21.309334], [-157.665682, 21.311532], [-157.668002, 21.312531], [-157.671241, 21.31573], [-157.672349, 21.317242], [-157.674418, 21.317742], [-157.67816, 21.320166], [-157.681208, 21.320629], [-157.682069, 21.320427], [-157.684835, 21.319918], [-157.685329, 21.321025], [-157.687413, 21.321582], [-157.689504, 21.321213], [-157.691554, 21.320028], [-157.695027, 21.320429], [-157.69586, 21.319832], [-157.696961, 21.319046], [-157.701263, 21.317851], [-157.702065, 21.317261], [-157.703466, 21.317348], [-157.704566, 21.316562], [-157.706364, 21.316648], [-157.707157, 21.317731], [-157.709757, 21.318231], [-157.710757, 21.317031], [-157.712757, 21.317431], [-157.714673, 21.317009], [-157.714957, 21.317031], [-157.716857, 21.317132], [-157.718957, 21.318431], [-157.720357, 21.318531], [-157.721357, 21.318632], [-157.722857, 21.320031], [-157.723557, 21.321331], [-157.725857, 21.324131], [-157.726457, 21.323831], [-157.727657, 21.323231], [-157.730957, 21.322631], [-157.732257, 21.322731], [-157.734857, 21.323331], [-157.737057, 21.323032], [-157.740575, 21.323987], [-157.742808, 21.324643], [-157.747774, 21.325892], [-157.749191, 21.327219], [-157.752673, 21.327826], [-157.75482, 21.329473], [-157.755786, 21.330631], [-157.758103, 21.331286], [-157.759048, 21.331853], [-157.762656, 21.331732], [-157.763856, 21.332132], [-157.768156, 21.332232], [-157.771556, 21.333132], [-157.775556, 21.335632], [-157.779156, 21.335832], [-157.780756, 21.336232], [-157.784656, 21.338932], [-157.785156, 21.339732], [-157.787156, 21.341132], [-157.788056, 21.343031], [-157.788356, 21.346231], [-157.788603, 21.34872], [-157.789183, 21.350014], [-157.789071, 21.3532], [-157.78829, 21.355152], [-157.788636, 21.359552], [-157.78938, 21.362094], [-157.790602, 21.364043], [-157.791674, 21.365013], [-157.793688, 21.366166], [-157.793845, 21.366253], [-157.794208, 21.366455]]]]}}, {"type": "Feature", "properties": {"id": 2, "NAME": "2", "text-color": "#000000", "text-size": 16, "TotalPop": 728876, "PopDevPct": 0.00170484, "DemPct": 0.5973434, "RepPct": 0.38140304, "WhitePct": 0.31812762, "MinorityPct": 0.68187238, "BlackPct": 0.02410188, "HispanicPct": 0.09541496, "PacificPct": 0.27963019, "AsianPct": 0.43418454, "NativePct": 0.03010455, "TotalVAP": 570246, "Margin": 0.0973434, "color": "#0000f8", "opacity": "0.5", "year": 2022, "state": "HI", "state-district": "HI-02"}, "geometry": {"type": "MultiPolygon", "coordinates": [[[[-161.987555, 23.069924], [-161.987241, 23.056733], [-161.985445, 23.041131], [-161.976061, 23.025564], [-161.955171, 23.009169], [-161.931897, 23.005313], [-161.894219, 23.00943], [-161.875, 23.020058], [-161.875, 23.019242], [-161.871445, 23.023476], [-161.86858, 23.027704], [-161.866456, 23.032816], [-161.863342, 23.036602], [-161.860766, 23.044378], [-161.858925, 23.052594], [-161.858059, 23.060806], [-161.858884, 23.068122], [-161.859956, 23.075659], [-161.863002, 23.085183], [-161.867706, 23.09115], [-161.870439, 23.095352], [-161.875, 23.097547], [-161.875, 23.101637], [-161.887575, 23.110384], [-161.91944, 23.113988], [-161.944662, 23.111897], [-161.965449, 23.104987], [-161.982524, 23.091275], [-161.987555, 23.069924]]], [[[-176.043354, 27.795897], [-176.04292, 27.778406], [-176.039627, 27.758242], [-176.034445, 27.75], [-176.029292, 27.742683], [-176.024927, 27.73804], [-176.005472, 27.720311], [-176, 27.716093], [-176, 27.709306], [-175.969598, 27.693402], [-175.939488, 27.688231], [-175.895192, 27.699213], [-175.875, 27.710157], [-175.875, 27.708412], [-175.864945, 27.714534], [-175.84505, 27.728457], [-175.817525, 27.722972], [-175.802939, 27.723485], [-175.779138, 27.725685], [-175.75, 27.733254], [-175.75, 27.732292], [-175.746115, 27.732717], [-175.734134, 27.738855], [-175.726159, 27.75], [-175.676624, 27.846765], [-175.666492, 27.875], [-175.665594, 27.875], [-175.664062, 27.894062], [-175.66479, 27.914418], [-175.670128, 27.941601], [-175.681533, 27.958559], [-175.704354, 27.982737], [-175.734928, 28], [-175.740038, 28], [-175.74655, 28.001649], [-175.75, 28.003037], [-175.769684, 28.007475], [-175.786314, 28.008607], [-175.799914, 28.00817], [-175.806733, 28.007192], [-175.810052, 28.005942], [-175.817378, 28.00215], [-175.823072, 28], [-175.875, 27.973301], [-175.875, 27.975913], [-175.908844, 27.958268], [-175.93565, 27.940581], [-175.950463, 27.936199], [-175.966335, 27.929911], [-175.981439, 27.913218], [-175.987573, 27.900514], [-175.992144, 27.889499], [-175.993754, 27.875], [-175.990656, 27.875], [-175.988874, 27.861904], [-175.978157, 27.847977], [-175.955759, 27.833055], [-175.939506, 27.827476], [-175.925443, 27.823432], [-175.921028, 27.821439], [-175.924304, 27.81371], [-175.932504, 27.814451], [-175.938833, 27.818623], [-175.974562, 27.830245], [-175.983246, 27.831421], [-175.990685, 27.832582], [-176, 27.83053], [-176, 27.835344], [-176.006191, 27.832607], [-176.01083, 27.830286], [-176.025016, 27.821579], [-176.028718, 27.817273], [-176.036633, 27.807142], [-176.042592, 27.798068], [-176.043354, 27.795897]]], [[[-166.386532, 23.846363], [-166.384476, 23.831992], [-166.378839, 23.823635], [-166.375, 23.821641], [-166.375, 23.824624], [-166.369229, 23.815536], [-166.356342, 23.805945], [-166.336822, 23.79964], [-166.322572, 23.799052], [-166.313574, 23.803736], [-166.319152, 23.791047], [-166.323742, 23.770974], [-166.320163, 23.758484], [-166.316696, 23.75], [-166.319701, 23.75], [-166.315823, 23.74012], [-166.302607, 23.728666], [-166.28599, 23.71812], [-166.265589, 23.71314], [-166.25, 23.713898], [-166.25, 23.718171], [-166.241222, 23.719672], [-166.231496, 23.723609], [-166.226782, 23.727444], [-166.224907, 23.715169], [-166.222827, 23.704878], [-166.214811, 23.696686], [-166.205415, 23.691601], [-166.212001, 23.68553], [-166.223964, 23.672533], [-166.229871, 23.654382], [-166.232285, 23.64158], [-166.228781, 23.631757], [-166.22484, 23.625], [-166.228861, 23.625], [-166.224238, 23.614791], [-166.211058, 23.59981], [-166.194409, 23.589531], [-166.172218, 23.58709], [-166.151155, 23.590464], [-166.131313, 23.603011], [-166.125, 23.609281], [-166.125, 23.607113], [-166.116781, 23.611254], [-166.112626, 23.616625], [-166.110682, 23.625], [-166.117136, 23.625], [-166.113135, 23.636982], [-166.113842, 23.652336], [-166.11769, 23.664596], [-166.125, 23.670732], [-166.125, 23.674083], [-166.130746, 23.681008], [-166.132954, 23.684703], [-166.125, 23.690139], [-166.125, 23.686096], [-166.113494, 23.697148], [-166.105881, 23.713536], [-166.104627, 23.728929], [-166.10678, 23.742522], [-166.11326, 23.75], [-166.114577, 23.75], [-166.116662, 23.754222], [-166.116512, 23.757401], [-166.116884, 23.761705], [-166.118499, 23.766669], [-166.125, 23.772907], [-166.125, 23.766114], [-166.129358, 23.770173], [-166.136787, 23.778514], [-166.142592, 23.784371], [-166.148171, 23.785479], [-166.150246, 23.799724], [-166.153478, 23.818941], [-166.164856, 23.835407], [-166.169739, 23.837422], [-166.16834, 23.840143], [-166.164839, 23.851018], [-166.165522, 23.864816], [-166.168303, 23.875], [-166.165936, 23.875], [-166.170447, 23.888452], [-166.182347, 23.902325], [-166.204276, 23.917214], [-166.233064, 23.928491], [-166.25, 23.93243], [-166.25, 23.92886], [-166.26473, 23.928521], [-166.28801, 23.924172], [-166.288366, 23.928977], [-166.307072, 23.924883], [-166.324743, 23.917954], [-166.330052, 23.908292], [-166.351371, 23.902858], [-166.36562, 23.894207], [-166.375, 23.885382], [-166.375, 23.888267], [-166.380463, 23.883978], [-166.382197, 23.878196], [-166.383287, 23.875], [-166.381928, 23.875], [-166.384029, 23.865623], [-166.386532, 23.846363]]], [[[-168.058215, 25], [-168.058387, 24.987885], [-168.050345, 24.974487], [-168.037751, 24.959715], [-168.02359, 24.954477], [-168, 24.950705], [-168, 24.948107], [-167.983537, 24.949265], [-167.966767, 24.954887], [-167.958587, 24.961381], [-167.953685, 24.964386], [-167.94897, 24.97364], [-167.947287, 24.981406], [-167.944204, 24.989807], [-167.944593, 25], [-167.946338, 25], [-167.947882, 25.009486], [-167.952449, 25.023538], [-167.962008, 25.033216], [-167.972527, 25.041224], [-167.98894, 25.049049], [-168, 25.05224], [-168, 25.050253], [-168.009697, 25.049819], [-168.01596, 25.048561], [-168.022226, 25.04668], [-168.02699, 25.044802], [-168.035523, 25.040012], [-168.042052, 25.035432], [-168.046577, 25.031272], [-168.050607, 25.025868], [-168.052631, 25.021299], [-168.056187, 25.010502], [-168.057977, 25.002613], [-168.058215, 25]]], [[[-170.684631, 25.506313], [-170.684631, 25.504339], [-170.684128, 25.499939], [-170.683243, 25.495636], [-170.681961, 25.491236], [-170.679565, 25.48554], [-170.677033, 25.481075], [-170.674149, 25.47703], [-170.670364, 25.472693], [-170.666596, 25.469198], [-170.662201, 25.465832], [-170.656998, 25.462725], [-170.654465, 25.461462], [-170.649551, 25.459358], [-170.644699, 25.457838], [-170.64209, 25.45719], [-170.636673, 25.456219], [-170.62973, 25.455732], [-170.623734, 25.455927], [-170.616791, 25.456963], [-170.611084, 25.458355], [-170.605835, 25.460232], [-170.600769, 25.462595], [-170.596146, 25.465313], [-170.591644, 25.468615], [-170.587875, 25.472014], [-170.584381, 25.4758], [-170.581131, 25.480137], [-170.578171, 25.485119], [-170.576172, 25.489649], [-170.57518, 25.492561], [-170.573853, 25.49803], [-170.573151, 25.505116], [-170.573319, 25.510357], [-170.574249, 25.51631], [-170.57515, 25.519577], [-170.576325, 25.522974], [-170.578568, 25.527988], [-170.582016, 25.533682], [-170.584381, 25.536722], [-170.588516, 25.541218], [-170.594116, 25.54594], [-170.599136, 25.549238], [-170.605301, 25.552343], [-170.611572, 25.554607], [-170.618317, 25.556192], [-170.625336, 25.557034], [-170.630829, 25.557131], [-170.636002, 25.556742], [-170.643127, 25.555481], [-170.647446, 25.554285], [-170.653641, 25.551924], [-170.656754, 25.550436], [-170.659927, 25.548657], [-170.663452, 25.54636], [-170.666534, 25.543947], [-170.669373, 25.541445], [-170.672897, 25.537661], [-170.676071, 25.533585], [-170.677429, 25.531546], [-170.679855, 25.527147], [-170.681702, 25.522877], [-170.683167, 25.518446], [-170.684097, 25.513722], [-170.684601, 25.508837], [-170.684631, 25.506313]]], [[[-164.76481, 23.581721], [-164.764911, 23.574951], [-164.76473, 23.56638], [-164.76261, 23.558509], [-164.757553, 23.550222], [-164.753056, 23.545314], [-164.75, 23.541069], [-164.75, 23.536146], [-164.739365, 23.530163], [-164.723041, 23.521757], [-164.7013, 23.517002], [-164.685218, 23.517149], [-164.673322, 23.521085], [-164.663883, 23.527025], [-164.654024, 23.535221], [-164.645348, 23.551514], [-164.640019, 23.576111], [-164.644609, 23.59454], [-164.654083, 23.607069], [-164.668763, 23.616624], [-164.68263, 23.622806], [-164.688894, 23.623425], [-164.709793, 23.623234], [-164.72463, 23.62107], [-164.74006, 23.614394], [-164.75, 23.605135], [-164.753792, 23.603517], [-164.758092, 23.598952], [-164.761151, 23.593499], [-164.76345, 23.586702], [-164.76481, 23.581721]]], [[[-174.067374, 26.059614], [-174.067457, 26.052484], [-174.065944, 26.039428], [-174.059183, 26.020719], [-174.046093, 26.002306], [-174.043109, 26], [-174.037538, 26], [-174.027205, 25.993278], [-174.006404, 25.990289], [-174, 25.990212], [-174, 25.992878], [-173.99183, 25.995143], [-173.98453, 25.997622], [-173.980287, 26], [-173.977045, 26], [-173.964922, 26.006639], [-173.94276, 26.010714], [-173.925968, 26.019627], [-173.913145, 26.035998], [-173.903358, 26.060056], [-173.903829, 26.06676], [-173.908508, 26.081882], [-173.913424, 26.099399], [-173.91857, 26.109741], [-173.926049, 26.117236], [-173.929088, 26.120139], [-173.938901, 26.125], [-173.936105, 26.125], [-173.950252, 26.133152], [-173.957916, 26.13569], [-173.969551, 26.135383], [-173.981428, 26.133224], [-173.99188, 26.136608], [-174, 26.13688], [-174, 26.135496], [-174.003462, 26.136483], [-174.007114, 26.137053], [-174.010978, 26.136586], [-174.0189, 26.133996], [-174.031114, 26.12907], [-174.038264, 26.125], [-174.036624, 26.125], [-174.040725, 26.122602], [-174.04962, 26.116578], [-174.052469, 26.112987], [-174.054791, 26.107737], [-174.059123, 26.094151], [-174.061535, 26.082008], [-174.067374, 26.059614]]], [[[-178.443593, 28.418986], [-178.440486, 28.405172], [-178.415882, 28.380086], [-178.413734, 28.375], [-178.415719, 28.375], [-178.411478, 28.360661], [-178.39561, 28.341901], [-178.375, 28.335357], [-178.375, 28.33754], [-178.341744, 28.333856], [-178.301402, 28.328336], [-178.288895, 28.32881], [-178.270263, 28.335888], [-178.257526, 28.342832], [-178.25, 28.349421], [-178.25, 28.347151], [-178.238859, 28.361981], [-178.233018, 28.375], [-178.237071, 28.375], [-178.232493, 28.383633], [-178.230504, 28.397701], [-178.232223, 28.427335], [-178.238469, 28.45615], [-178.25, 28.468178], [-178.25, 28.466674], [-178.257041, 28.476535], [-178.271166, 28.488565], [-178.288827, 28.5], [-178.281065, 28.5], [-178.291516, 28.507207], [-178.304348, 28.513263], [-178.315121, 28.516334], [-178.333711, 28.517202], [-178.34054, 28.517269], [-178.360627, 28.513819], [-178.375, 28.510084], [-178.375, 28.507822], [-178.381315, 28.503586], [-178.386433, 28.5], [-178.395769, 28.5], [-178.411795, 28.483742], [-178.427578, 28.466102], [-178.438336, 28.444088], [-178.443593, 28.418986]]], [[[-171.809629, 25.78135], [-171.807047, 25.767133], [-171.800446, 25.75], [-171.801352, 25.75], [-171.797027, 25.740539], [-171.782867, 25.728338], [-171.77015, 25.718199], [-171.75528, 25.711453], [-171.75, 25.710269], [-171.75, 25.709191], [-171.737491, 25.706533], [-171.718432, 25.709495], [-171.699845, 25.716858], [-171.68686, 25.727879], [-171.680475, 25.736752], [-171.674071, 25.75], [-171.67768, 25.75], [-171.667922, 25.781217], [-171.669362, 25.793908], [-171.676628, 25.810907], [-171.688276, 25.823768], [-171.710623, 25.833211], [-171.731523, 25.83465], [-171.75, 25.833467], [-171.75, 25.837944], [-171.76812, 25.833681], [-171.786978, 25.822301], [-171.800148, 25.805822], [-171.806464, 25.79336], [-171.809629, 25.78135]]], [[[-155.963331, 19.08159], [-155.961074, 19.073443], [-155.957884, 19.06285], [-155.954064, 19.053622], [-155.948896, 19.046528], [-155.944526, 19.041484], [-155.940426, 19.036099], [-155.937404, 19.029861], [-155.93403, 19.021572], [-155.931273, 19.016274], [-155.925931, 19.008154], [-155.921561, 19.003793], [-155.916334, 18.999999], [-155.913074, 18.997972], [-155.899412, 18.990399], [-155.882228, 18.980631], [-155.875, 18.978114], [-155.875, 18.97643], [-155.864817, 18.973749], [-155.85076, 18.969238], [-155.835679, 18.967666], [-155.828233, 18.966542], [-155.808179, 18.952732], [-155.794371, 18.942813], [-155.781727, 18.933417], [-155.77028, 18.928937], [-155.755342, 18.923475], [-155.75, 18.922632], [-155.747461, 18.921179], [-155.739971, 18.916891], [-155.736215, 18.908241], [-155.730548, 18.894114], [-155.722895, 18.882523], [-155.713688, 18.875], [-155.705973, 18.870301], [-155.694257, 18.866786], [-155.67836, 18.86546], [-155.662995, 18.866159], [-155.649041, 18.870503], [-155.641812, 18.875], [-155.639097, 18.875], [-155.630753, 18.879687], [-155.625, 18.886096], [-155.625, 18.883908], [-155.61606, 18.890249], [-155.603944, 18.90128], [-155.591551, 18.912736], [-155.583779, 18.922094], [-155.574511, 18.928175], [-155.5656, 18.934517], [-155.55747, 18.943442], [-155.551511, 18.951789], [-155.545351, 18.96185], [-155.543224, 18.9741], [-155.541787, 18.981294], [-155.537366, 18.989057], [-155.532261, 18.99355], [-155.526053, 19], [-155.523256, 19.003813], [-155.518785, 19.008071], [-155.516554, 19.011483], [-155.514594, 19.015579], [-155.513265, 19.020361], [-155.509352, 19.030178], [-155.503307, 19.046483], [-155.501369, 19.056819], [-155.501383, 19.060837], [-155.501012, 19.061777], [-155.500002, 19.064338], [-155.498583, 19.063905], [-155.497611, 19.065441], [-155.494878, 19.071586], [-155.494275, 19.072085], [-155.484075, 19.08053], [-155.477606, 19.084274], [-155.47247, 19.088789], [-155.46769, 19.093561], [-155.466097, 19.095352], [-155.460243, 19.097045], [-155.451195, 19.099414], [-155.43922, 19.102885], [-155.428934, 19.107215], [-155.41883, 19.114193], [-155.406515, 19.124582], [-155.406541, 19.125002], [-155.404294, 19.127726], [-155.401865, 19.131054], [-155.397914, 19.135056], [-155.393505, 19.1412], [-155.391434, 19.14436], [-155.386153, 19.146031], [-155.380511, 19.148385], [-155.378633, 19.148798], [-155.374298, 19.151294], [-155.372952, 19.152233], [-155.365346, 19.153814], [-155.356931, 19.155993], [-155.348155, 19.158773], [-155.345555, 19.160047], [-155.342151, 19.161315], [-155.33578, 19.16558], [-155.330756, 19.168647], [-155.325377, 19.17128], [-155.320261, 19.174778], [-155.312707, 19.182398], [-155.307406, 19.187016], [-155.301562, 19.192493], [-155.297856, 19.199453], [-155.286462, 19.205747], [-155.27318, 19.213752], [-155.268405, 19.219495], [-155.265096, 19.21964], [-155.261333, 19.220645], [-155.258015, 19.222171], [-155.250001, 19.219172], [-155.250001, 19.220088], [-155.245808, 19.217659], [-155.242446, 19.216352], [-155.236866, 19.215207], [-155.230051, 19.212851], [-155.225031, 19.212226], [-155.213474, 19.212171], [-155.204441, 19.210561], [-155.196552, 19.20968], [-155.187864, 19.209466], [-155.182098, 19.209954], [-155.175617, 19.211386], [-155.170286, 19.213168], [-155.161301, 19.218375], [-155.149854, 19.219609], [-155.140876, 19.222117], [-155.129596, 19.226479], [-155.125, 19.226887], [-155.123329, 19.227696], [-155.12001, 19.228532], [-155.116306, 19.230602], [-155.112571, 19.232142], [-155.10551, 19.23427], [-155.090387, 19.242796], [-155.085359, 19.245466], [-155.079031, 19.248966], [-155.080098, 19.25], [-155.083189, 19.25], [-155.079339, 19.254088], [-155.07639, 19.253628], [-155.072812, 19.25393], [-155.067531, 19.255323], [-155.061439, 19.258416], [-155.056149, 19.262117], [-155.052291, 19.265236], [-155.049153, 19.267251], [-155.046917, 19.267482], [-155.040383, 19.269032], [-155.032324, 19.271504], [-155.026142, 19.274253], [-155.018508, 19.277527], [-155.005449, 19.282647], [-155, 19.28438], [-155, 19.282037], [-154.997442, 19.284554], [-154.991348, 19.28822], [-154.980079, 19.294118], [-154.971455, 19.297839], [-154.962283, 19.302062], [-154.949939, 19.307096], [-154.939663, 19.312834], [-154.931719, 19.319875], [-154.927296, 19.326959], [-154.918905, 19.333484], [-154.90823, 19.34202], [-154.895905, 19.35232], [-154.889028, 19.360392], [-154.882661, 19.363797], [-154.875001, 19.368196], [-154.864313, 19.374998], [-154.859673, 19.377633], [-154.847913, 19.385152], [-154.828271, 19.400891], [-154.810311, 19.416057], [-154.79357, 19.432572], [-154.786132, 19.440376], [-154.781089, 19.447616], [-154.775751, 19.457113], [-154.767902, 19.476301], [-154.76249, 19.491575], [-154.759906, 19.5], [-154.757874, 19.5], [-154.756605, 19.506911], [-154.755792, 19.515342], [-154.755827, 19.519444], [-154.755838, 19.520784], [-154.757137, 19.527907], [-154.759333, 19.536462], [-154.764892, 19.544965], [-154.778294, 19.559895], [-154.787735, 19.566807], [-154.788991, 19.568743], [-154.792204, 19.571755], [-154.797548, 19.575668], [-154.803328, 19.578725], [-154.811505, 19.582594], [-154.814908, 19.587047], [-154.822221, 19.59331], [-154.827827, 19.596538], [-154.839912, 19.601705], [-154.844961, 19.602135], [-154.854472, 19.606491], [-154.86221, 19.610534], [-154.870122, 19.61415], [-154.875, 19.616167], [-154.878265, 19.617844], [-154.881428, 19.619951], [-154.883208, 19.621481], [-154.886784, 19.625], [-154.884291, 19.625], [-154.892225, 19.634474], [-154.894852, 19.636249], [-154.897096, 19.642793], [-154.90306, 19.652305], [-154.911451, 19.662036], [-154.920257, 19.669249], [-154.928935, 19.673605], [-154.927778, 19.680812], [-154.926134, 19.691664], [-154.928109, 19.704534], [-154.931853, 19.715468], [-154.936963, 19.727678], [-154.942429, 19.739708], [-154.948322, 19.749999], [-154.94935, 19.749999], [-154.95243, 19.756784], [-154.956172, 19.760794], [-154.963843, 19.769189], [-154.971306, 19.776015], [-154.977849, 19.781404], [-154.984507, 19.784802], [-154.985888, 19.785507], [-154.99472, 19.788924], [-155.000002, 19.789563], [-155.013697, 19.79093], [-155.025523, 19.790146], [-155.029999, 19.792101], [-155.033315, 19.793421], [-155.033171, 19.797473], [-155.033734, 19.810281], [-155.034321, 19.818027], [-155.034748, 19.820463], [-155.034707, 19.822067], [-155.032941, 19.828013], [-155.030278, 19.839463], [-155.030299, 19.848995], [-155.030649, 19.857674], [-155.031522, 19.866089], [-155.034618, 19.875], [-155.03162, 19.875], [-155.037401, 19.882876], [-155.041831, 19.889371], [-155.046811, 19.897704], [-155.055552, 19.906672], [-155.062752, 19.912804], [-155.070843, 19.918425], [-155.072665, 19.922765], [-155.076109, 19.928598], [-155.081796, 19.935415], [-155.08317, 19.937459], [-155.086049, 19.941743], [-155.091533, 19.946651], [-155.106264, 19.957824], [-155.113585, 19.964665], [-155.121683, 19.971052], [-155.123905, 19.974298], [-155.126867, 19.977549], [-155.128796, 19.978886], [-155.133977, 19.981984], [-155.137543, 19.986315], [-155.14033, 19.989481], [-155.14622, 19.992666], [-155.151058, 19.995015], [-155.153701, 19.996108], [-155.155805, 19.997671], [-155.157486, 19.997608], [-155.159393, 20.000001], [-155.161058, 20.000001], [-155.16269, 20.001574], [-155.164306, 20.003925], [-155.166803, 20.006424], [-155.168753, 20.007852], [-155.173143, 20.01014], [-155.174759, 20.011892], [-155.17798, 20.014099], [-155.18125, 20.015477], [-155.182387, 20.017872], [-155.184503, 20.019501], [-155.193771, 20.02534], [-155.195364, 20.025688], [-155.200578, 20.027926], [-155.201982, 20.030236], [-155.204006, 20.032548], [-155.209475, 20.03658], [-155.211768, 20.038466], [-155.218132, 20.041135], [-155.222371, 20.043454], [-155.22837, 20.048085], [-155.234109, 20.05169], [-155.241259, 20.056494], [-155.247897, 20.059808], [-155.25, 20.061777], [-155.252399, 20.063448], [-155.261643, 20.067403], [-155.271708, 20.070783], [-155.276345, 20.072081], [-155.279276, 20.073424], [-155.286998, 20.077257], [-155.298301, 20.081514], [-155.305216, 20.085328], [-155.309894, 20.088835], [-155.31211, 20.090076], [-155.317083, 20.092485], [-155.320469, 20.093583], [-155.322865, 20.094828], [-155.327499, 20.096294], [-155.329721, 20.09728], [-155.335244, 20.099191], [-155.337457, 20.100601], [-155.34021, 20.101939], [-155.345964, 20.105555], [-155.348435, 20.107481], [-155.3551, 20.110522], [-155.359371, 20.112234], [-155.362313, 20.113151], [-155.364711, 20.11431], [-155.369702, 20.115953], [-155.37156, 20.117185], [-155.37305, 20.118834], [-155.378513, 20.122865], [-155.383727, 20.125003], [-155.384829, 20.125003], [-155.394256, 20.130538], [-155.397547, 20.132833], [-155.400219, 20.134028], [-155.405565, 20.135996], [-155.412073, 20.137885], [-155.414207, 20.139499], [-155.418127, 20.141122], [-155.424455, 20.143263], [-155.429451, 20.144046], [-155.431593, 20.144226], [-155.432862, 20.145207], [-155.436042, 20.147201], [-155.438177, 20.148815], [-155.443879, 20.150952], [-155.450477, 20.152924], [-155.458772, 20.154735], [-155.462877, 20.155176], [-155.465016, 20.156114], [-155.466705, 20.157472], [-155.469379, 20.158582], [-155.472228, 20.160198], [-155.475884, 20.161228], [-155.478824, 20.162507], [-155.482037, 20.162944], [-155.486137, 20.164397], [-155.490064, 20.164836], [-155.498362, 20.166308], [-155.500485, 20.167225], [-155.502995, 20.167471], [-155.505417, 20.168054], [-155.508376, 20.168468], [-155.513846, 20.17081], [-155.515819, 20.171899], [-155.517881, 20.172483], [-155.5212, 20.173989], [-155.531244, 20.177413], [-155.54075, 20.180249], [-155.548642, 20.181827], [-155.552946, 20.18232], [-155.561734, 20.183643], [-155.564872, 20.18313], [-155.570611, 20.182946], [-155.573749, 20.182264], [-155.578768, 20.180147], [-155.582087, 20.181316], [-155.585765, 20.183829], [-155.588008, 20.184748], [-155.59043, 20.186339], [-155.592673, 20.187426], [-155.597787, 20.19086], [-155.601823, 20.192026], [-155.606399, 20.193948], [-155.607387, 20.195879], [-155.608734, 20.197474], [-155.615734, 20.203509], [-155.618158, 20.205352], [-155.62085, 20.206858], [-155.622555, 20.208451], [-155.628555, 20.212313], [-155.631851, 20.214253], [-155.63452, 20.21535], [-155.636124, 20.216362], [-155.641464, 20.218807], [-155.643774, 20.219228], [-155.645559, 20.220831], [-155.647519, 20.222012], [-155.65179, 20.223867], [-155.653567, 20.224119], [-155.658723, 20.225383], [-155.662736, 20.228419], [-155.663543, 20.229853], [-155.668803, 20.233649], [-155.670766, 20.235251], [-155.672197, 20.237107], [-155.677726, 20.241239], [-155.682088, 20.243093], [-155.683331, 20.243177], [-155.68671, 20.244018], [-155.688845, 20.244776], [-155.689125, 20.245216], [-155.690551, 20.247898], [-155.692566, 20.25], [-155.693154, 20.251384], [-155.6966, 20.255985], [-155.698205, 20.257902], [-155.702217, 20.261602], [-155.707991, 20.265376], [-155.71266, 20.268008], [-155.717968, 20.27008], [-155.719571, 20.272081], [-155.721296, 20.273161], [-155.722541, 20.275316], [-155.72474, 20.27793], [-155.726865, 20.280122], [-155.731427, 20.283255], [-155.738333, 20.287493], [-155.7404, 20.288925], [-155.74318, 20.290134], [-155.746839, 20.291286], [-155.748148, 20.292489], [-155.751464, 20.29447], [-155.753424, 20.295162], [-155.758864, 20.296725], [-155.764075, 20.297998], [-155.766312, 20.298077], [-155.768999, 20.298578], [-155.774818, 20.298645], [-155.776069, 20.300506], [-155.780183, 20.30346], [-155.783762, 20.305229], [-155.79289, 20.30927], [-155.80128, 20.311672], [-155.80476, 20.312458], [-155.809941, 20.313255], [-155.812088, 20.31327], [-155.814744, 20.315744], [-155.8184, 20.316869], [-155.821702, 20.317654], [-155.825713, 20.318951], [-155.829461, 20.319907], [-155.83375, 20.320444], [-155.836783, 20.321226], [-155.84546, 20.321453], [-155.851635, 20.321409], [-155.860953, 20.320284], [-155.866691, 20.319305], [-155.870728, 20.318315], [-155.875, 20.316832], [-155.876622, 20.316591], [-155.881674, 20.315362], [-155.883656, 20.315209], [-155.892413, 20.312398], [-155.8963, 20.310648], [-155.898651, 20.309394], [-155.901541, 20.3084], [-155.906873, 20.306067], [-155.910853, 20.303893], [-155.912479, 20.303228], [-155.91592, 20.301049], [-155.917642, 20.299704], [-155.926446, 20.291795], [-155.929538, 20.288338], [-155.932365, 20.284285], [-155.93409, 20.282686], [-155.938734, 20.276779], [-155.941013, 20.273655], [-155.947962, 20.261652], [-155.949994, 20.255978], [-155.95095, 20.25], [-155.951919, 20.25], [-155.953621, 20.247023], [-155.957667, 20.234972], [-155.958125, 20.231004], [-155.959029, 20.226871], [-155.959492, 20.221466], [-155.959507, 20.217071], [-155.958821, 20.209544], [-155.958377, 20.209117], [-155.959817, 20.204481], [-155.960095, 20.201019], [-155.960818, 20.197729], [-155.960295, 20.194513], [-155.960217, 20.191554], [-155.95962, 20.184027], [-155.957882, 20.171757], [-155.957719, 20.167614], [-155.956312, 20.1627], [-155.953768, 20.152536], [-155.951398, 20.143557], [-155.95079, 20.139495], [-155.950001, 20.136276], [-155.949482, 20.13213], [-155.947816, 20.125], [-155.947988, 20.123786], [-155.946657, 20.121651], [-155.945517, 20.117219], [-155.943929, 20.112955], [-155.94269, 20.110396], [-155.941712, 20.108944], [-155.938599, 20.105268], [-155.937888, 20.104157], [-155.93745, 20.102453], [-155.937639, 20.100666], [-155.936592, 20.095894], [-155.934924, 20.090012], [-155.932275, 20.083445], [-155.927566, 20.076951], [-155.925251, 20.074641], [-155.923112, 20.072842], [-155.918148, 20.064304], [-155.91495, 20.059946], [-155.911305, 20.055416], [-155.906947, 20.050456], [-155.903036, 20.045668], [-155.897973, 20.038916], [-155.895306, 20.035752], [-155.893892, 20.032765], [-155.888842, 20.025919], [-155.886348, 20.021914], [-155.884311, 20.018327], [-155.887376, 20.014854], [-155.893489, 20.010461], [-155.8961, 20.008006], [-155.897635, 20.005886], [-155.899257, 20.004107], [-155.901788, 20], [-155.9035, 20], [-155.905531, 19.99712], [-155.907124, 19.9945], [-155.908018, 19.991961], [-155.91346, 19.987836], [-155.918986, 19.983966], [-155.924263, 19.978653], [-155.938883, 19.961518], [-155.950381, 19.942075], [-155.95406, 19.929714], [-155.962427, 19.909152], [-155.97177, 19.906912], [-155.986097, 19.902663], [-155.998344, 19.896876], [-155.999999, 19.896586], [-156.002419, 19.895646], [-156.008081, 19.892741], [-156.012391, 19.889753], [-156.015709, 19.886511], [-156.018069, 19.883959], [-156.019654, 19.882247], [-156.02306, 19.877898], [-156.024849, 19.875], [-156.027348, 19.875], [-156.030059, 19.871457], [-156.033943, 19.867028], [-156.039363, 19.860643], [-156.045052, 19.854425], [-156.049208, 19.848643], [-156.053544, 19.843534], [-156.058774, 19.841881], [-156.065627, 19.839115], [-156.07248, 19.835251], [-156.079517, 19.831131], [-156.086104, 19.825831], [-156.090616, 19.821143], [-156.095672, 19.815013], [-156.099464, 19.808978], [-156.103078, 19.802777], [-156.105518, 19.797262], [-156.10724, 19.790402], [-156.108061, 19.784142], [-156.108432, 19.776788], [-156.109163, 19.769515], [-156.110521, 19.764601], [-156.114858, 19.75459], [-156.115857, 19.75], [-156.114727, 19.75], [-156.11792, 19.744571], [-156.119298, 19.736482], [-156.120001, 19.727176], [-156.119075, 19.719301], [-156.115179, 19.710685], [-156.111219, 19.703297], [-156.109583, 19.700432], [-156.104742, 19.694812], [-156.104427, 19.693151], [-156.101682, 19.686358], [-156.097823, 19.675374], [-156.09332, 19.668346], [-156.090902, 19.663653], [-156.08882, 19.661408], [-156.088287, 19.658435], [-156.087628, 19.646083], [-156.085427, 19.638842], [-156.082882, 19.632659], [-156.078592, 19.625001], [-156.075293, 19.620962], [-156.071087, 19.617461], [-156.06321, 19.611823], [-156.058855, 19.609256], [-156.057121, 19.608233], [-156.049329, 19.604467], [-156.043237, 19.601896], [-156.038935, 19.600948], [-156.035895, 19.597961], [-156.033929, 19.594293], [-156.030277, 19.587478], [-156.02583, 19.575382], [-156.022997, 19.563632], [-156.021246, 19.549934], [-156.019396, 19.539285], [-156.016907, 19.532641], [-156.015774, 19.522086], [-156.014375, 19.51068], [-156.011808, 19.500376], [-156.012864, 19.5], [-156.007959, 19.488914], [-156.000559, 19.470425], [-155.999134, 19.466181], [-155.994997, 19.461253], [-155.990328, 19.455889], [-155.983319, 19.450752], [-155.978105, 19.445809], [-155.974597, 19.435842], [-155.972759, 19.428035], [-155.97158, 19.418526], [-155.968084, 19.40796], [-155.965788, 19.40066], [-155.965017, 19.393551], [-155.963615, 19.386519], [-155.961376, 19.381101], [-155.957535, 19.375], [-155.95437, 19.366904], [-155.950711, 19.35906], [-155.943213, 19.344227], [-155.942326, 19.339535], [-155.944229, 19.329629], [-155.944328, 19.32519], [-155.94425, 19.319471], [-155.944275, 19.307692], [-155.945104, 19.29668], [-155.946461, 19.290445], [-155.952859, 19.272932], [-155.9562, 19.25995], [-155.957202, 19.25201], [-155.956556, 19.24679], [-155.956652, 19.23806], [-155.956511, 19.234465], [-155.95673, 19.230957], [-155.958526, 19.223], [-155.962087, 19.209824], [-155.964162, 19.201012], [-155.966067, 19.191258], [-155.968079, 19.179963], [-155.96945, 19.169695], [-155.970554, 19.159255], [-155.973882, 19.14257], [-155.974738, 19.130161], [-155.974704, 19.125], [-155.973452, 19.125], [-155.974277, 19.118636], [-155.974474, 19.112743], [-155.974041, 19.107789], [-155.972538, 19.101382], [-155.968892, 19.093265], [-155.966489, 19.08848], [-155.963331, 19.08159]]], [[[-158.085306, 21.292903], [-158.085981, 21.29565], [-158.087056, 21.301175], [-158.088022, 21.313004], [-158.088071, 21.313605], [-158.088084, 21.313752], [-158.088269, 21.31891], [-158.087803, 21.321716], [-158.088522, 21.325714], [-158.08869, 21.326251], [-158.090771, 21.326815], [-158.090021, 21.328337], [-158.089848, 21.329134], [-158.089885, 21.329195], [-158.089894, 21.329256], [-158.08982, 21.329766], [-158.08963, 21.330961], [-158.089614, 21.331059], [-158.089596, 21.331171], [-158.089571, 21.331356], [-158.089559, 21.331456], [-158.089555, 21.331512], [-158.08955, 21.33158], [-158.08953, 21.331869], [-158.089532, 21.331955], [-158.089535, 21.332081], [-158.089447, 21.332081], [-158.08775, 21.332298], [-158.085684, 21.333314], [-158.083973, 21.335085], [-158.080344, 21.339348], [-158.077672, 21.342007], [-158.075461, 21.344053], [-158.071515, 21.347718], [-158.067979, 21.350978], [-158.065759, 21.353544], [-158.064122, 21.35721], [-158.063044, 21.362478], [-158.062067, 21.364385], [-158.060317, 21.366137], [-158.060069, 21.366345], [-158.057296, 21.368827], [-158.051875, 21.373668], [-158.048782, 21.375601], [-158.043742, 21.377597], [-158.039517, 21.37945], [-158.032161, 21.38362], [-158.031992, 21.383717], [-158.025583, 21.387319], [-158.023187, 21.388663], [-158.019216, 21.390295], [-158.019232, 21.39053], [-158.019446, 21.393943], [-158.020101, 21.395664], [-158.01972, 21.397062], [-158.018653, 21.397734], [-158.017974, 21.398934], [-158.018189, 21.401166], [-158.02004, 21.402447], [-158.018873, 21.403357], [-158.02008, 21.404075], [-158.021057, 21.406005], [-158.020904, 21.407993], [-158.022857, 21.408507], [-158.024414, 21.411075], [-158.026428, 21.412254], [-158.027464, 21.413791], [-158.026549, 21.416141], [-158.027464, 21.418391], [-158.030455, 21.419231], [-158.031371, 21.419776], [-158.031035, 21.420383], [-158.028288, 21.420645], [-158.028105, 21.421251], [-158.029265, 21.421492], [-158.028441, 21.422052], [-158.028349, 21.424021], [-158.027452, 21.424432], [-158.024752, 21.424132], [-158.024901, 21.425291], [-158.026091, 21.424742], [-158.026752, 21.426232], [-158.02777, 21.427069], [-158.029814, 21.428034], [-158.03018, 21.430784], [-158.029753, 21.432448], [-158.028746, 21.434168], [-158.028349, 21.436831], [-158.028319, 21.43939], [-158.029418, 21.441468], [-158.029555, 21.442859], [-158.027875, 21.445717], [-158.02877, 21.447777], [-158.028974, 21.449206], [-158.029135, 21.451732], [-158.027129, 21.455136], [-158.023752, 21.459331], [-158.023512, 21.461954], [-158.02347, 21.46242], [-158.023889, 21.465657], [-158.025466, 21.474269], [-158.026277, 21.478429], [-158.026543, 21.479856], [-158.027782, 21.486751], [-158.028178, 21.488937], [-158.028308, 21.489666], [-158.028359, 21.489916], [-158.02852, 21.491461], [-158.028403, 21.491474], [-158.028366, 21.491491], [-158.028063, 21.491644], [-158.027942, 21.491698], [-158.027798, 21.491763], [-158.027695, 21.491563], [-158.028305, 21.490969], [-158.028303, 21.490406], [-158.027997, 21.49002], [-158.026805, 21.489191], [-158.026488, 21.489472], [-158.025889, 21.488742], [-158.0254, 21.488505], [-158.024944, 21.488681], [-158.024978, 21.489378], [-158.024123, 21.489016], [-158.023361, 21.488796], [-158.022871, 21.4882], [-158.022505, 21.488157], [-158.022262, 21.488351], [-158.021891, 21.488295], [-158.021868, 21.488676], [-158.021322, 21.489254], [-158.020837, 21.489443], [-158.020656, 21.490049], [-158.019838, 21.490511], [-158.019028, 21.49052], [-158.019407, 21.490025], [-158.019526, 21.489485], [-158.019374, 21.48918], [-158.019038, 21.489049], [-158.018581, 21.489134], [-158.018204, 21.48961], [-158.018061, 21.488848], [-158.017086, 21.488483], [-158.016296, 21.489072], [-158.015934, 21.489809], [-158.015996, 21.490285], [-158.015572, 21.490716], [-158.015237, 21.490562], [-158.015023, 21.490175], [-158.014744, 21.489243], [-158.014499, 21.489141], [-158.013801, 21.489574], [-158.013496, 21.489622], [-158.013096, 21.488744], [-158.012609, 21.488797], [-158.012461, 21.489695], [-158.012339, 21.489883], [-158.011789, 21.489402], [-158.010416, 21.488842], [-158.009623, 21.488795], [-158.009536, 21.489758], [-158.008953, 21.488677], [-158.008647, 21.488385], [-158.00822, 21.488459], [-158.007585, 21.489204], [-158.007404, 21.48959], [-158.008261, 21.490466], [-158.007683, 21.490583], [-158.006157, 21.490243], [-158.005427, 21.490247], [-158.004848, 21.490352], [-158.004394, 21.490804], [-158.003542, 21.491013], [-158.003296, 21.490575], [-158.003354, 21.490095], [-158.003139, 21.489515], [-158.002805, 21.489703], [-158.002046, 21.490372], [-158.001835, 21.490812], [-158.0019, 21.491516], [-158.002129, 21.491136], [-158.002094, 21.492496], [-158.001475, 21.492619], [-158.001297, 21.49104], [-158.001974, 21.489739], [-158.001176, 21.489166], [-157.999918, 21.489313], [-157.999658, 21.489409], [-157.996051, 21.485329], [-157.991086, 21.487567], [-157.989744, 21.487864], [-157.987751, 21.487229], [-157.986448, 21.487506], [-157.983751, 21.487229], [-157.980375, 21.487533], [-157.978116, 21.487258], [-157.976061, 21.487736], [-157.974089, 21.487697], [-157.972197, 21.487121], [-157.970488, 21.48762], [-157.968596, 21.487075], [-157.964842, 21.489238], [-157.96237, 21.489596], [-157.960172, 21.490378], [-157.95947, 21.491481], [-157.956235, 21.492384], [-157.953031, 21.493906], [-157.951749, 21.493689], [-157.951017, 21.494265], [-157.94827, 21.494993], [-157.945402, 21.494413], [-157.942533, 21.495245], [-157.940702, 21.496538], [-157.937314, 21.49666], [-157.934446, 21.497038], [-157.931699, 21.496492], [-157.929532, 21.495802], [-157.928159, 21.49592], [-157.925931, 21.497251], [-157.91998, 21.497679], [-157.917692, 21.497202], [-157.91583, 21.498339], [-157.91406, 21.498197], [-157.908018, 21.499055], [-157.905912, 21.498689], [-157.904691, 21.499001], [-157.904233, 21.500176], [-157.902433, 21.500939], [-157.901487, 21.50079], [-157.901251, 21.501527], [-157.898798, 21.501697], [-157.896243, 21.50156], [-157.895804, 21.50071], [-157.896254, 21.499943], [-157.894954, 21.498109], [-157.894268, 21.495846], [-157.892054, 21.4929], [-157.892229, 21.489781], [-157.89157, 21.488284], [-157.891734, 21.486693], [-157.890352, 21.483927], [-157.89094, 21.482072], [-157.890439, 21.478967], [-157.889203, 21.476697], [-157.890035, 21.47539], [-157.890694, 21.472256], [-157.889313, 21.468578], [-157.888549, 21.468246], [-157.887755, 21.466837], [-157.887206, 21.463568], [-157.885039, 21.461874], [-157.882811, 21.46142], [-157.882201, 21.460581], [-157.879851, 21.460306], [-157.876219, 21.460897], [-157.87625, 21.459474], [-157.875212, 21.459284], [-157.874754, 21.458353], [-157.874952, 21.456328], [-157.873564, 21.454916], [-157.873015, 21.452825], [-157.873962, 21.451563], [-157.873748, 21.450521], [-157.874453, 21.449228], [-157.874572, 21.447603], [-157.873962, 21.443297], [-157.872467, 21.439792], [-157.866882, 21.436786], [-157.864166, 21.436164], [-157.862675, 21.434282], [-157.861572, 21.432273], [-157.860534, 21.431262], [-157.860382, 21.430072], [-157.859553, 21.430029], [-157.859153, 21.428629], [-157.858551, 21.4281], [-157.854309, 21.426719], [-157.850553, 21.426129], [-157.848144, 21.423694], [-157.84497, 21.421824], [-157.843353, 21.420329], [-157.840954, 21.419029], [-157.840554, 21.418829], [-157.840302, 21.418361], [-157.838425, 21.417798], [-157.837983, 21.414046], [-157.836501, 21.412683], [-157.836554, 21.412429], [-157.836646, 21.412339], [-157.836762, 21.412227], [-157.836947, 21.412101], [-157.837054, 21.412029], [-157.837189, 21.411929], [-157.837739, 21.411593], [-157.838196, 21.411155], [-157.838237, 21.411099], [-157.838323, 21.410982], [-157.838502, 21.410739], [-157.838663, 21.403826], [-157.838679, 21.403169], [-157.839491, 21.403138], [-157.838903, 21.401987], [-157.835725, 21.400297], [-157.833454, 21.39973], [-157.829854, 21.39843], [-157.829254, 21.39693], [-157.828454, 21.39623], [-157.824954, 21.39563], [-157.824054, 21.39513], [-157.825454, 21.39203], [-157.824554, 21.38993], [-157.825154, 21.38843], [-157.824155, 21.38703], [-157.823555, 21.38503], [-157.821988, 21.383273], [-157.818636, 21.381936], [-157.81529, 21.379905], [-157.813618, 21.378642], [-157.813414, 21.378362], [-157.810755, 21.37556], [-157.810307, 21.372497], [-157.810374, 21.370355], [-157.809655, 21.36933], [-157.80796, 21.368867], [-157.807322, 21.368029], [-157.797412, 21.367274], [-157.794208, 21.366455], [-157.793845, 21.366253], [-157.793688, 21.366166], [-157.791674, 21.365013], [-157.790602, 21.364043], [-157.78938, 21.362094], [-157.788636, 21.359552], [-157.78829, 21.355152], [-157.789071, 21.3532], [-157.789183, 21.350014], [-157.788603, 21.34872], [-157.788356, 21.346231], [-157.788056, 21.343031], [-157.787156, 21.341132], [-157.785156, 21.339732], [-157.784656, 21.338932], [-157.780756, 21.336232], [-157.779156, 21.335832], [-157.775556, 21.335632], [-157.771556, 21.333132], [-157.768156, 21.332232], [-157.763856, 21.332132], [-157.762656, 21.331732], [-157.759048, 21.331853], [-157.758103, 21.331286], [-157.755786, 21.330631], [-157.75482, 21.329473], [-157.752673, 21.327826], [-157.749191, 21.327219], [-157.747774, 21.325892], [-157.742808, 21.324643], [-157.740575, 21.323987], [-157.737057, 21.323032], [-157.734857, 21.323331], [-157.732257, 21.322731], [-157.730957, 21.322631], [-157.727657, 21.323231], [-157.726457, 21.323831], [-157.725857, 21.324131], [-157.723557, 21.321331], [-157.722857, 21.320031], [-157.721357, 21.318632], [-157.720357, 21.318531], [-157.718957, 21.318431], [-157.716857, 21.317132], [-157.714957, 21.317031], [-157.714673, 21.317009], [-157.712757, 21.317431], [-157.710757, 21.317031], [-157.709757, 21.318231], [-157.707157, 21.317731], [-157.706364, 21.316648], [-157.704566, 21.316562], [-157.703466, 21.317348], [-157.702065, 21.317261], [-157.701263, 21.317851], [-157.696961, 21.319046], [-157.69586, 21.319832], [-157.695027, 21.320429], [-157.691554, 21.320028], [-157.689504, 21.321213], [-157.687413, 21.321582], [-157.685329, 21.321025], [-157.684835, 21.319918], [-157.682069, 21.320427], [-157.681208, 21.320629], [-157.67816, 21.320166], [-157.674418, 21.317742], [-157.672349, 21.317242], [-157.671241, 21.31573], [-157.668002, 21.312531], [-157.665682, 21.311532], [-157.663052, 21.309334], [-157.662246, 21.309534], [-157.660426, 21.308134], [-157.65861, 21.308935], [-157.657298, 21.308635], [-157.657334, 21.308843], [-157.654341, 21.309485], [-157.652775, 21.308717], [-157.651501, 21.308643], [-157.651111, 21.308843], [-157.649957, 21.30973], [-157.648967, 21.311004], [-157.647857, 21.313929], [-157.622254, 21.313826], [-157.59758, 21.313817], [-157.598722, 21.326124], [-157.602299, 21.341521], [-157.60822, 21.353054], [-157.61532, 21.361645], [-157.620052, 21.367676], [-157.622252, 21.371816], [-157.622252, 21.372715], [-157.628452, 21.376616], [-157.628452, 21.381415], [-157.629252, 21.385214], [-157.632352, 21.390014], [-157.632352, 21.392913], [-157.633152, 21.397612], [-157.634651, 21.404411], [-157.635091, 21.405703], [-157.637751, 21.41391], [-157.638551, 21.417809], [-157.640851, 21.422608], [-157.642451, 21.426408], [-157.646411, 21.431325], [-157.652151, 21.439107], [-157.649551, 21.442305], [-157.64545, 21.448702], [-157.64335, 21.453799], [-157.641849, 21.458197], [-157.640749, 21.462695], [-157.641249, 21.467194], [-157.642849, 21.472293], [-157.645449, 21.476792], [-157.650549, 21.48509], [-157.653649, 21.48889], [-157.655651, 21.49194], [-157.658849, 21.494689], [-157.660949, 21.496789], [-157.672986, 21.499955], [-157.677777, 21.501853], [-157.683493, 21.507807], [-157.692696, 21.513469], [-157.702613, 21.518709], [-157.712174, 21.520814], [-157.727724, 21.519784], [-157.741128, 21.517376], [-157.747251, 21.515307], [-157.750924, 21.516458], [-157.761931, 21.526389], [-157.768251, 21.532408], [-157.773651, 21.537308], [-157.777594, 21.541151], [-157.780951, 21.544607], [-157.782951, 21.548807], [-157.78635, 21.555505], [-157.79025, 21.561505], [-157.79125, 21.564604], [-157.79325, 21.568204], [-157.79375, 21.571903], [-157.79515, 21.576102], [-157.79715, 21.581001], [-157.798649, 21.5852], [-157.802049, 21.590099], [-157.804949, 21.593099], [-157.809849, 21.597299], [-157.814249, 21.5998], [-157.818649, 21.6034], [-157.824549, 21.607101], [-157.831949, 21.611302], [-157.837249, 21.613703], [-157.844149, 21.621804], [-157.847444, 21.631401], [-157.854204, 21.65029], [-157.860211, 21.665544], [-157.865467, 21.674984], [-157.872246, 21.685889], [-157.876346, 21.696186], [-157.881446, 21.705183], [-157.884746, 21.707882], [-157.891446, 21.712083], [-157.894245, 21.714783], [-157.898145, 21.720981], [-157.900445, 21.723081], [-157.905345, 21.725481], [-157.909245, 21.727981], [-157.910517, 21.729323], [-157.921945, 21.741376], [-157.924213, 21.743451], [-157.92789, 21.745982], [-157.930249, 21.746774], [-157.931597, 21.748182], [-157.941785, 21.754579], [-157.955069, 21.758624], [-157.978318, 21.762997], [-157.991748, 21.762965], [-157.997244, 21.761591], [-158.008235, 21.755304], [-158.030944, 21.743084], [-158.035344, 21.743083], [-158.040544, 21.741982], [-158.044944, 21.740882], [-158.050144, 21.739881], [-158.057144, 21.735483], [-158.067644, 21.724688], [-158.071944, 21.719191], [-158.078944, 21.715991], [-158.083344, 21.712692], [-158.088543, 21.709492], [-158.095543, 21.702995], [-158.099843, 21.697497], [-158.103343, 21.692099], [-158.110343, 21.679105], [-158.112944, 21.672608], [-158.114744, 21.66721], [-158.117344, 21.663911], [-158.119044, 21.660712], [-158.120229, 21.657305], [-158.120594, 21.663775], [-158.122243, 21.665698], [-158.126135, 21.663544], [-158.128305, 21.662345], [-158.134153, 21.657989], [-158.1392, 21.653217], [-158.144509, 21.646939], [-158.148846, 21.641999], [-158.166494, 21.636036], [-158.175005, 21.632009], [-158.186992, 21.632574], [-158.199604, 21.634474], [-158.214959, 21.633105], [-158.230222, 21.630816], [-158.247237, 21.631086], [-158.267684, 21.628065], [-158.278156, 21.627842], [-158.289592, 21.625364], [-158.30191, 21.621787], [-158.311945, 21.62178], [-158.319746, 21.617277], [-158.324247, 21.615675], [-158.329947, 21.609374], [-158.335048, 21.604573], [-158.339548, 21.596675], [-158.342149, 21.591175], [-158.34465, 21.583177], [-158.34465, 21.577679], [-158.344051, 21.569783], [-158.342151, 21.564286], [-158.339551, 21.560289], [-158.335052, 21.553994], [-158.328652, 21.546], [-158.317253, 21.538908], [-158.298653, 21.524718], [-158.301353, 21.496818], [-158.290164, 21.496822], [-158.291548, 21.489358], [-158.290265, 21.475962], [-158.285935, 21.465164], [-158.281449, 21.457198], [-158.276241, 21.449319], [-158.268332, 21.442038], [-158.263749, 21.432989], [-158.257644, 21.42553], [-158.249027, 21.419667], [-158.247252, 21.419011], [-158.245784, 21.414476], [-158.240052, 21.411531], [-158.238552, 21.403231], [-158.237052, 21.397731], [-158.235552, 21.389431], [-158.231852, 21.381131], [-158.228852, 21.375631], [-158.222152, 21.368232], [-158.217752, 21.364532], [-158.212552, 21.361832], [-158.206552, 21.359033], [-158.193253, 21.354434], [-158.188753, 21.353534], [-158.183253, 21.345935], [-158.182049, 21.341247], [-158.164354, 21.272335], [-158.161154, 21.267436], [-158.159554, 21.263436], [-158.154054, 21.256636], [-158.149254, 21.251737], [-158.142254, 21.246837], [-158.142055, 21.246837], [-158.13476, 21.242391], [-158.122254, 21.23865], [-158.110077, 21.237071], [-158.091586, 21.237863], [-158.084919, 21.23928], [-158.084955, 21.28904], [-158.085274, 21.292551], [-158.085306, 21.292903]]], [[[-156.721691, 20.591729], [-156.733645, 20.581844], [-156.742659, 20.570091], [-156.75, 20.553831], [-156.750008, 20.556456], [-156.75099, 20.554382], [-156.751983, 20.550964], [-156.753347, 20.547135], [-156.754144, 20.5443], [-156.755073, 20.539957], [-156.755742, 20.535276], [-156.755973, 20.530162], [-156.755978, 20.526721], [-156.755172, 20.520158], [-156.752763, 20.513053], [-156.75, 20.508978], [-156.74999, 20.506825], [-156.746238, 20.501965], [-156.744264, 20.499999], [-156.749999, 20.499988], [-156.75, 20.454335], [-156.732894, 20.45293], [-156.705115, 20.454142], [-156.672786, 20.457775], [-156.656859, 20.457266], [-156.625, 20.459311], [-156.619745, 20.460304], [-156.614904, 20.459168], [-156.604882, 20.460134], [-156.601306, 20.460982], [-156.596016, 20.45935], [-156.583924, 20.458167], [-156.573544, 20.459132], [-156.563893, 20.462832], [-156.55753, 20.46137], [-156.546069, 20.460845], [-156.533456, 20.46298], [-156.520949, 20.468931], [-156.5122, 20.47478], [-156.5, 20.489189], [-156.497299, 20.4918], [-156.49575, 20.494155], [-156.493003, 20.496305], [-156.491463, 20.497622], [-156.489367, 20.5], [-156.483356, 20.513167], [-156.482834, 20.514721], [-156.479551, 20.529573], [-156.480588, 20.54111], [-156.482319, 20.548127], [-156.488377, 20.558546], [-156.484569, 20.578769], [-156.48451, 20.579083], [-156.459868, 20.557666], [-156.453491, 20.555525], [-156.437384, 20.543929], [-156.420495, 20.536609], [-156.396426, 20.533545], [-156.375, 20.531428], [-156.375, 20.528985], [-156.36288, 20.530908], [-156.351099, 20.534408], [-156.341489, 20.533038], [-156.327188, 20.535351], [-156.324127, 20.536326], [-156.303554, 20.536049], [-156.290472, 20.536895], [-156.279148, 20.540072], [-156.264217, 20.546468], [-156.25, 20.554132], [-156.25, 20.550337], [-156.229051, 20.559897], [-156.218449, 20.565578], [-156.210021, 20.570094], [-156.195608, 20.577151], [-156.190607, 20.575512], [-156.177165, 20.572477], [-156.163011, 20.571846], [-156.158737, 20.572734], [-156.143851, 20.56974], [-156.13527, 20.569843], [-156.125, 20.573326], [-156.121588, 20.574896], [-156.115519, 20.577214], [-156.107031, 20.58083], [-156.102203, 20.583005], [-156.095045, 20.586479], [-156.087428, 20.590701], [-156.082994, 20.595073], [-156.080059, 20.595686], [-156.077119, 20.596552], [-156.073271, 20.598409], [-156.070802, 20.598021], [-156.065766, 20.597579], [-156.059225, 20.597189], [-156.054266, 20.597254], [-156.049641, 20.598252], [-156.043067, 20.599293], [-156.03861, 20.600716], [-156.034319, 20.602563], [-156.029948, 20.604071], [-156.025915, 20.60626], [-156.019894, 20.61026], [-156.016305, 20.612374], [-156.011708, 20.615983], [-156.006017, 20.621], [-156.002651, 20.625], [-156.005121, 20.625], [-156, 20.631862], [-156, 20.625976], [-155.995717, 20.629257], [-155.991352, 20.634483], [-155.978074, 20.644768], [-155.969594, 20.652124], [-155.966946, 20.654834], [-155.961458, 20.660452], [-155.956065, 20.667359], [-155.9517, 20.673911], [-155.949646, 20.676832], [-155.945797, 20.683913], [-155.939818, 20.700369], [-155.936566, 20.705591], [-155.932801, 20.712583], [-155.928101, 20.724792], [-155.926837, 20.738675], [-155.927525, 20.75], [-155.929181, 20.758075], [-155.926952, 20.767045], [-155.926785, 20.781735], [-155.929694, 20.801467], [-155.934287, 20.819845], [-155.939126, 20.836591], [-155.944276, 20.848713], [-155.950956, 20.861928], [-155.958991, 20.875], [-156, 20.875], [-156, 20.852123], [-156.006318, 20.852981], [-156.012429, 20.855974], [-156.025587, 20.8595], [-156.032289, 20.859858], [-156.040245, 20.865719], [-156.049623, 20.870544], [-156.062359, 20.875], [-156.068629, 20.878257], [-156.076476, 20.880751], [-156.081694, 20.880728], [-156.086014, 20.888431], [-156.095925, 20.898481], [-156.111061, 20.908338], [-156.125, 20.915009], [-156.127692, 20.916074], [-156.136358, 20.917437], [-156.14632, 20.927448], [-156.150723, 20.931872], [-156.161875, 20.942874], [-156.171826, 20.949224], [-156.180379, 20.957227], [-156.182875, 20.960727], [-156.195296, 20.971502], [-156.214341, 20.983088], [-156.228208, 20.987836], [-156.237583, 20.989715], [-156.25, 20.995499], [-156.252565, 20.997752], [-156.256595, 21], [-156.262777, 21.002243], [-156.268578, 21.003751], [-156.274302, 21.004236], [-156.282381, 21.002611], [-156.294488, 21.001026], [-156.298246, 21.001234], [-156.304134, 21.002998], [-156.311188, 21.004518], [-156.320479, 21.00623], [-156.330159, 21.005472], [-156.339218, 21.004195], [-156.346753, 21], [-156.35081, 20.997496], [-156.35446, 20.994104], [-156.354786, 20.993801], [-156.36474, 20.993789], [-156.369956, 20.991853], [-156.375, 20.989246], [-156.375, 20.990835], [-156.377602, 20.989823], [-156.390559, 20.983655], [-156.396203, 20.980968], [-156.404908, 20.974181], [-156.427447, 20.97338], [-156.45109, 20.968758], [-156.459575, 20.976234], [-156.463434, 20.979554], [-156.466102, 20.985568], [-156.467546, 20.98795], [-156.4703, 21], [-156.468145, 21], [-156.471015, 21.00887], [-156.475383, 21.019208], [-156.483134, 21.02865], [-156.490728, 21.035435], [-156.5, 21.041042], [-156.504322, 21.044596], [-156.512964, 21.051013], [-156.529168, 21.060141], [-156.543033, 21.068824], [-156.559513, 21.082338], [-156.574372, 21.088531], [-156.585305, 21.091077], [-156.591031, 21.092411], [-156.605889, 21.09258], [-156.618134, 21.090498], [-156.625, 21.087871], [-156.625, 21.086348], [-156.629942, 21.084472], [-156.633583, 21.083341], [-156.642811, 21.083276], [-156.655947, 21.081826], [-156.670424, 21.076693], [-156.681545, 21.066226], [-156.687062, 21.060561], [-156.690896, 21.053479], [-156.698359, 21.049493], [-156.708489, 21.043231], [-156.717122, 21.032193], [-156.723002, 21.022565], [-156.728425, 21.017327], [-156.732166, 21.010933], [-156.735017, 21.005729], [-156.736596, 21], [-156.739924, 20.985904], [-156.743126, 20.976095], [-156.746402, 20.968023], [-156.75, 20.960773], [-156.75, 20.956992], [-156.751796, 20.948548], [-156.751595, 20.938572], [-156.751571, 20.93736], [-156.752355, 20.924132], [-156.751941, 20.913681], [-156.75, 20.906421], [-156.75, 20.905125], [-156.745834, 20.898795], [-156.743116, 20.893806], [-156.739419, 20.888808], [-156.738484, 20.883588], [-156.737578, 20.875], [-156.739462, 20.875], [-156.737531, 20.867918], [-156.728615, 20.851699], [-156.721737, 20.842436], [-156.711316, 20.832318], [-156.698914, 20.819731], [-156.692419, 20.812805], [-156.684729, 20.804015], [-156.672681, 20.794843], [-156.669372, 20.788844], [-156.659859, 20.778419], [-156.651921, 20.772196], [-156.640085, 20.765106], [-156.629531, 20.763122], [-156.625, 20.763082], [-156.625, 20.75], [-156.586932, 20.75], [-156.577588, 20.743258], [-156.577224, 20.74313], [-156.54682, 20.732486], [-156.521903, 20.732557], [-156.51187, 20.735386], [-156.506284, 20.718763], [-156.5, 20.699087], [-156.5, 20.702547], [-156.495728, 20.69158], [-156.499034, 20.689913], [-156.5, 20.689426], [-156.5, 20.691232], [-156.50883, 20.689131], [-156.510883, 20.688399], [-156.520112, 20.68511], [-156.531659, 20.67922], [-156.540245, 20.671385], [-156.549444, 20.658288], [-156.549625, 20.65803], [-156.555089, 20.657759], [-156.562547, 20.658337], [-156.575071, 20.65931], [-156.59227, 20.658406], [-156.597734, 20.657879], [-156.61008, 20.650792], [-156.625, 20.645096], [-156.645376, 20.6334], [-156.655056, 20.625], [-156.661878, 20.622552], [-156.674229, 20.615375], [-156.691115, 20.611567], [-156.704442, 20.604591], [-156.721691, 20.591729]]], [[[-157, 20.696895], [-156.994434, 20.693575], [-156.985962, 20.690443], [-156.973807, 20.686784], [-156.966851, 20.685943], [-156.962839, 20.685459], [-156.953935, 20.687261], [-156.943204, 20.689694], [-156.935899, 20.692222], [-156.928262, 20.691158], [-156.91876, 20.691918], [-156.91059, 20.693312], [-156.899601, 20.689935], [-156.887814, 20.688839], [-156.875, 20.690965], [-156.861853, 20.6986], [-156.845415, 20.711677], [-156.83149, 20.71515], [-156.816993, 20.719793], [-156.795363, 20.735251], [-156.782302, 20.75], [-156.76905, 20.77085], [-156.75, 20.807605], [-156.75, 20.812588], [-156.75, 20.826713], [-156.757459, 20.850771], [-156.771254, 20.868787], [-156.775426, 20.875], [-156.782036, 20.883551], [-156.79095, 20.894954], [-156.80425, 20.906916], [-156.811494, 20.915826], [-156.823329, 20.930808], [-156.827567, 20.934381], [-156.847561, 20.951238], [-156.868474, 20.964379], [-156.875, 20.966687], [-156.88216, 20.968894], [-156.887732, 20.970036], [-156.892485, 20.971589], [-156.898423, 20.973141], [-156.9051, 20.975923], [-156.913323, 20.977963], [-156.921631, 20.978936], [-156.927832, 20.978598], [-156.933494, 20.97941], [-156.944907, 20.980869], [-156.948922, 20.980945], [-156.958323, 20.981585], [-156.964616, 20.981164], [-156.96736, 20.982308], [-156.976221, 20.984016], [-156.982338, 20.98458], [-156.989822, 20.985058], [-156.994929, 20.984556], [-157, 20.984217], [-157.008342, 20.983269], [-157.017579, 20.982951], [-157.035268, 20.983302], [-157.042631, 20.981092], [-157.04949, 20.979035], [-157.064557, 20.970401], [-157.088835, 20.958397], [-157.09993, 20.948603], [-157.111227, 20.93123], [-157.115059, 20.915581], [-157.11618, 20.902889], [-157.11724, 20.891693], [-157.111209, 20.875], [-157.112678, 20.875], [-157.110131, 20.869461], [-157.102917, 20.860133], [-157.095182, 20.847154], [-157.08568, 20.836682], [-157.075207, 20.827299], [-157.048069, 20.820545], [-157.043949, 20.810026], [-157.046874, 20.803106], [-157.047608, 20.790056], [-157.045183, 20.770467], [-157.040267, 20.762033], [-157.038613, 20.753073], [-157.037298, 20.75], [-157.038145, 20.75], [-157.035561, 20.744274], [-157.031335, 20.73608], [-157.027278, 20.728731], [-157.022684, 20.723153], [-157.021378, 20.722391], [-157.018088, 20.717913], [-157.013236, 20.711912], [-157.008732, 20.706081], [-157.004652, 20.702107], [-157, 20.696895]]], [[[-159.664207, 21.869057], [-159.657687, 21.864022], [-159.641998, 21.853278], [-159.636534, 21.849816], [-159.631259, 21.846688], [-159.624769, 21.843874], [-159.619252, 21.843545], [-159.612405, 21.842873], [-159.605272, 21.84313], [-159.599669, 21.843658], [-159.591611, 21.845259], [-159.587907, 21.84547], [-159.575092, 21.842994], [-159.55598, 21.839075], [-159.550596, 21.837315], [-159.54503, 21.835638], [-159.537654, 21.834278], [-159.529638, 21.833418], [-159.522956, 21.833676], [-159.51824, 21.83506], [-159.511486, 21.8343], [-159.506268, 21.833389], [-159.503667, 21.833462], [-159.5, 21.833565], [-159.5, 21.832322], [-159.493489, 21.82918], [-159.476662, 21.823768], [-159.462472, 21.819529], [-159.453739, 21.8178], [-159.449525, 21.817436], [-159.443999, 21.817789], [-159.432853, 21.820771], [-159.410572, 21.831785], [-159.4039, 21.834953], [-159.398149, 21.838848], [-159.390573, 21.844151], [-159.375, 21.854434], [-159.375, 21.855328], [-159.373469, 21.856984], [-159.371182, 21.858991], [-159.368169, 21.860678], [-159.362745, 21.863022], [-159.357779, 21.865692], [-159.354871, 21.867933], [-159.352663, 21.869634], [-159.349412, 21.87268], [-159.347321, 21.875], [-159.342331, 21.880191], [-159.339755, 21.886444], [-159.330826, 21.891475], [-159.320114, 21.8983], [-159.307978, 21.908673], [-159.303079, 21.916477], [-159.292823, 21.928574], [-159.284354, 21.940637], [-159.281277, 21.951902], [-159.280096, 21.956226], [-159.279222, 21.965296], [-159.281586, 21.981768], [-159.280529, 21.989333], [-159.280372, 21.994367], [-159.280196, 22], [-159.279887, 22.001181], [-159.280917, 22.008719], [-159.283711, 22.018501], [-159.280083, 22.024112], [-159.276637, 22.029642], [-159.272854, 22.036567], [-159.270368, 22.041118], [-159.266394, 22.050932], [-159.264681, 22.055163], [-159.259012, 22.072933], [-159.25, 22.084146], [-159.25, 22.087342], [-159.248795, 22.09024], [-159.247044, 22.094453], [-159.24502, 22.101652], [-159.242613, 22.111866], [-159.241926, 22.118901], [-159.241827, 22.125], [-159.242154, 22.12703], [-159.242734, 22.136325], [-159.243917, 22.147212], [-159.245779, 22.166808], [-159.25, 22.175775], [-159.253622, 22.180514], [-159.259529, 22.191761], [-159.265517, 22.203915], [-159.279395, 22.220215], [-159.291325, 22.23362], [-159.296509, 22.23869], [-159.300139, 22.242031], [-159.308798, 22.25], [-159.320891, 22.258882], [-159.334252, 22.26647], [-159.355687, 22.269654], [-159.375, 22.280338], [-159.379789, 22.283295], [-159.389673, 22.287507], [-159.40292, 22.290473], [-159.412413, 22.288846], [-159.422145, 22.284783], [-159.432755, 22.278035], [-159.439334, 22.281627], [-159.43977, 22.281865], [-159.456821, 22.283898], [-159.484043, 22.285916], [-159.5, 22.283715], [-159.506826, 22.282478], [-159.515407, 22.277799], [-159.524654, 22.275494], [-159.533562, 22.277201], [-159.53975, 22.27982], [-159.547442, 22.283076], [-159.561341, 22.282972], [-159.574883, 22.28295], [-159.58299, 22.279988], [-159.596389, 22.277999], [-159.612952, 22.272235], [-159.619191, 22.266837], [-159.625, 22.261811], [-159.625, 22.263298], [-159.640002, 22.25], [-159.641786, 22.25], [-159.645604, 22.247765], [-159.653454, 22.244566], [-159.663171, 22.238561], [-159.677252, 22.227108], [-159.691158, 22.220986], [-159.707992, 22.213181], [-159.727544, 22.207157], [-159.75, 22.199449], [-159.75, 22.197718], [-159.763414, 22.189752], [-159.7728, 22.18106], [-159.777276, 22.174652], [-159.783357, 22.167509], [-159.788826, 22.160105], [-159.792023, 22.15166], [-159.793157, 22.144614], [-159.793315, 22.14159], [-159.794051, 22.136472], [-159.794006, 22.134622], [-159.797797, 22.130977], [-159.801112, 22.125], [-159.804894, 22.125], [-159.821125, 22.110055], [-159.837723, 22.094226], [-159.848124, 22.076073], [-159.848091, 22.05976], [-159.847123, 22.05287], [-159.850678, 22.04059], [-159.850959, 22.027147], [-159.850045, 22.016486], [-159.847759, 22.008525], [-159.843609, 22], [-159.838584, 22], [-159.833737, 21.989295], [-159.819835, 21.970246], [-159.808605, 21.952902], [-159.793601, 21.93978], [-159.77527, 21.930455], [-159.762075, 21.927596], [-159.75, 21.919402], [-159.735844, 21.912166], [-159.718438, 21.90811], [-159.711714, 21.907557], [-159.697677, 21.895655], [-159.687888, 21.890953], [-159.68555, 21.888026], [-159.679506, 21.88046], [-159.672941, 21.875], [-159.671778, 21.875], [-159.664207, 21.869057]]], [[[-156.871195, 21.231887], [-156.874362, 21.233093], [-156.878736, 21.233546], [-156.881736, 21.233643], [-156.88611, 21.234344], [-156.893948, 21.234006], [-156.90243, 21.232336], [-156.910279, 21.229571], [-156.911629, 21.233596], [-156.914071, 21.237727], [-156.917151, 21.243784], [-156.921108, 21.25], [-156.92357, 21.252722], [-156.9274, 21.256578], [-156.936992, 21.262449], [-156.952167, 21.269328], [-156.971289, 21.274365], [-156.978798, 21.274619], [-156.990343, 21.273534], [-157, 21.269814], [-157.009086, 21.265948], [-157.015058, 21.261194], [-157.018781, 21.258236], [-157.026444, 21.25], [-157.025296, 21.25], [-157.02538, 21.249737], [-157.030163, 21.24395], [-157.031134, 21.244537], [-157.034394, 21.245709], [-157.036238, 21.24554], [-157.051517, 21.244862], [-157.057396, 21.244187], [-157.061014, 21.24603], [-157.065327, 21.246949], [-157.072441, 21.246777], [-157.08143, 21.25], [-157.082544, 21.25], [-157.090732, 21.25227], [-157.102159, 21.252673], [-157.109493, 21.25258], [-157.116632, 21.254571], [-157.125, 21.257144], [-157.125, 21.255632], [-157.135204, 21.255161], [-157.147321, 21.256444], [-157.158992, 21.257896], [-157.161932, 21.259141], [-157.171645, 21.265395], [-157.183943, 21.271466], [-157.199538, 21.276509], [-157.214242, 21.278613], [-157.220212, 21.278496], [-157.228319, 21.276349], [-157.231259, 21.27566], [-157.233933, 21.276233], [-157.237943, 21.277471], [-157.243915, 21.279791], [-157.25, 21.280347], [-157.25, 21.278773], [-157.259973, 21.278475], [-157.272186, 21.276564], [-157.281284, 21.27259], [-157.292296, 21.265635], [-157.301351, 21.25722], [-157.305252, 21.252881], [-157.306687, 21.25], [-157.310521, 21.244522], [-157.313123, 21.237933], [-157.314468, 21.230433], [-157.314554, 21.220272], [-157.313564, 21.212615], [-157.312574, 21.207289], [-157.311675, 21.204128], [-157.315444, 21.199782], [-157.321457, 21.195344], [-157.328815, 21.187819], [-157.338593, 21.175038], [-157.349892, 21.157085], [-157.357149, 21.139066], [-157.363334, 21.128712], [-157.365664, 21.125], [-157.363484, 21.125], [-157.366259, 21.116658], [-157.366549, 21.100956], [-157.363785, 21.092358], [-157.358431, 21.083607], [-157.349124, 21.07224], [-157.334619, 21.058604], [-157.321244, 21.050676], [-157.301312, 21.047655], [-157.289428, 21.046114], [-157.278629, 21.046015], [-157.267907, 21.044721], [-157.255866, 21.045397], [-157.253731, 21.046179], [-157.25, 21.046118], [-157.25, 21.04491], [-157.241152, 21.044133], [-157.231438, 21.043099], [-157.222891, 21.044462], [-157.216036, 21.045655], [-157.201874, 21.046327], [-157.190205, 21.046658], [-157.177198, 21.046473], [-157.167136, 21.048003], [-157.156004, 21.048846], [-157.145223, 21.048319], [-157.137274, 21.048308], [-157.129544, 21.048555], [-157.125, 21.050088], [-157.125, 21.052496], [-157.117312, 21.054404], [-157.110515, 21.056481], [-157.102757, 21.057958], [-157.08305, 21.058518], [-157.077556, 21.058358], [-157.072149, 21.057597], [-157.067085, 21.054002], [-157.05975, 21.048437], [-157.050237, 21.042704], [-157.038721, 21.03852], [-157.030002, 21.038794], [-157.02451, 21.038804], [-157.015003, 21.036847], [-157.010555, 21.035482], [-157.004359, 21.031114], [-157, 21.029317], [-157, 21.029877], [-156.987369, 21.025207], [-156.977701, 21.022176], [-156.973894, 21.021821], [-156.969414, 21.017777], [-156.963131, 21.01287], [-156.955721, 21.010702], [-156.945213, 21.009381], [-156.935359, 21.006776], [-156.925727, 21.001428], [-156.921031, 21], [-156.91975, 21], [-156.914535, 20.997584], [-156.907419, 20.997594], [-156.903674, 20.997024], [-156.899463, 20.994567], [-156.893619, 20.993837], [-156.881755, 20.99336], [-156.877923, 20.993364], [-156.875, 20.993696], [-156.875, 21], [-156.836954, 21], [-156.829989, 21.002259], [-156.823364, 21.007165], [-156.817542, 21.011728], [-156.808324, 21.017752], [-156.801613, 21.021969], [-156.793681, 21.022307], [-156.78529, 21.02454], [-156.777146, 21.029702], [-156.766758, 21.036929], [-156.76174, 21.040887], [-156.756113, 21.042777], [-156.75, 21.046991], [-156.75, 21.04383], [-156.740847, 21.051054], [-156.735601, 21.055778], [-156.726008, 21.060672], [-156.708056, 21.072209], [-156.69916, 21.080739], [-156.693993, 21.087792], [-156.691063, 21.088422], [-156.682715, 21.091096], [-156.672586, 21.095717], [-156.664751, 21.104267], [-156.657708, 21.114903], [-156.654836, 21.125], [-156.652725, 21.125], [-156.650525, 21.134277], [-156.650886, 21.145019], [-156.656065, 21.163889], [-156.656279, 21.170716], [-156.659565, 21.181907], [-156.667378, 21.19315], [-156.675828, 21.202402], [-156.686507, 21.210514], [-156.696775, 21.214292], [-156.706251, 21.217228], [-156.713586, 21.221639], [-156.722076, 21.226062], [-156.731208, 21.227744], [-156.741059, 21.22802], [-156.75, 21.228196], [-156.752535, 21.22879], [-156.760285, 21.231244], [-156.771063, 21.232861], [-156.783885, 21.231451], [-156.787449, 21.232634], [-156.794843, 21.234161], [-156.801522, 21.233918], [-156.812116, 21.231407], [-156.826626, 21.227218], [-156.840869, 21.223195], [-156.848528, 21.223036], [-156.853514, 21.222705], [-156.859043, 21.227088], [-156.867488, 21.230561], [-156.871195, 21.231887]]], [[[-160.589481, 21.625], [-160.590748, 21.625], [-160.581013, 21.615135], [-160.570728, 21.606664], [-160.558702, 21.602727], [-160.546216, 21.600384], [-160.530829, 21.601064], [-160.520366, 21.60493], [-160.510431, 21.610139], [-160.5, 21.617192], [-160.496243, 21.618853], [-160.494375, 21.62086], [-160.491524, 21.625], [-160.484924, 21.63243], [-160.482907, 21.640311], [-160.482475, 21.649184], [-160.482924, 21.657973], [-160.483196, 21.665186], [-160.484964, 21.672231], [-160.487789, 21.678527], [-160.490174, 21.684492], [-160.494145, 21.690537], [-160.5, 21.697025], [-160.508791, 21.703238], [-160.522253, 21.708465], [-160.53174, 21.711998], [-160.539498, 21.712912], [-160.550309, 21.712064], [-160.562728, 21.708892], [-160.578265, 21.70025], [-160.583551, 21.695501], [-160.591869, 21.685858], [-160.595961, 21.677824], [-160.599767, 21.66765], [-160.600875, 21.658163], [-160.600365, 21.649269], [-160.597602, 21.640398], [-160.592936, 21.62965], [-160.589481, 21.625]]], [[[-160.30436, 21.853795], [-160.305007, 21.845922], [-160.304303, 21.841176], [-160.304504, 21.832623], [-160.303821, 21.819578], [-160.301534, 21.804152], [-160.298526, 21.7905], [-160.293453, 21.77997], [-160.286498, 21.7707], [-160.278211, 21.757781], [-160.271069, 21.752066], [-160.267228, 21.75], [-160.269506, 21.75], [-160.265778, 21.74618], [-160.258932, 21.742834], [-160.25, 21.740545], [-160.238867, 21.735354], [-160.228849, 21.732489], [-160.218301, 21.728797], [-160.208281, 21.728241], [-160.197992, 21.729827], [-160.186195, 21.732146], [-160.177322, 21.735554], [-160.17031, 21.739551], [-160.16025, 21.75], [-160.155275, 21.757155], [-160.152056, 21.762955], [-160.148538, 21.775063], [-160.147363, 21.782295], [-160.143961, 21.787421], [-160.141939, 21.799026], [-160.138361, 21.804236], [-160.130054, 21.814653], [-160.122015, 21.82496], [-160.108437, 21.827307], [-160.092982, 21.829892], [-160.069525, 21.840968], [-160.059408, 21.845594], [-160.046404, 21.854305], [-160.037242, 21.862369], [-160.031032, 21.869364], [-160.028136, 21.874998], [-160.028962, 21.875], [-160.02489, 21.884977], [-160.022908, 21.896459], [-160.022423, 21.911575], [-160.025856, 21.923847], [-160.027502, 21.931214], [-160.021517, 21.940108], [-160.014139, 21.946386], [-160.006191, 21.956575], [-159.999999, 21.968102], [-160, 21.971329], [-159.997505, 21.975836], [-159.996217, 21.979024], [-159.995625, 21.982141], [-159.996274, 21.988125], [-159.997205, 21.99251], [-160.001226, 21.99641], [-160.002263, 21.998364], [-160.003555, 22.001978], [-160.004521, 22.006892], [-160.011688, 22.019784], [-160.018288, 22.03001], [-160.027169, 22.038858], [-160.037186, 22.045313], [-160.042217, 22.049538], [-160.044793, 22.054889], [-160.056722, 22.068345], [-160.063461, 22.072676], [-160.075149, 22.076994], [-160.085892, 22.079388], [-160.100307, 22.082497], [-160.112624, 22.082919], [-160.119205, 22.082347], [-160.121938, 22.08172], [-160.123822, 22.081556], [-160.129054, 22.079234], [-160.140416, 22.073322], [-160.151433, 22.060515], [-160.159544, 22.041325], [-160.161977, 22.024446], [-160.165831, 22.020064], [-160.16971, 22.008012], [-160.172748, 21.997941], [-160.174011, 21.991479], [-160.189159, 21.986993], [-160.1995, 21.981278], [-160.211283, 21.972915], [-160.222722, 21.964553], [-160.234233, 21.953877], [-160.242661, 21.943869], [-160.248708, 21.943008], [-160.250001, 21.942506], [-160.264725, 21.935892], [-160.272561, 21.928749], [-160.279947, 21.920638], [-160.285897, 21.908671], [-160.28861, 21.897186], [-160.290361, 21.889179], [-160.293374, 21.883893], [-160.297282, 21.875], [-160.297524, 21.873575], [-160.29689, 21.871011], [-160.298056, 21.867988], [-160.302371, 21.861491], [-160.30436, 21.853795]]]]}}], "labels": {"type": "FeatureCollection", "features": [{"type": "Feature", "properties": {"id": "1", "NAME": "1", "text-color": "#000000", "text-size": 16, "featureLabel": {"left": -157.92621753862, "right": -157.92621753862, "top": 21.352272026809693, "bottom": 21.352272026809693}, "text-field": "1"}, "geometry": {"type": "Point", "coordinates": [-157.92621753862, 21.352272026809693]}}, {"type": "Feature", "properties": {"id": "2", "NAME": "2", "text-color": "#000000", "text-size": 16, "featureLabel": {"left": -155.52456465447239, "right": -155.52456465447239, "top": 19.642142801872243, "bottom": 19.642142801872243}, "text-field": "2"}, "geometry": {"type": "Point", "coordinates": [-155.52456465447239, 19.642142801872243]}}]}}