{"type": "FeatureCollection", "features": [{"type": "Feature", "properties": {"id": 1, "NAME": "1", "text-color": "#000000", "text-size": 16, "TotalPop": 548078, "PopDevPct": -0.00111447, "DemPct": 0.59639134, "RepPct": 0.37633173, "WhitePct": 0.67857272, "MinorityPct": 0.32142728, "BlackPct": 0.1017985, "HispanicPct": 0.15947161, "PacificPct": 0.00218007, "AsianPct": 0.04518933, "NativePct": 0.01817328, "TotalVAP": 440812, "Margin": 0.09639134, "color": "#e10000", "opacity": "0.5", "year": 2022, "state": "RI", "state-district": "RI-01"}, "geometry": {"type": "MultiPolygon", "coordinates": [[[[-71.421005, 41.809772], [-71.421272, 41.810753], [-71.421547, 41.811821], [-71.421643, 41.812212], [-71.421928, 41.81279], [-71.422173, 41.812767], [-71.423531, 41.812771], [-71.423882, 41.812767], [-71.425117, 41.812744], [-71.425895, 41.812831], [-71.426552, 41.81345], [-71.426933, 41.813957], [-71.427643, 41.813591], [-71.428642, 41.813084], [-71.429588, 41.812603], [-71.430344, 41.812214], [-71.431061, 41.811859], [-71.431168, 41.81189], [-71.434395, 41.811863], [-71.435684, 41.811771], [-71.435463, 41.811069], [-71.438225, 41.811207], [-71.440002, 41.811275], [-71.440018, 41.810593], [-71.439987, 41.809917], [-71.440048, 41.809376], [-71.44017, 41.809093], [-71.439835, 41.808876], [-71.440186, 41.808804], [-71.440567, 41.808704], [-71.440809, 41.808641], [-71.440994, 41.806767], [-71.4406, 41.804236], [-71.440555, 41.804012], [-71.440541, 41.803946], [-71.440252, 41.803705], [-71.439938, 41.803415], [-71.439234, 41.800663], [-71.439241, 41.800216], [-71.439288, 41.798886], [-71.439353, 41.79768], [-71.439058, 41.796166], [-71.438875, 41.795484], [-71.438541, 41.794229], [-71.437421, 41.792156], [-71.437376, 41.79168], [-71.437362, 41.791573], [-71.437302, 41.79102], [-71.43716, 41.790433], [-71.436915, 41.7897], [-71.436794, 41.789304], [-71.436836, 41.788738], [-71.436482, 41.788412], [-71.434046, 41.786307], [-71.433571, 41.786292], [-71.433296, 41.786312], [-71.431603, 41.786254], [-71.429003, 41.786257], [-71.426257, 41.786232], [-71.425806, 41.786227], [-71.423755, 41.786208], [-71.423585, 41.786208], [-71.42311, 41.7862], [-71.422899, 41.786202], [-71.421757, 41.786191], [-71.42172, 41.78619], [-71.421667, 41.78619], [-71.421623, 41.786189], [-71.421499, 41.786186], [-71.42061, 41.786184], [-71.420131, 41.78694], [-71.420063, 41.787033], [-71.419556, 41.78611], [-71.418617, 41.785969], [-71.417475, 41.786325], [-71.41719, 41.78779], [-71.417412, 41.788918], [-71.415909, 41.789646], [-71.414268, 41.788418], [-71.413948, 41.788738], [-71.413167, 41.788339], [-71.412962, 41.788268], [-71.412354, 41.787678], [-71.412483, 41.787018], [-71.41172, 41.786613], [-71.410255, 41.787132], [-71.408111, 41.786752], [-71.4067, 41.786629], [-71.406556, 41.786167], [-71.406235, 41.785919], [-71.405777, 41.785839], [-71.404541, 41.785847], [-71.404259, 41.785849], [-71.401657, 41.785889], [-71.401123, 41.785908], [-71.398247, 41.786011], [-71.397728, 41.78603], [-71.395042, 41.786148], [-71.394132, 41.786174], [-71.391777, 41.786243], [-71.391289, 41.786263], [-71.390603, 41.786289], [-71.389921, 41.786308], [-71.389413, 41.786335], [-71.388712, 41.786208], [-71.384769, 41.785519], [-71.378198, 41.7844], [-71.377798, 41.782], [-71.376998, 41.7779], [-71.377451, 41.769597], [-71.37752, 41.76842], [-71.377613, 41.766836], [-71.378193, 41.756983], [-71.378273, 41.755297], [-71.374965, 41.749641], [-71.372508, 41.744727], [-71.368512, 41.739421], [-71.366103, 41.73667], [-71.365207, 41.735649], [-71.364561, 41.734928], [-71.35689, 41.728472], [-71.35508, 41.726962], [-71.34836, 41.720724], [-71.342585, 41.715577], [-71.335052, 41.707106], [-71.333869, 41.705776], [-71.331315, 41.702902], [-71.331316, 41.7028], [-71.331408, 41.702281], [-71.331648, 41.701451], [-71.332015, 41.70038], [-71.325667, 41.693213], [-71.33097, 41.686962], [-71.352354, 41.678885], [-71.354069, 41.678165], [-71.355982, 41.676783], [-71.358092, 41.674202], [-71.360359, 41.670406], [-71.363289, 41.667937], [-71.367566, 41.665876], [-71.374783, 41.662765], [-71.376581, 41.660295], [-71.378972, 41.657977], [-71.379718, 41.656458], [-71.380542, 41.650326], [-71.381491, 41.646455], [-71.381749, 41.640561], [-71.381933, 41.639028], [-71.383001, 41.637037], [-71.386358, 41.633901], [-71.386709, 41.631605], [-71.385168, 41.626524], [-71.385193, 41.625101], [-71.386455, 41.620876], [-71.386308, 41.610199], [-71.387442, 41.603673], [-71.387865, 41.60145], [-71.387819, 41.597979], [-71.387376, 41.593447], [-71.38759, 41.591829], [-71.389314, 41.587854], [-71.393603, 41.575746], [-71.395754, 41.568582], [-71.397418, 41.562578], [-71.398699, 41.556801], [-71.399506, 41.54804], [-71.401331, 41.528232], [-71.401339, 41.52815], [-71.401095, 41.51774], [-71.401477, 41.516115], [-71.402514, 41.514086], [-71.406024, 41.510561], [-71.408312, 41.508661], [-71.411599, 41.504501], [-71.413027, 41.49869], [-71.410555, 41.492425], [-71.40885, 41.486192], [-71.407824, 41.480716], [-71.407748, 41.478213], [-71.408465, 41.472224], [-71.409099, 41.468202], [-71.412784, 41.462674], [-71.417269, 41.455947], [-71.421899, 41.449002], [-71.429139, 41.437998], [-71.432026, 41.432236], [-71.440854, 41.414205], [-71.459999, 41.375102], [-71.467329, 41.365112], [-71.474648, 41.355253], [-71.476794, 41.352687], [-71.47861, 41.350924], [-71.482019, 41.348537], [-71.506601, 41.312601], [-71.509442, 41.307732], [-71.50661, 41.307356], [-71.494805, 41.307355], [-71.489356, 41.308802], [-71.482996, 41.310974], [-71.479876, 41.312599], [-71.374495, 41.339011], [-71.258257, 41.375078], [-71.24996, 41.377713], [-71.124594, 41.411474], [-71.119322, 41.413321], [-71.10398, 41.421957], [-71.088571, 41.431315], [-71.116404, 41.484568], [-71.121116, 41.492787], [-71.119936, 41.495079], [-71.120559, 41.497421], [-71.121463, 41.508803], [-71.121473, 41.508928], [-71.121661, 41.511354], [-71.121661, 41.511366], [-71.121687, 41.512406], [-71.121698, 41.512543], [-71.121776, 41.51351], [-71.122437, 41.522075], [-71.124232, 41.535829], [-71.125822, 41.547995], [-71.126268, 41.55142], [-71.126809, 41.554902], [-71.127111, 41.557331], [-71.127837, 41.563203], [-71.129839, 41.579352], [-71.13162, 41.593716], [-71.135765, 41.599855], [-71.136764, 41.601334], [-71.138346, 41.603676], [-71.140308, 41.60485], [-71.140801, 41.607136], [-71.141958, 41.612533], [-71.141745, 41.613898], [-71.141291, 41.616797], [-71.140521, 41.621705], [-71.139894, 41.624146], [-71.138715, 41.625268], [-71.135302, 41.628565], [-71.135157, 41.630926], [-71.13483, 41.636285], [-71.134672, 41.638888], [-71.134588, 41.640246], [-71.134511, 41.641485], [-71.134451, 41.642452], [-71.134447, 41.642514], [-71.134346, 41.644117], [-71.133814, 41.648948], [-71.133763, 41.649417], [-71.13335, 41.653176], [-71.13317, 41.654774], [-71.132874, 41.657498], [-71.132659, 41.659449], [-71.132647, 41.659555], [-71.132624, 41.659785], [-71.132606, 41.659928], [-71.132597, 41.660023], [-71.132564, 41.660315], [-71.132557, 41.660363], [-71.133057, 41.660457], [-71.135045, 41.660807], [-71.138905, 41.661491], [-71.144852, 41.662568], [-71.147117, 41.662968], [-71.153608, 41.664151], [-71.15522, 41.664475], [-71.159111, 41.665186], [-71.161771, 41.665671], [-71.16212, 41.665735], [-71.17612, 41.668248], [-71.175784, 41.671493], [-71.178022, 41.671901], [-71.181268, 41.672495], [-71.18221, 41.672667], [-71.183272, 41.672857], [-71.184328, 41.673063], [-71.186091, 41.673401], [-71.186853, 41.673538], [-71.187625, 41.673676], [-71.190868, 41.674262], [-71.192772, 41.674596], [-71.193697, 41.674765], [-71.194496, 41.67491], [-71.195594, 41.675201], [-71.198257, 41.678406], [-71.208371, 41.690598], [-71.222471, 41.707679], [-71.225998, 41.712242], [-71.227175, 41.713512], [-71.229468, 41.716123], [-71.235982, 41.723538], [-71.24515, 41.733973], [-71.24796, 41.737172], [-71.252041, 41.741818], [-71.25464, 41.744771], [-71.257566, 41.748095], [-71.261067, 41.752082], [-71.263871, 41.753275], [-71.265878, 41.754128], [-71.270835, 41.756236], [-71.283421, 41.761579], [-71.284404, 41.762005], [-71.286131, 41.762738], [-71.294753, 41.766389], [-71.2977, 41.767639], [-71.303586, 41.770127], [-71.310355, 41.773009], [-71.314668, 41.774838], [-71.317873, 41.776199], [-71.321751, 41.777843], [-71.327792, 41.780407], [-71.328639, 41.780872], [-71.329096, 41.782719], [-71.329725, 41.781918], [-71.330046, 41.786247], [-71.329432, 41.788274], [-71.331861, 41.789725], [-71.332841, 41.790514], [-71.332343, 41.791208], [-71.334112, 41.794388], [-71.336463, 41.795731], [-71.338838, 41.795935], [-71.340495, 41.797074], [-71.339894, 41.797628], [-71.341124, 41.799546], [-71.340543, 41.802078], [-71.340511, 41.803226], [-71.339569, 41.804628], [-71.339466, 41.806648], [-71.339404, 41.806791], [-71.339325, 41.808461], [-71.340405, 41.810442], [-71.340635, 41.810861], [-71.343089, 41.815261], [-71.347496, 41.823158], [-71.346095, 41.825984], [-71.345787, 41.826565], [-71.345198, 41.827676], [-71.343254, 41.829259], [-71.337855, 41.833658], [-71.337321, 41.834093], [-71.335417, 41.835645], [-71.336438, 41.83694], [-71.337032, 41.837675], [-71.337299, 41.838023], [-71.337453, 41.838231], [-71.340629, 41.842231], [-71.340803, 41.84245], [-71.341015, 41.842726], [-71.341931, 41.843874], [-71.34255, 41.844656], [-71.33771, 41.854861], [-71.337265, 41.855805], [-71.334653, 41.861314], [-71.334255, 41.862151], [-71.33404, 41.862604], [-71.33599, 41.86807], [-71.3374, 41.872019], [-71.337818, 41.873171], [-71.33886, 41.876112], [-71.340626, 41.881062], [-71.340752, 41.882904], [-71.33985, 41.89013], [-71.339767, 41.890794], [-71.339539, 41.89258], [-71.339517, 41.89277], [-71.339307, 41.894439], [-71.339286, 41.894609], [-71.338787, 41.898593], [-71.343864, 41.897993], [-71.345934, 41.89775], [-71.346809, 41.897645], [-71.347849, 41.897522], [-71.348565, 41.897434], [-71.350383, 41.897223], [-71.351335, 41.89711], [-71.35294, 41.89692], [-71.354558, 41.896728], [-71.355581, 41.896607], [-71.356757, 41.896468], [-71.358695, 41.89624], [-71.359541, 41.896139], [-71.365457, 41.895441], [-71.366113, 41.895363], [-71.366239, 41.895348], [-71.37109, 41.894773], [-71.373798, 41.894454], [-71.37409, 41.894419], [-71.376369, 41.894151], [-71.381125, 41.893584], [-71.381463, 41.893546], [-71.381463, 41.893731], [-71.381459, 41.896756], [-71.381456, 41.898879], [-71.381456, 41.899767], [-71.381455, 41.900276], [-71.381452, 41.903598], [-71.381446, 41.907687], [-71.381446, 41.910206], [-71.381443, 41.911457], [-71.381444, 41.912212], [-71.38144, 41.912903], [-71.38144, 41.914745], [-71.381439, 41.915287], [-71.381439, 41.915472], [-71.381434, 41.919725], [-71.381432, 41.919857], [-71.381434, 41.919949], [-71.381434, 41.920011], [-71.381434, 41.920167], [-71.381434, 41.920219], [-71.381434, 41.920605], [-71.381433, 41.921149], [-71.381432, 41.921366], [-71.381433, 41.921472], [-71.381432, 41.921686], [-71.381432, 41.921981], [-71.381433, 41.922335], [-71.381433, 41.92256], [-71.381431, 41.922836], [-71.381431, 41.923009], [-71.381422, 41.923155], [-71.381427, 41.926501], [-71.381425, 41.929828], [-71.381408, 41.943627], [-71.3814, 41.947682], [-71.381399, 41.951662], [-71.381398, 41.952862], [-71.381398, 41.953156], [-71.381398, 41.954883], [-71.381394, 41.956429], [-71.381393, 41.957419], [-71.381388, 41.962994], [-71.381383, 41.966977], [-71.381378, 41.971399], [-71.381377, 41.972688], [-71.381373, 41.97639], [-71.381372, 41.977196], [-71.381369, 41.980231], [-71.381365, 41.982778], [-71.381378, 41.992025], [-71.381505, 42.000021], [-71.3815, 42.00071], [-71.381501, 42.006682], [-71.381503, 42.01024], [-71.381401, 42.018798], [-71.387409, 42.018791], [-71.390748, 42.018798], [-71.396578, 42.018748], [-71.412368, 42.018525], [-71.41426, 42.018499], [-71.415708, 42.018498], [-71.419858, 42.018385], [-71.422481, 42.018298], [-71.424407, 42.01828], [-71.439153, 42.018121], [-71.441511, 42.018092], [-71.45024, 42.017895], [-71.452735, 42.017864], [-71.454035, 42.017848], [-71.458104, 42.017798], [-71.463456, 42.017732], [-71.473124, 42.017621], [-71.483784, 42.017481], [-71.485368, 42.017459], [-71.486652, 42.017441], [-71.489389, 42.017401], [-71.491324, 42.017373], [-71.49357, 42.01734], [-71.494428, 42.017328], [-71.495296, 42.017315], [-71.496186, 42.017302], [-71.497677, 42.017281], [-71.499065, 42.017213], [-71.499244, 42.017199], [-71.502054, 42.016991], [-71.505728, 42.016712], [-71.506428, 42.016667], [-71.507155, 42.016613], [-71.511633, 42.01628], [-71.514439, 42.016073], [-71.516614, 42.015912], [-71.518809, 42.015747], [-71.519774, 42.01568], [-71.520734, 42.015605], [-71.521714, 42.015533], [-71.524641, 42.015316], [-71.52718, 42.015128], [-71.527702, 42.015095], [-71.528665, 42.015072], [-71.529125, 42.015063], [-71.533673, 42.014959], [-71.53522, 42.014924], [-71.536306, 42.014898], [-71.537507, 42.014873], [-71.537877, 42.014864], [-71.54278, 42.014753], [-71.543658, 42.014733], [-71.553256, 42.014514], [-71.55337, 42.014512], [-71.553618, 42.014505], [-71.558748, 42.014388], [-71.565485, 42.014235], [-71.570322, 42.014124], [-71.571897, 42.014088], [-71.573399, 42.014061], [-71.576816, 42.013975], [-71.580471, 42.013889], [-71.583019, 42.013833], [-71.584608, 42.013796], [-71.586861, 42.013743], [-71.587254, 42.013734], [-71.594116, 42.013575], [-71.594332, 42.013568], [-71.606731, 42.01328], [-71.605278, 42.006222], [-71.604693, 42.003246], [-71.604556, 42.002536], [-71.603631, 41.998004], [-71.602879, 41.994524], [-71.601401, 41.987466], [-71.601203, 41.986485], [-71.6007, 41.984348], [-71.600605, 41.983879], [-71.600443, 41.983027], [-71.600211, 41.981819], [-71.599016, 41.976145], [-71.597141, 41.967223], [-71.596898, 41.966123], [-71.596637, 41.964969], [-71.596167, 41.962894], [-71.595978, 41.962018], [-71.594832, 41.956756], [-71.593658, 41.950836], [-71.592451, 41.944488], [-71.590312, 41.933665], [-71.587696, 41.92149], [-71.58726, 41.919379], [-71.584366, 41.905237], [-71.5832, 41.89996], [-71.581891, 41.894665], [-71.581842, 41.894372], [-71.581087, 41.889837], [-71.579908, 41.88472], [-71.579389, 41.881812], [-71.579348, 41.881617], [-71.57805, 41.875088], [-71.578037, 41.875021], [-71.577934, 41.874494], [-71.577707, 41.873321], [-71.577469, 41.872104], [-71.577418, 41.871876], [-71.577255, 41.871106], [-71.576523, 41.867768], [-71.575752, 41.864055], [-71.575653, 41.863573], [-71.575077, 41.860829], [-71.574642, 41.858748], [-71.573608, 41.858807], [-71.562903, 41.86018], [-71.561768, 41.860329], [-71.558448, 41.860763], [-71.55687, 41.860969], [-71.554998, 41.861207], [-71.550423, 41.861765], [-71.549385, 41.861937], [-71.547354, 41.862207], [-71.545655, 41.86253], [-71.545071, 41.862585], [-71.543502, 41.862734], [-71.542475, 41.862842], [-71.539405, 41.86322], [-71.534903, 41.86383], [-71.531464, 41.864269], [-71.530589, 41.86436], [-71.530013, 41.864422], [-71.527467, 41.864793], [-71.523089, 41.865376], [-71.515114, 41.866422], [-71.514588, 41.866488], [-71.508042, 41.867342], [-71.505093, 41.867724], [-71.502895, 41.86801], [-71.500569, 41.868314], [-71.499741, 41.868614], [-71.499636, 41.868439], [-71.498466, 41.868595], [-71.496871, 41.868792], [-71.496834, 41.868797], [-71.496339, 41.868865], [-71.495858, 41.868937], [-71.495545, 41.868983], [-71.495487, 41.868669], [-71.494451, 41.868355], [-71.493152, 41.867581], [-71.492523, 41.866578], [-71.492353, 41.865365], [-71.490929, 41.863896], [-71.488565, 41.862708], [-71.487421, 41.859073], [-71.487398, 41.858893], [-71.487381, 41.858843], [-71.487354, 41.858712], [-71.487274, 41.85839], [-71.487227, 41.857927], [-71.487236, 41.857725], [-71.487234, 41.857672], [-71.487231, 41.857598], [-71.487234, 41.857462], [-71.487246, 41.857334], [-71.487242, 41.85701], [-71.487224, 41.856948], [-71.487198, 41.856823], [-71.48719, 41.856689], [-71.487174, 41.856589], [-71.487123, 41.85626], [-71.487095, 41.856134], [-71.48708, 41.856105], [-71.487073, 41.856085], [-71.487057, 41.856039], [-71.487023, 41.855978], [-71.486908, 41.855669], [-71.486869, 41.855545], [-71.486731, 41.855278], [-71.486631, 41.855153], [-71.486567, 41.855094], [-71.486453, 41.855007], [-71.486433, 41.854998], [-71.486373, 41.854956], [-71.486311, 41.854912], [-71.486065, 41.854312], [-71.485636, 41.853519], [-71.481165, 41.851176], [-71.480974, 41.850821], [-71.480619, 41.849353], [-71.480602, 41.846605], [-71.480782, 41.84597], [-71.48033, 41.845044], [-71.479586, 41.844462], [-71.479521, 41.844283], [-71.479004, 41.843501], [-71.478888, 41.842846], [-71.478659, 41.842369], [-71.478123, 41.841804], [-71.47764, 41.841469], [-71.477322, 41.839636], [-71.477216, 41.837911], [-71.475986, 41.837952], [-71.47331, 41.838982], [-71.473034, 41.837975], [-71.472829, 41.837529], [-71.472459, 41.836981], [-71.470955, 41.837875], [-71.469144, 41.839005], [-71.468742, 41.83926], [-71.467685, 41.839968], [-71.466949, 41.840477], [-71.466393, 41.840855], [-71.46456, 41.842066], [-71.462484, 41.843444], [-71.460292, 41.844957], [-71.459526, 41.84544], [-71.458656, 41.846054], [-71.45845, 41.846191], [-71.457565, 41.846786], [-71.455905, 41.847903], [-71.455376, 41.848261], [-71.454503, 41.848846], [-71.453552, 41.849445], [-71.452352, 41.850293], [-71.45184, 41.850635], [-71.451263, 41.85102], [-71.450907, 41.851257], [-71.450654, 41.851425], [-71.449829, 41.851994], [-71.449493, 41.852185], [-71.448324, 41.852981], [-71.447182, 41.853745], [-71.446686, 41.85405], [-71.446281, 41.854321], [-71.445633, 41.854759], [-71.445351, 41.854948], [-71.444482, 41.855533], [-71.443067, 41.856464], [-71.442986, 41.856556], [-71.437001, 41.86052], [-71.436311, 41.861001], [-71.434998, 41.861824], [-71.430801, 41.861373], [-71.429906, 41.861255], [-71.429291, 41.858784], [-71.429094, 41.858235], [-71.428807, 41.857572], [-71.428146, 41.856354], [-71.426628, 41.853081], [-71.427612, 41.853352], [-71.427704, 41.853378], [-71.428055, 41.853474], [-71.428786, 41.853666], [-71.428825, 41.853676], [-71.430687, 41.854141], [-71.430992, 41.854214], [-71.431618, 41.854374], [-71.432587, 41.854511], [-71.433601, 41.854614], [-71.434677, 41.854721], [-71.436264, 41.854881], [-71.436363, 41.854233], [-71.436317, 41.853523], [-71.43792, 41.853271], [-71.437141, 41.852753], [-71.434099, 41.85047], [-71.433403, 41.848915], [-71.433028, 41.848294], [-71.432793, 41.848034], [-71.433313, 41.846939], [-71.432643, 41.84679], [-71.431831, 41.8466], [-71.431061, 41.846443], [-71.430145, 41.846256], [-71.429771, 41.846191], [-71.428993, 41.846054], [-71.428726, 41.845543], [-71.428658, 41.84539], [-71.428169, 41.844334], [-71.427887, 41.843735], [-71.427849, 41.843639], [-71.427742, 41.843174], [-71.427704, 41.842953], [-71.427582, 41.842289], [-71.427498, 41.841755], [-71.426659, 41.842258], [-71.426102, 41.84177], [-71.42601, 41.84169], [-71.425522, 41.841259], [-71.424995, 41.840797], [-71.424324, 41.840237], [-71.423782, 41.840586], [-71.422033, 41.839133], [-71.421178, 41.838759], [-71.421401, 41.838434], [-71.422318, 41.837185], [-71.421837, 41.836979], [-71.421539, 41.836853], [-71.420325, 41.836342], [-71.420242, 41.836308], [-71.419662, 41.836067], [-71.419449, 41.836399], [-71.419044, 41.836437], [-71.41716, 41.836529], [-71.417152, 41.835499], [-71.416603, 41.835274], [-71.416542, 41.835235], [-71.416756, 41.834904], [-71.416367, 41.834763], [-71.416283, 41.834736], [-71.416817, 41.833496], [-71.41745, 41.832012], [-71.417224, 41.831954], [-71.417196, 41.831949], [-71.416878, 41.831894], [-71.41629, 41.831825], [-71.416435, 41.830387], [-71.415588, 41.829304], [-71.415291, 41.829174], [-71.415054, 41.829166], [-71.413418, 41.829728], [-71.413167, 41.829621], [-71.413114, 41.829585], [-71.413023, 41.829524], [-71.412964, 41.829484], [-71.412903, 41.829386], [-71.412857, 41.829422], [-71.412574, 41.829743], [-71.412299, 41.830121], [-71.41225, 41.830207], [-71.412215, 41.830288], [-71.412187, 41.830371], [-71.412148, 41.83054], [-71.41213, 41.830713], [-71.41213, 41.830803], [-71.412148, 41.830983], [-71.412178, 41.831113], [-71.41226, 41.831369], [-71.41229, 41.831468], [-71.411562, 41.831394], [-71.411507, 41.831394], [-71.411504, 41.831229], [-71.411453, 41.830906], [-71.411364, 41.830367], [-71.411096, 41.829045], [-71.411031, 41.828792], [-71.410915, 41.828435], [-71.410895, 41.828375], [-71.410754, 41.82807], [-71.410318, 41.827376], [-71.410127, 41.827065], [-71.409804, 41.826539], [-71.409983, 41.826446], [-71.410011, 41.826431], [-71.410049, 41.826408], [-71.410149, 41.826347], [-71.409706, 41.826004], [-71.408943, 41.825291], [-71.408646, 41.824734], [-71.408432, 41.824203], [-71.408386, 41.823853], [-71.408315, 41.823014], [-71.408241, 41.822449], [-71.408218, 41.822208], [-71.408203, 41.821991], [-71.408133, 41.821647], [-71.408122, 41.821088], [-71.408058, 41.81936], [-71.40789, 41.818836], [-71.407478, 41.818249], [-71.408234, 41.81794], [-71.408646, 41.818531], [-71.409103, 41.819126], [-71.409866, 41.819019], [-71.410591, 41.818962], [-71.411329, 41.81894], [-71.411462, 41.818787], [-71.412231, 41.819126], [-71.412933, 41.819439], [-71.413677, 41.819766], [-71.41366, 41.820487], [-71.414314, 41.820034], [-71.414932, 41.819378], [-71.415436, 41.81884], [-71.415894, 41.818344], [-71.416267, 41.817947], [-71.416509, 41.81772], [-71.415329, 41.816929], [-71.41426, 41.816287], [-71.411874, 41.81513], [-71.410038, 41.814538], [-71.406833, 41.814079], [-71.406912, 41.813307], [-71.40696, 41.812813], [-71.406982, 41.812491], [-71.407013, 41.812164], [-71.407181, 41.810818], [-71.407211, 41.810131], [-71.408493, 41.809929], [-71.410957, 41.80957], [-71.411865, 41.809464], [-71.412758, 41.809364], [-71.415802, 41.809299], [-71.42086, 41.810017], [-71.421005, 41.809772]]]]}}, {"type": "Feature", "properties": {"id": 2, "NAME": "2", "text-color": "#000000", "text-size": 16, "TotalPop": 549301, "PopDevPct": 0.00111447, "DemPct": 0.52060892, "RepPct": 0.45275825, "WhitePct": 0.76841054, "MinorityPct": 0.23158946, "BlackPct": 0.05705691, "HispanicPct": 0.12464916, "PacificPct": 0.00155333, "AsianPct": 0.03810807, "NativePct": 0.01932934, "TotalVAP": 446782, "Margin": 0.02060892, "color": "#0000f8", "opacity": "0.5", "year": 2022, "state": "RI", "state-district": "RI-02"}, "geometry": {"type": "MultiPolygon", "coordinates": [[[[-71.575199, 41.320941], [-71.556933, 41.316254], [-71.543851, 41.312598], [-71.526594, 41.308804], [-71.51206, 41.30808], [-71.509442, 41.307732], [-71.506601, 41.312601], [-71.482019, 41.348537], [-71.47861, 41.350924], [-71.476794, 41.352687], [-71.474648, 41.355253], [-71.467329, 41.365112], [-71.459999, 41.375102], [-71.440854, 41.414205], [-71.432026, 41.432236], [-71.429139, 41.437998], [-71.421899, 41.449002], [-71.417269, 41.455947], [-71.412784, 41.462674], [-71.409099, 41.468202], [-71.408465, 41.472224], [-71.407748, 41.478213], [-71.407824, 41.480716], [-71.40885, 41.486192], [-71.410555, 41.492425], [-71.413027, 41.49869], [-71.411599, 41.504501], [-71.408312, 41.508661], [-71.406024, 41.510561], [-71.402514, 41.514086], [-71.401477, 41.516115], [-71.401095, 41.51774], [-71.401339, 41.52815], [-71.401331, 41.528232], [-71.399506, 41.54804], [-71.398699, 41.556801], [-71.397418, 41.562578], [-71.395754, 41.568582], [-71.393603, 41.575746], [-71.389314, 41.587854], [-71.38759, 41.591829], [-71.387376, 41.593447], [-71.387819, 41.597979], [-71.387865, 41.60145], [-71.387442, 41.603673], [-71.386308, 41.610199], [-71.386455, 41.620876], [-71.385193, 41.625101], [-71.385168, 41.626524], [-71.386709, 41.631605], [-71.386358, 41.633901], [-71.383001, 41.637037], [-71.381933, 41.639028], [-71.381749, 41.640561], [-71.381491, 41.646455], [-71.380542, 41.650326], [-71.379718, 41.656458], [-71.378972, 41.657977], [-71.376581, 41.660295], [-71.374783, 41.662765], [-71.367566, 41.665876], [-71.363289, 41.667937], [-71.360359, 41.670406], [-71.358092, 41.674202], [-71.355982, 41.676783], [-71.354069, 41.678165], [-71.352354, 41.678885], [-71.33097, 41.686962], [-71.325667, 41.693213], [-71.332015, 41.70038], [-71.331648, 41.701451], [-71.331408, 41.702281], [-71.331316, 41.7028], [-71.331315, 41.702902], [-71.333869, 41.705776], [-71.335052, 41.707106], [-71.342585, 41.715577], [-71.34836, 41.720724], [-71.35508, 41.726962], [-71.35689, 41.728472], [-71.364561, 41.734928], [-71.365207, 41.735649], [-71.366103, 41.73667], [-71.368512, 41.739421], [-71.372508, 41.744727], [-71.374965, 41.749641], [-71.378273, 41.755297], [-71.378193, 41.756983], [-71.377613, 41.766836], [-71.37752, 41.76842], [-71.377451, 41.769597], [-71.376998, 41.7779], [-71.377798, 41.782], [-71.378198, 41.7844], [-71.384769, 41.785519], [-71.388712, 41.786208], [-71.389413, 41.786335], [-71.389921, 41.786308], [-71.390603, 41.786289], [-71.391289, 41.786263], [-71.391777, 41.786243], [-71.394132, 41.786174], [-71.395042, 41.786148], [-71.397728, 41.78603], [-71.398247, 41.786011], [-71.401123, 41.785908], [-71.401657, 41.785889], [-71.404259, 41.785849], [-71.404541, 41.785847], [-71.405777, 41.785839], [-71.406235, 41.785919], [-71.406556, 41.786167], [-71.4067, 41.786629], [-71.408111, 41.786752], [-71.410255, 41.787132], [-71.41172, 41.786613], [-71.412483, 41.787018], [-71.412354, 41.787678], [-71.412962, 41.788268], [-71.413167, 41.788339], [-71.413948, 41.788738], [-71.414268, 41.788418], [-71.415909, 41.789646], [-71.417412, 41.788918], [-71.41719, 41.78779], [-71.417475, 41.786325], [-71.418617, 41.785969], [-71.419556, 41.78611], [-71.420063, 41.787033], [-71.420131, 41.78694], [-71.42061, 41.786184], [-71.421499, 41.786186], [-71.421623, 41.786189], [-71.421667, 41.78619], [-71.42172, 41.78619], [-71.421757, 41.786191], [-71.422899, 41.786202], [-71.42311, 41.7862], [-71.423585, 41.786208], [-71.423755, 41.786208], [-71.425806, 41.786227], [-71.426257, 41.786232], [-71.429003, 41.786257], [-71.431603, 41.786254], [-71.433296, 41.786312], [-71.433571, 41.786292], [-71.434046, 41.786307], [-71.436482, 41.788412], [-71.436836, 41.788738], [-71.436794, 41.789304], [-71.436915, 41.7897], [-71.43716, 41.790433], [-71.437302, 41.79102], [-71.437362, 41.791573], [-71.437376, 41.79168], [-71.437421, 41.792156], [-71.438541, 41.794229], [-71.438875, 41.795484], [-71.439058, 41.796166], [-71.439353, 41.79768], [-71.439288, 41.798886], [-71.439241, 41.800216], [-71.439234, 41.800663], [-71.439938, 41.803415], [-71.440252, 41.803705], [-71.440541, 41.803946], [-71.440555, 41.804012], [-71.4406, 41.804236], [-71.440994, 41.806767], [-71.440809, 41.808641], [-71.440567, 41.808704], [-71.440186, 41.808804], [-71.439835, 41.808876], [-71.44017, 41.809093], [-71.440048, 41.809376], [-71.439987, 41.809917], [-71.440018, 41.810593], [-71.440002, 41.811275], [-71.438225, 41.811207], [-71.435463, 41.811069], [-71.435684, 41.811771], [-71.434395, 41.811863], [-71.431168, 41.81189], [-71.431061, 41.811859], [-71.430344, 41.812214], [-71.429588, 41.812603], [-71.428642, 41.813084], [-71.427643, 41.813591], [-71.426933, 41.813957], [-71.426552, 41.81345], [-71.425895, 41.812831], [-71.425117, 41.812744], [-71.423882, 41.812767], [-71.423531, 41.812771], [-71.422173, 41.812767], [-71.421928, 41.81279], [-71.421643, 41.812212], [-71.421547, 41.811821], [-71.421272, 41.810753], [-71.421005, 41.809772], [-71.42086, 41.810017], [-71.415802, 41.809299], [-71.412758, 41.809364], [-71.411865, 41.809464], [-71.410957, 41.80957], [-71.408493, 41.809929], [-71.407211, 41.810131], [-71.407181, 41.810818], [-71.407013, 41.812164], [-71.406982, 41.812491], [-71.40696, 41.812813], [-71.406912, 41.813307], [-71.406833, 41.814079], [-71.410038, 41.814538], [-71.411874, 41.81513], [-71.41426, 41.816287], [-71.415329, 41.816929], [-71.416509, 41.81772], [-71.416267, 41.817947], [-71.415894, 41.818344], [-71.415436, 41.81884], [-71.414932, 41.819378], [-71.414314, 41.820034], [-71.41366, 41.820487], [-71.413677, 41.819766], [-71.412933, 41.819439], [-71.412231, 41.819126], [-71.411462, 41.818787], [-71.411329, 41.81894], [-71.410591, 41.818962], [-71.409866, 41.819019], [-71.409103, 41.819126], [-71.408646, 41.818531], [-71.408234, 41.81794], [-71.407478, 41.818249], [-71.40789, 41.818836], [-71.408058, 41.81936], [-71.408122, 41.821088], [-71.408133, 41.821647], [-71.408203, 41.821991], [-71.408218, 41.822208], [-71.408241, 41.822449], [-71.408315, 41.823014], [-71.408386, 41.823853], [-71.408432, 41.824203], [-71.408646, 41.824734], [-71.408943, 41.825291], [-71.409706, 41.826004], [-71.410149, 41.826347], [-71.410049, 41.826408], [-71.410011, 41.826431], [-71.409983, 41.826446], [-71.409804, 41.826539], [-71.410127, 41.827065], [-71.410318, 41.827376], [-71.410754, 41.82807], [-71.410895, 41.828375], [-71.410915, 41.828435], [-71.411031, 41.828792], [-71.411096, 41.829045], [-71.411364, 41.830367], [-71.411453, 41.830906], [-71.411504, 41.831229], [-71.411507, 41.831394], [-71.411562, 41.831394], [-71.41229, 41.831468], [-71.41226, 41.831369], [-71.412178, 41.831113], [-71.412148, 41.830983], [-71.41213, 41.830803], [-71.41213, 41.830713], [-71.412148, 41.83054], [-71.412187, 41.830371], [-71.412215, 41.830288], [-71.41225, 41.830207], [-71.412299, 41.830121], [-71.412574, 41.829743], [-71.412857, 41.829422], [-71.412903, 41.829386], [-71.412964, 41.829484], [-71.413023, 41.829524], [-71.413114, 41.829585], [-71.413167, 41.829621], [-71.413418, 41.829728], [-71.415054, 41.829166], [-71.415291, 41.829174], [-71.415588, 41.829304], [-71.416435, 41.830387], [-71.41629, 41.831825], [-71.416878, 41.831894], [-71.417196, 41.831949], [-71.417224, 41.831954], [-71.41745, 41.832012], [-71.416817, 41.833496], [-71.416283, 41.834736], [-71.416367, 41.834763], [-71.416756, 41.834904], [-71.416542, 41.835235], [-71.416603, 41.835274], [-71.417152, 41.835499], [-71.41716, 41.836529], [-71.419044, 41.836437], [-71.419449, 41.836399], [-71.419662, 41.836067], [-71.420242, 41.836308], [-71.420325, 41.836342], [-71.421539, 41.836853], [-71.421837, 41.836979], [-71.422318, 41.837185], [-71.421401, 41.838434], [-71.421178, 41.838759], [-71.422033, 41.839133], [-71.423782, 41.840586], [-71.424324, 41.840237], [-71.424995, 41.840797], [-71.425522, 41.841259], [-71.42601, 41.84169], [-71.426102, 41.84177], [-71.426659, 41.842258], [-71.427498, 41.841755], [-71.427582, 41.842289], [-71.427704, 41.842953], [-71.427742, 41.843174], [-71.427849, 41.843639], [-71.427887, 41.843735], [-71.428169, 41.844334], [-71.428658, 41.84539], [-71.428726, 41.845543], [-71.428993, 41.846054], [-71.429771, 41.846191], [-71.430145, 41.846256], [-71.431061, 41.846443], [-71.431831, 41.8466], [-71.432643, 41.84679], [-71.433313, 41.846939], [-71.432793, 41.848034], [-71.433028, 41.848294], [-71.433403, 41.848915], [-71.434099, 41.85047], [-71.437141, 41.852753], [-71.43792, 41.853271], [-71.436317, 41.853523], [-71.436363, 41.854233], [-71.436264, 41.854881], [-71.434677, 41.854721], [-71.433601, 41.854614], [-71.432587, 41.854511], [-71.431618, 41.854374], [-71.430992, 41.854214], [-71.430687, 41.854141], [-71.428825, 41.853676], [-71.428786, 41.853666], [-71.428055, 41.853474], [-71.427704, 41.853378], [-71.427612, 41.853352], [-71.426628, 41.853081], [-71.428146, 41.856354], [-71.428807, 41.857572], [-71.429094, 41.858235], [-71.429291, 41.858784], [-71.429906, 41.861255], [-71.430801, 41.861373], [-71.434998, 41.861824], [-71.436311, 41.861001], [-71.437001, 41.86052], [-71.442986, 41.856556], [-71.443067, 41.856464], [-71.444482, 41.855533], [-71.445351, 41.854948], [-71.445633, 41.854759], [-71.446281, 41.854321], [-71.446686, 41.85405], [-71.447182, 41.853745], [-71.448324, 41.852981], [-71.449493, 41.852185], [-71.449829, 41.851994], [-71.450654, 41.851425], [-71.450907, 41.851257], [-71.451263, 41.85102], [-71.45184, 41.850635], [-71.452352, 41.850293], [-71.453552, 41.849445], [-71.454503, 41.848846], [-71.455376, 41.848261], [-71.455905, 41.847903], [-71.457565, 41.846786], [-71.45845, 41.846191], [-71.458656, 41.846054], [-71.459526, 41.84544], [-71.460292, 41.844957], [-71.462484, 41.843444], [-71.46456, 41.842066], [-71.466393, 41.840855], [-71.466949, 41.840477], [-71.467685, 41.839968], [-71.468742, 41.83926], [-71.469144, 41.839005], [-71.470955, 41.837875], [-71.472459, 41.836981], [-71.472829, 41.837529], [-71.473034, 41.837975], [-71.47331, 41.838982], [-71.475986, 41.837952], [-71.477216, 41.837911], [-71.477322, 41.839636], [-71.47764, 41.841469], [-71.478123, 41.841804], [-71.478659, 41.842369], [-71.478888, 41.842846], [-71.479004, 41.843501], [-71.479521, 41.844283], [-71.479586, 41.844462], [-71.48033, 41.845044], [-71.480782, 41.84597], [-71.480602, 41.846605], [-71.480619, 41.849353], [-71.480974, 41.850821], [-71.481165, 41.851176], [-71.485636, 41.853519], [-71.486065, 41.854312], [-71.486311, 41.854912], [-71.486373, 41.854956], [-71.486433, 41.854998], [-71.486453, 41.855007], [-71.486567, 41.855094], [-71.486631, 41.855153], [-71.486731, 41.855278], [-71.486869, 41.855545], [-71.486908, 41.855669], [-71.487023, 41.855978], [-71.487057, 41.856039], [-71.487073, 41.856085], [-71.48708, 41.856105], [-71.487095, 41.856134], [-71.487123, 41.85626], [-71.487174, 41.856589], [-71.48719, 41.856689], [-71.487198, 41.856823], [-71.487224, 41.856948], [-71.487242, 41.85701], [-71.487246, 41.857334], [-71.487234, 41.857462], [-71.487231, 41.857598], [-71.487234, 41.857672], [-71.487236, 41.857725], [-71.487227, 41.857927], [-71.487274, 41.85839], [-71.487354, 41.858712], [-71.487381, 41.858843], [-71.487398, 41.858893], [-71.487421, 41.859073], [-71.488565, 41.862708], [-71.490929, 41.863896], [-71.492353, 41.865365], [-71.492523, 41.866578], [-71.493152, 41.867581], [-71.494451, 41.868355], [-71.495487, 41.868669], [-71.495545, 41.868983], [-71.495858, 41.868937], [-71.496339, 41.868865], [-71.496834, 41.868797], [-71.496871, 41.868792], [-71.498466, 41.868595], [-71.499636, 41.868439], [-71.499741, 41.868614], [-71.500569, 41.868314], [-71.502895, 41.86801], [-71.505093, 41.867724], [-71.508042, 41.867342], [-71.514588, 41.866488], [-71.515114, 41.866422], [-71.523089, 41.865376], [-71.527467, 41.864793], [-71.530013, 41.864422], [-71.530589, 41.86436], [-71.531464, 41.864269], [-71.534903, 41.86383], [-71.539405, 41.86322], [-71.542475, 41.862842], [-71.543502, 41.862734], [-71.545071, 41.862585], [-71.545655, 41.86253], [-71.547354, 41.862207], [-71.549385, 41.861937], [-71.550423, 41.861765], [-71.554998, 41.861207], [-71.55687, 41.860969], [-71.558448, 41.860763], [-71.561768, 41.860329], [-71.562903, 41.86018], [-71.573608, 41.858807], [-71.574642, 41.858748], [-71.575077, 41.860829], [-71.575653, 41.863573], [-71.575752, 41.864055], [-71.576523, 41.867768], [-71.577255, 41.871106], [-71.577418, 41.871876], [-71.577469, 41.872104], [-71.577707, 41.873321], [-71.577934, 41.874494], [-71.578037, 41.875021], [-71.57805, 41.875088], [-71.579348, 41.881617], [-71.579389, 41.881812], [-71.579908, 41.88472], [-71.581087, 41.889837], [-71.581842, 41.894372], [-71.581891, 41.894665], [-71.5832, 41.89996], [-71.584366, 41.905237], [-71.58726, 41.919379], [-71.587696, 41.92149], [-71.590312, 41.933665], [-71.592451, 41.944488], [-71.593658, 41.950836], [-71.594832, 41.956756], [-71.595978, 41.962018], [-71.596167, 41.962894], [-71.596637, 41.964969], [-71.596898, 41.966123], [-71.597141, 41.967223], [-71.599016, 41.976145], [-71.600211, 41.981819], [-71.600443, 41.983027], [-71.600605, 41.983879], [-71.6007, 41.984348], [-71.601203, 41.986485], [-71.601401, 41.987466], [-71.602879, 41.994524], [-71.603631, 41.998004], [-71.604556, 42.002536], [-71.604693, 42.003246], [-71.605278, 42.006222], [-71.606731, 42.01328], [-71.60785, 42.013254], [-71.614552, 42.013099], [-71.625977, 42.012828], [-71.636672, 42.012578], [-71.64533, 42.012372], [-71.649516, 42.012274], [-71.6616, 42.011987], [-71.669997, 42.011788], [-71.678019, 42.011598], [-71.682432, 42.011495], [-71.698585, 42.011135], [-71.702161, 42.011055], [-71.713558, 42.010796], [-71.724934, 42.010542], [-71.734064, 42.010334], [-71.740881, 42.010179], [-71.750278, 42.009966], [-71.755106, 42.009857], [-71.765713, 42.009611], [-71.76608, 42.009601], [-71.771427, 42.009481], [-71.799188, 42.008053], [-71.799195, 42.004218], [-71.798763, 41.985147], [-71.798646, 41.976912], [-71.798549, 41.970427], [-71.798379, 41.962946], [-71.798328, 41.961642], [-71.798313, 41.961238], [-71.798068, 41.95373], [-71.798038, 41.945079], [-71.798015, 41.941717], [-71.79791, 41.933216], [-71.797893, 41.932216], [-71.797778, 41.928645], [-71.797726, 41.927446], [-71.797299, 41.916891], [-71.797262, 41.916247], [-71.797105, 41.912231], [-71.796698, 41.899921], [-71.796522, 41.895288], [-71.795863, 41.877688], [-71.795356, 41.867126], [-71.794941, 41.859475], [-71.79468, 41.854409], [-71.794474, 41.849159], [-71.794471, 41.849088], [-71.794173, 41.841416], [-71.794121, 41.841103], [-71.794134, 41.840008], [-71.79344, 41.825637], [-71.793161, 41.817169], [-71.793114, 41.814658], [-71.792894, 41.812521], [-71.792364, 41.800053], [-71.792079, 41.795076], [-71.792058, 41.794592], [-71.791919, 41.790715], [-71.79194, 41.789614], [-71.79137, 41.777296], [-71.791066, 41.77018], [-71.790554, 41.750117], [-71.790323, 41.747792], [-71.790089, 41.740991], [-71.790016, 41.738876], [-71.789768, 41.731556], [-71.789704, 41.725198], [-71.789272, 41.711929], [-71.789069, 41.705964], [-71.788804, 41.698336], [-71.788715, 41.695598], [-71.788577, 41.691526], [-71.788397, 41.686218], [-71.787843, 41.669817], [-71.787239, 41.656111], [-71.787649, 41.640274], [-71.787726, 41.637946], [-71.787846, 41.63445], [-71.787984, 41.629347], [-71.788213, 41.621017], [-71.788647, 41.612057], [-71.789044, 41.603521], [-71.789247, 41.596847], [-71.789462, 41.594328], [-71.789995, 41.582071], [-71.790432, 41.571986], [-71.790467, 41.570872], [-71.790672, 41.566058], [-71.790972, 41.561451], [-71.791033, 41.556177], [-71.791138, 41.553021], [-71.791402, 41.546092], [-71.792206, 41.526783], [-71.792667, 41.516013], [-71.79351, 41.498985], [-71.794147, 41.486219], [-71.794232, 41.48472], [-71.79427, 41.484049], [-71.794778, 41.475093], [-71.795025, 41.470748], [-71.795415, 41.463938], [-71.795647, 41.459984], [-71.796296, 41.451516], [-71.796468, 41.44735], [-71.796645, 41.443086], [-71.796669, 41.442494], [-71.796681, 41.442202], [-71.796767, 41.440124], [-71.79688, 41.437294], [-71.797112, 41.4305], [-71.797134, 41.429982], [-71.797287, 41.426399], [-71.79772, 41.417408], [-71.797744, 41.41691], [-71.798391, 41.416447], [-71.799513, 41.415838], [-71.800739, 41.415533], [-71.801726, 41.415658], [-71.803253, 41.417307], [-71.803684, 41.417428], [-71.805177, 41.417134], [-71.805895, 41.416836], [-71.806812, 41.416673], [-71.807237, 41.416834], [-71.808052, 41.417387], [-71.809212, 41.417822], [-71.8105, 41.418521], [-71.81215, 41.419213], [-71.8129, 41.419404], [-71.814889, 41.419487], [-71.816904, 41.419927], [-71.818088, 41.419852], [-71.82033, 41.419382], [-71.821765, 41.418248], [-71.822767, 41.41786], [-71.823418, 41.41747], [-71.823731, 41.417282], [-71.823873, 41.417164], [-71.823981, 41.417028], [-71.824146, 41.416764], [-71.824273, 41.416257], [-71.824304, 41.415833], [-71.824384, 41.415461], [-71.824573, 41.415235], [-71.82492, 41.414961], [-71.825384, 41.414687], [-71.825936, 41.414596], [-71.826128, 41.414565], [-71.827218, 41.414492], [-71.827902, 41.414334], [-71.829288, 41.413782], [-71.830628, 41.41318], [-71.831412, 41.412793], [-71.833416, 41.411946], [-71.834107, 41.411582], [-71.834658, 41.411597], [-71.835797, 41.412232], [-71.836883, 41.412228], [-71.83789, 41.412483], [-71.839258, 41.41239], [-71.839697, 41.412222], [-71.84044, 41.411532], [-71.842029, 41.410706], [-71.842426, 41.41026], [-71.842627, 41.409757], [-71.842352, 41.408084], [-71.842935, 41.407151], [-71.843229, 41.406181], [-71.843591, 41.405331], [-71.843256, 41.404461], [-71.842326, 41.403817], [-71.841553, 41.403046], [-71.84138, 41.401439], [-71.841068, 41.399658], [-71.84115, 41.39923], [-71.842004, 41.397496], [-71.842244, 41.396879], [-71.842209, 41.39538], [-71.841722, 41.394625], [-71.841042, 41.394089], [-71.840991, 41.394024], [-71.840608, 41.393622], [-71.839623, 41.392168], [-71.838749, 41.391054], [-71.838118, 41.390554], [-71.835708, 41.389852], [-71.834557, 41.389181], [-71.83313, 41.387839], [-71.832655, 41.387156], [-71.832591, 41.386385], [-71.832955, 41.385257], [-71.833395, 41.38383], [-71.833553, 41.382846], [-71.833527, 41.382264], [-71.833232, 41.381686], [-71.832736, 41.381164], [-71.832082, 41.380139], [-71.831796, 41.379866], [-71.830831, 41.379137], [-71.831356, 41.377752], [-71.831464, 41.377654], [-71.832134, 41.377059], [-71.832436, 41.376462], [-71.832656, 41.37585], [-71.832674, 41.375621], [-71.832699, 41.375309], [-71.832623, 41.375151], [-71.832531, 41.374963], [-71.832508, 41.374893], [-71.832468, 41.374768], [-71.832374, 41.374476], [-71.831779, 41.372628], [-71.831775, 41.372615], [-71.831712, 41.372417], [-71.831652, 41.372226], [-71.831653, 41.372088], [-71.831656, 41.371683], [-71.831657, 41.371472], [-71.83166, 41.371258], [-71.831665, 41.37123], [-71.831681, 41.371152], [-71.831844, 41.370344], [-71.831954, 41.370109], [-71.831997, 41.370017], [-71.832776, 41.369169], [-71.837034, 41.366286], [-71.837633, 41.365499], [-71.837751, 41.363296], [-71.837807, 41.358994], [-71.836768, 41.355103], [-71.836044, 41.353988], [-71.831303, 41.351295], [-71.829779, 41.346229], [-71.829479, 41.342326], [-71.830627, 41.341258], [-71.83728, 41.335068], [-71.844611, 41.33073], [-71.847709, 41.329604], [-71.851923, 41.324664], [-71.857458, 41.320789], [-71.859896, 41.320358], [-71.866538, 41.319185], [-71.874513, 41.321868], [-71.882131, 41.325673], [-71.889292, 41.328975], [-71.891265, 41.329714], [-71.892356, 41.329218], [-71.893657, 41.326504], [-71.900301, 41.316046], [-71.901658, 41.312683], [-71.907258, 41.304483], [-71.879847, 41.276246], [-71.874513, 41.270686], [-71.858513, 41.253697], [-71.854462, 41.2501], [-71.809384, 41.203235], [-71.790972, 41.184101], [-71.79148, 41.2501], [-71.79148, 41.271922], [-71.79148, 41.272165], [-71.77843, 41.275111], [-71.765812, 41.274245], [-71.749509, 41.274999], [-71.747045, 41.274974], [-71.73956, 41.275449], [-71.732835, 41.276876], [-71.729228, 41.277891], [-71.723435, 41.279617], [-71.719994, 41.281149], [-71.711661, 41.280601], [-71.705744, 41.280739], [-71.695043, 41.282647], [-71.685861, 41.28539], [-71.672595, 41.289079], [-71.666319, 41.292487], [-71.659565, 41.296653], [-71.656976, 41.296897], [-71.651523, 41.298362], [-71.645638, 41.300124], [-71.64072, 41.301821], [-71.636129, 41.303157], [-71.632188, 41.304842], [-71.624504, 41.306143], [-71.624504, 41.305997], [-71.598151, 41.312594], [-71.584452, 41.317037], [-71.575199, 41.320941]]], [[[-71.643014, 41.231323], [-71.649378, 41.223986], [-71.654561, 41.215465], [-71.663768, 41.206605], [-71.667858, 41.200626], [-71.670491, 41.194503], [-71.672814, 41.18465], [-71.673808, 41.17885], [-71.676264, 41.168864], [-71.678807, 41.158912], [-71.678302, 41.148904], [-71.676092, 41.141502], [-71.672644, 41.134292], [-71.668345, 41.12825], [-71.665453, 41.125821], [-71.657633, 41.119875], [-71.649849, 41.114143], [-71.640344, 41.108433], [-71.630301, 41.103455], [-71.624501, 41.100979], [-71.618861, 41.099091], [-71.611673, 41.097413], [-71.601864, 41.096619], [-71.593513, 41.095834], [-71.5693, 41.097182], [-71.565311, 41.09779], [-71.55316, 41.100079], [-71.543771, 41.100817], [-71.535841, 41.101664], [-71.528168, 41.103114], [-71.517538, 41.107077], [-71.508093, 41.111615], [-71.501887, 41.115541], [-71.499496, 41.117492], [-71.494679, 41.122192], [-71.491432, 41.125104], [-71.488273, 41.130541], [-71.48403, 41.139232], [-71.479562, 41.148055], [-71.477024, 41.155657], [-71.476877, 41.161171], [-71.476925, 41.168157], [-71.478603, 41.175792], [-71.480455, 41.181288], [-71.482716, 41.186253], [-71.489844, 41.194698], [-71.485884, 41.204727], [-71.485175, 41.209468], [-71.484583, 41.217486], [-71.486497, 41.226927], [-71.489322, 41.235171], [-71.492196, 41.240876], [-71.496595, 41.245823], [-71.499994, 41.250103], [-71.51635, 41.271549], [-71.535979, 41.28618], [-71.557569, 41.294018], [-71.570655, 41.294018], [-71.591591, 41.289317], [-71.609257, 41.281999], [-71.624504, 41.274129], [-71.634968, 41.263682], [-71.640844, 41.250101], [-71.642006, 41.245313], [-71.642758, 41.237934], [-71.643014, 41.231323]]]]}}], "labels": {"type": "FeatureCollection", "features": [{"type": "Feature", "properties": {"id": "1", "NAME": "1", "text-color": "#000000", "text-size": 16, "featureLabel": {"left": -71.26211459313963, "right": -71.26211459313963, "top": 41.518375375366226, "bottom": 41.518375375366226}, "text-field": "1"}, "geometry": {"type": "Point", "coordinates": [-71.26211459313963, 41.518375375366226]}}, {"type": "Feature", "properties": {"id": "2", "NAME": "2", "text-color": "#000000", "text-size": 16, "featureLabel": {"left": -71.58632512457275, "right": -71.58632512457275, "top": 41.65447834014893, "bottom": 41.65447834014893}, "text-field": "2"}, "geometry": {"type": "Point", "coordinates": [-71.58632512457275, 41.65447834014893]}}]}}