{"type": "FeatureCollection", "features": [{"type": "Feature", "properties": {"id": 1, "NAME": "1", "text-color": "#000000", "text-size": 16, "TotalPop": 886667, "PopDevPct": 0, "DemPct": 0.35605252, "RepPct": 0.6176939, "WhitePct": 0.83089555, "MinorityPct": 0.16910445, "BlackPct": 0.02234724, "HispanicPct": 0.03564411, "PacificPct": 0.00154351, "AsianPct": 0.01853703, "NativePct": 0.09057534, "TotalVAP": 669255, "Margin": -0.14394748, "color": "#e10000", "opacity": "0.5", "year": 2022, "state": "SD", "state-district": "SD-01"}, "geometry": {"type": "MultiPolygon", "coordinates": [[[[-96.452773, 44.19678], [-96.45271, 44.211169], [-96.452635, 44.225695], [-96.45256, 44.231953], [-96.452534, 44.240303], [-96.4526, 44.244713], [-96.452519, 44.248487], [-96.452711, 44.254374], [-96.452532, 44.254427], [-96.452489, 44.268583], [-96.452413, 44.273804], [-96.452571, 44.282432], [-96.452309, 44.296773], [-96.452359, 44.312328], [-96.452242, 44.313974], [-96.452359, 44.328098], [-96.452225, 44.340507], [-96.451962, 44.342311], [-96.452193, 44.345529], [-96.45232, 44.354871], [-96.452206, 44.362761], [-96.452238, 44.374942], [-96.452167, 44.383594], [-96.45206, 44.385727], [-96.452012, 44.412776], [-96.451944, 44.441393], [-96.451971, 44.455899], [-96.451873, 44.460719], [-96.452143, 44.470506], [-96.451948, 44.47093], [-96.451895, 44.484939], [-96.45186, 44.492449], [-96.451903, 44.505392], [-96.451545, 44.506961], [-96.451941, 44.514018], [-96.45188, 44.526386], [-96.452102, 44.526972], [-96.45207, 44.531551], [-96.451739, 44.542938], [-96.45182, 44.543652], [-96.451797, 44.572633], [-96.451729, 44.594677], [-96.451655, 44.607525], [-96.451624, 44.616249], [-96.451572, 44.63072], [-96.451574, 44.645341], [-96.451513, 44.659826], [-96.451484, 44.666793], [-96.451466, 44.674254], [-96.451493, 44.68876], [-96.451474, 44.703171], [-96.451238, 44.718004], [-96.451234, 44.718273], [-96.451349, 44.737996], [-96.451478, 44.747019], [-96.451643, 44.749952], [-96.451559, 44.761877], [-96.451503, 44.769103], [-96.451776, 44.783216], [-96.451871, 44.790488], [-96.451742, 44.792231], [-96.451714, 44.79348], [-96.451712, 44.794739], [-96.451716, 44.803567], [-96.451731, 44.804758], [-96.45144, 44.806361], [-96.451476, 44.819523], [-96.451606, 44.823387], [-96.451586, 44.834414], [-96.451607, 44.85066], [-96.451644, 44.86352], [-96.451662, 44.872581], [-96.451953, 44.874963], [-96.452008, 44.885039], [-96.451916, 44.890098], [-96.451826, 44.890258], [-96.451871, 44.904517], [-96.451874, 44.906419], [-96.451834, 44.90661], [-96.451624, 44.906877], [-96.451633, 44.907197], [-96.451641, 44.907444], [-96.451722, 44.90781], [-96.451865, 44.908449], [-96.452026, 44.910336], [-96.452033, 44.910435], [-96.452013, 44.910758], [-96.45188, 44.911081], [-96.451888, 44.918999], [-96.451922, 44.936052], [-96.451928, 44.943733], [-96.451943, 44.948267], [-96.45197, 44.962516], [-96.452342, 44.962785], [-96.452026, 44.968425], [-96.452247, 44.977145], [-96.452035, 44.97765], [-96.452034, 44.991888], [-96.451995, 45.001698], [-96.452037, 45.006443], [-96.452109, 45.021055], [-96.452193, 45.035579], [-96.452208, 45.049717], [-96.45225, 45.050108], [-96.452229, 45.06418], [-96.4522, 45.066116], [-96.452229, 45.06676], [-96.452097, 45.076839], [-96.452226, 45.078164], [-96.452221, 45.088252], [-96.452332, 45.093317], [-96.45233, 45.108102], [-96.452319, 45.115094], [-96.452469, 45.122462], [-96.452626, 45.125274], [-96.452367, 45.136841], [-96.452094, 45.14995], [-96.452071, 45.151078], [-96.452353, 45.165635], [-96.45238, 45.171542], [-96.452684, 45.182322], [-96.452555, 45.190929], [-96.452296, 45.19628], [-96.452397, 45.202914], [-96.452453, 45.20897], [-96.45258, 45.223195], [-96.452726, 45.240013], [-96.452841, 45.254432], [-96.452974, 45.272592], [-96.452989, 45.276088], [-96.45306, 45.283601], [-96.453072, 45.28919], [-96.453091, 45.291639], [-96.453046, 45.298375], [-96.453097, 45.300751], [-96.454048, 45.301631], [-96.454275, 45.301747], [-96.456514, 45.303326], [-96.45726, 45.304722], [-96.457489, 45.307307], [-96.46191, 45.313884], [-96.463753, 45.31542], [-96.465596, 45.316376], [-96.468027, 45.318619], [-96.468756, 45.320564], [-96.468864, 45.323626], [-96.469246, 45.324941], [-96.470475, 45.326545], [-96.474542, 45.33232], [-96.476598, 45.336351], [-96.478135, 45.338507], [-96.480258, 45.340739], [-96.482024, 45.34555], [-96.484396, 45.348269], [-96.485907, 45.350634], [-96.48792, 45.355296], [-96.489065, 45.357071], [-96.492889, 45.359447], [-96.502006, 45.365473], [-96.506321, 45.36732], [-96.510531, 45.368498], [-96.516086, 45.372666], [-96.521787, 45.375645], [-96.530944, 45.378495], [-96.539722, 45.380338], [-96.545973, 45.38105], [-96.552091, 45.383172], [-96.555458, 45.384167], [-96.562142, 45.38609], [-96.568081, 45.388849], [-96.578879, 45.392295], [-96.581362, 45.393465], [-96.584764, 45.395705], [-96.591117, 45.398558], [-96.596006, 45.400947], [-96.60118, 45.403181], [-96.609485, 45.405431], [-96.616296, 45.407606], [-96.619752, 45.408884], [-96.621913, 45.409096], [-96.625648, 45.408542], [-96.631204, 45.409239], [-96.63362, 45.409813], [-96.635889, 45.409943], [-96.640623, 45.409228], [-96.644462, 45.408892], [-96.647886, 45.410123], [-96.65043, 45.410298], [-96.657113, 45.409315], [-96.662258, 45.409011], [-96.667046, 45.410068], [-96.670301, 45.410545], [-96.675447, 45.410216], [-96.678087, 45.410365], [-96.680454, 45.410499], [-96.683753, 45.411556], [-96.686254, 45.413037], [-96.692541, 45.417338], [-96.697377, 45.421506], [-96.70423, 45.428674], [-96.710786, 45.43693], [-96.72425, 45.451482], [-96.726211, 45.45328], [-96.731396, 45.45702], [-96.734449, 45.461599], [-96.736837, 45.466775], [-96.738055, 45.472064], [-96.738916, 45.474402], [-96.741281, 45.477022], [-96.743486, 45.480649], [-96.743683, 45.484439], [-96.745487, 45.488712], [-96.751717, 45.499677], [-96.752865, 45.502163], [-96.760591, 45.514895], [-96.763165, 45.519526], [-96.763432, 45.520007], [-96.768351, 45.523934], [-96.770976, 45.526426], [-96.772374, 45.528941], [-96.776315, 45.531588], [-96.781036, 45.535972], [-96.784863, 45.5413], [-96.79384, 45.550724], [-96.799102, 45.554225], [-96.801591, 45.555251], [-96.805657, 45.558791], [-96.81921, 45.571304], [-96.833903, 45.584713], [-96.841333, 45.591372], [-96.8424, 45.592585], [-96.846825, 45.596552], [-96.85335, 45.60222], [-96.856834, 45.605378], [-96.856402, 45.608465], [-96.856191, 45.609864], [-96.854784, 45.61205], [-96.852439, 45.61511], [-96.851501, 45.617951], [-96.851345, 45.619372], [-96.851598, 45.619755], [-96.850059, 45.623594], [-96.850163, 45.62496], [-96.848001, 45.629712], [-96.845671, 45.636149], [-96.844211, 45.639583], [-96.842271, 45.6431], [-96.840746, 45.645294], [-96.838648, 45.647509], [-96.832659, 45.651716], [-96.829332, 45.652345], [-96.826687, 45.653662], [-96.825336, 45.654999], [-96.82118, 45.656922], [-96.813786, 45.660914], [-96.804255, 45.666329], [-96.800156, 45.668355], [-96.795432, 45.669991], [-96.791775, 45.671724], [-96.789368, 45.673448], [-96.776765, 45.68005], [-96.762062, 45.686882], [-96.759312, 45.688744], [-96.757174, 45.690957], [-96.755506, 45.693135], [-96.75035, 45.698782], [-96.745086, 45.701576], [-96.738243, 45.704663], [-96.726821, 45.710347], [-96.711157, 45.717561], [-96.707663, 45.719007], [-96.699096, 45.722039], [-96.687224, 45.725931], [-96.672665, 45.732336], [-96.671961, 45.732745], [-96.662595, 45.738682], [-96.659477, 45.740922], [-96.652226, 45.746809], [-96.649469, 45.750765], [-96.647423, 45.754339], [-96.646525, 45.755436], [-96.641941, 45.759871], [-96.640153, 45.76392], [-96.63918, 45.767112], [-96.639047, 45.768836], [-96.638847, 45.770209], [-96.639717, 45.771152], [-96.639222, 45.772096], [-96.636337, 45.774023], [-96.634147, 45.774562], [-96.633612, 45.775659], [-96.634374, 45.776408], [-96.634062, 45.777916], [-96.632876, 45.777908], [-96.630144, 45.779431], [-96.630345, 45.78238], [-96.629426, 45.784211], [-96.627778, 45.786239], [-96.625347, 45.787924], [-96.619713, 45.790313], [-96.613858, 45.793434], [-96.609209, 45.797353], [-96.603867, 45.803594], [-96.601863, 45.806343], [-96.596704, 45.811801], [-96.593216, 45.813873], [-96.588532, 45.815663], [-96.587093, 45.816445], [-96.583932, 45.819042], [-96.58117, 45.823015], [-96.57974, 45.82582], [-96.578246, 45.831552], [-96.577276, 45.833721], [-96.577534, 45.83793], [-96.575836, 45.841384], [-96.574517, 45.844044], [-96.574051, 45.848148], [-96.573079, 45.861524], [-96.574417, 45.86501], [-96.574667, 45.866816], [-96.572229, 45.870935], [-96.571823, 45.873337], [-96.572651, 45.876474], [-96.572488, 45.878696], [-96.571, 45.882421], [-96.570907, 45.883872], [-96.571527, 45.885958], [-96.571008, 45.887076], [-96.568866, 45.888023], [-96.568321, 45.891409], [-96.568941, 45.89525], [-96.568274, 45.897968], [-96.568555, 45.901045], [-96.568184, 45.903451], [-96.567366, 45.904149], [-96.566665, 45.906128], [-96.565968, 45.908937], [-96.564719, 45.909184], [-96.565512, 45.910681], [-96.56794, 45.912096], [-96.569877, 45.911458], [-96.570019, 45.913344], [-96.569127, 45.915303], [-96.569099, 45.917037], [-96.566562, 45.916931], [-96.565157, 45.919288], [-96.563975, 45.920324], [-96.564785, 45.924531], [-96.564594, 45.926902], [-96.564961, 45.930076], [-96.564192, 45.933975], [-96.563672, 45.935245], [-96.576927, 45.935269], [-96.587275, 45.93529], [-96.597676, 45.935298], [-96.604511, 45.935277], [-96.617807, 45.935402], [-96.618405, 45.935289], [-96.639135, 45.935378], [-96.659925, 45.935538], [-96.680694, 45.935717], [-96.691347, 45.935786], [-96.701421, 45.935854], [-96.716165, 45.93598], [-96.722206, 45.9359], [-96.734791, 45.935922], [-96.768942, 45.935774], [-96.784448, 45.935739], [-96.799016, 45.935772], [-96.810487, 45.935821], [-96.831391, 45.935835], [-96.843226, 45.935819], [-96.843773, 45.935821], [-96.852274, 45.935863], [-96.873308, 45.935849], [-96.894076, 45.935849], [-96.906841, 45.935505], [-96.914843, 45.935745], [-96.932883, 45.935452], [-96.946066, 45.935467], [-96.956676, 45.935597], [-96.966669, 45.935728], [-96.972678, 45.935894], [-96.977579, 45.935533], [-96.98654, 45.935504], [-96.998477, 45.935757], [-97.019421, 45.935776], [-97.040345, 45.935782], [-97.048322, 45.935716], [-97.061247, 45.935749], [-97.082127, 45.935757], [-97.103114, 45.935715], [-97.106313, 45.935886], [-97.113633, 45.935706], [-97.130537, 45.935613], [-97.144965, 45.935607], [-97.168705, 45.935652], [-97.186742, 45.935545], [-97.207495, 45.935433], [-97.228291, 45.935383], [-97.249252, 45.935553], [-97.270226, 45.935703], [-97.291027, 45.935722], [-97.307414, 45.935638], [-97.311916, 45.935676], [-97.322088, 45.935746], [-97.332898, 45.93582], [-97.342121, 45.935882], [-97.354092, 45.935854], [-97.374596, 45.935986], [-97.375042, 45.935926], [-97.395887, 45.935967], [-97.416837, 45.936139], [-97.430883, 45.935994], [-97.449798, 45.935171], [-97.479759, 45.935134], [-97.480413, 45.935135], [-97.482542, 45.935091], [-97.509529, 45.935125], [-97.518108, 45.93534], [-97.52069, 45.935187], [-97.532635, 45.935239], [-97.542483, 45.935215], [-97.563265, 45.935242], [-97.584086, 45.935286], [-97.604776, 45.935309], [-97.624408, 45.935356], [-97.638584, 45.935354], [-97.645956, 45.935365], [-97.66681, 45.93542], [-97.687514, 45.935469], [-97.708182, 45.935479], [-97.72949, 45.935535], [-97.749054, 45.935537], [-97.775281, 45.935513], [-97.791858, 45.935566], [-97.812633, 45.935511], [-97.835027, 45.935557], [-97.854793, 45.93565], [-97.874728, 45.935664], [-97.895515, 45.935713], [-97.904824, 45.935806], [-97.958727, 45.935878], [-97.978778, 45.935863], [-97.987146, 45.935992], [-97.999397, 45.935879], [-98.019707, 45.935918], [-98.0285, 45.935777], [-98.06128, 45.935843], [-98.070426, 45.935932], [-98.082499, 45.935903], [-98.102692, 45.935956], [-98.123747, 45.935971], [-98.144461, 45.936032], [-98.147652, 45.936043], [-98.165219, 45.936124], [-98.172043, 45.936177], [-98.173729, 45.936178], [-98.174342, 45.936178], [-98.174631, 45.936178], [-98.196457, 45.936187], [-98.206801, 45.936206], [-98.215975, 45.93624], [-98.227883, 45.936128], [-98.248786, 45.936158], [-98.290382, 45.936147], [-98.3113, 45.93612], [-98.332036, 45.936208], [-98.352173, 45.936291], [-98.372901, 45.936346], [-98.393727, 45.93642], [-98.414398, 45.936493], [-98.452688, 45.936701], [-98.453324, 45.936705], [-98.476304, 45.936851], [-98.497094, 45.936996], [-98.521454, 45.937192], [-98.52468, 45.937226], [-98.5278, 45.937245], [-98.538889, 45.937357], [-98.580219, 45.937806], [-98.600282, 45.937997], [-98.621111, 45.938096], [-98.641988, 45.938195], [-98.662803, 45.938314], [-98.675308, 45.938413], [-98.696798, 45.938586], [-98.704361, 45.938646], [-98.724375, 45.938731], [-98.735911, 45.938786], [-98.766039, 45.938825], [-98.786796, 45.938938], [-98.807484, 45.93899], [-98.828365, 45.939081], [-98.84561, 45.939145], [-98.870976, 45.939252], [-98.880321, 45.939355], [-98.88504, 45.939246], [-98.892333, 45.939391], [-98.915936, 45.939328], [-98.964062, 45.939518], [-98.97346, 45.939574], [-99.015266, 45.939799], [-99.056849, 45.939942], [-99.093277, 45.940009], [-99.098055, 45.940033], [-99.102963, 45.940003], [-99.130947, 45.940034], [-99.180738, 45.939999], [-99.201485, 45.93994], [-99.222267, 45.94], [-99.242502, 45.940049], [-99.257745, 45.940044], [-99.276005, 45.94012], [-99.296714, 45.940059], [-99.304814, 45.940102], [-99.344848, 45.940196], [-99.36053, 45.940332], [-99.368507, 45.94026], [-99.386569, 45.940334], [-99.407192, 45.940309], [-99.442795, 45.94026], [-99.448716, 45.940287], [-99.469656, 45.940365], [-99.490471, 45.940396], [-99.508088, 45.940494], [-99.511069, 45.940513], [-99.531591, 45.940642], [-99.557356, 45.940764], [-99.57337, 45.940878], [-99.593742, 45.940999], [-99.612677, 45.941048], [-99.614539, 45.941061], [-99.635447, 45.941084], [-99.655972, 45.941017], [-99.67686, 45.940995], [-99.697516, 45.941021], [-99.718071, 45.940883], [-99.738931, 45.940792], [-99.759712, 45.940811], [-99.801059, 45.940992], [-99.821978, 45.941063], [-99.838509, 45.941158], [-99.852939, 45.941162], [-99.859898, 45.941308], [-99.865596, 45.941245], [-99.880122, 45.941424], [-99.894845, 45.941382], [-99.902854, 45.94148], [-99.917515, 45.94158], [-99.923618, 45.941554], [-99.953257, 45.941695], [-99.964939, 45.941802], [-99.983356, 45.941867], [-100.00038, 45.941849], [-100.006968, 45.941901], [-100.017324, 45.941984], [-100.027726, 45.941921], [-100.03689, 45.94207], [-100.048522, 45.942005], [-100.065214, 45.942091], [-100.069258, 45.942051], [-100.087883, 45.942158], [-100.110697, 45.94224], [-100.121937, 45.942316], [-100.125395, 45.942219], [-100.141766, 45.942506], [-100.152265, 45.942394], [-100.160465, 45.942402], [-100.200305, 45.942726], [-100.213009, 45.942792], [-100.228481, 45.942868], [-100.24681, 45.943026], [-100.274762, 45.942945], [-100.286119, 45.942945], [-100.293461, 45.942997], [-100.308163, 45.943258], [-100.355069, 45.943217], [-100.368076, 45.94335], [-100.372449, 45.943385], [-100.378754, 45.943156], [-100.408027, 45.943392], [-100.410523, 45.943484], [-100.430319, 45.943534], [-100.464741, 45.943633], [-100.481922, 45.943615], [-100.499371, 45.943653], [-100.500668, 45.943693], [-100.528339, 45.943738], [-100.54903, 45.943681], [-100.552492, 45.94377], [-100.581449, 45.943785], [-100.607805, 45.943579], [-100.622886, 45.943579], [-100.628042, 45.943693], [-100.649018, 45.943649], [-100.708148, 45.943984], [-100.721831, 45.944021], [-100.750596, 45.943662], [-100.76225, 45.943813], [-100.785847, 45.943828], [-100.811085, 45.943692], [-100.830862, 45.943622], [-100.848899, 45.943623], [-100.849441, 45.943695], [-100.876761, 45.943689], [-100.889876, 45.943855], [-100.934978, 45.943803], [-100.938385, 45.943891], [-100.959973, 45.943782], [-100.977258, 45.943829], [-101.000322, 45.943622], [-101.041137, 45.943455], [-101.059622, 45.943451], [-101.079772, 45.943553], [-101.101038, 45.943827], [-101.107237, 45.944068], [-101.117399, 45.944077], [-101.125656, 45.943889], [-101.142314, 45.943907], [-101.162729, 45.943944], [-101.175296, 45.94402], [-101.205771, 45.943928], [-101.209506, 45.944034], [-101.223803, 45.944059], [-101.241726, 45.943987], [-101.250238, 45.944186], [-101.263874, 45.944046], [-101.271421, 45.944136], [-101.287152, 45.944009], [-101.301631, 45.944031], [-101.308118, 45.944108], [-101.317378, 45.944067], [-101.332033, 45.944157], [-101.333889, 45.944097], [-101.349322, 45.944104], [-101.37036, 45.944138], [-101.373605, 45.944218], [-101.401855, 45.943941], [-101.420443, 45.943806], [-101.432374, 45.94382], [-101.451839, 45.943869], [-101.482264, 45.944063], [-101.499808, 45.944302], [-101.500469, 45.944117], [-101.52153, 45.944043], [-101.529718, 45.944175], [-101.556074, 45.944184], [-101.575983, 45.94432], [-101.589531, 45.944347], [-101.61946, 45.944289], [-101.62481, 45.944391], [-101.639244, 45.94426], [-101.658071, 45.944262], [-101.666796, 45.944316], [-101.680179, 45.944165], [-101.683677, 45.944331], [-101.700267, 45.944311], [-101.72117, 45.944337], [-101.754748, 45.94442], [-101.77887, 45.944417], [-101.786099, 45.944341], [-101.81376, 45.944448], [-101.824197, 45.944592], [-101.852023, 45.944693], [-101.874145, 45.94472], [-101.875185, 45.944804], [-101.89761, 45.944811], [-101.93921, 45.944461], [-101.943374, 45.944553], [-101.95712, 45.944514], [-101.973368, 45.94453], [-101.991517, 45.944566], [-102.000366, 45.944676], [-102.000681, 45.944563], [-102.010945, 45.944521], [-102.031632, 45.94463], [-102.039045, 45.944739], [-102.04256, 45.944588], [-102.052413, 45.94462], [-102.077676, 45.944839], [-102.087036, 45.944805], [-102.087523, 45.944922], [-102.096531, 45.944905], [-102.114557, 45.944683], [-102.123319, 45.944693], [-102.124394, 45.945063], [-102.126414, 45.944695], [-102.135381, 45.944704], [-102.140944, 45.944651], [-102.145514, 45.944689], [-102.159334, 45.944641], [-102.16524, 45.944715], [-102.16803, 45.944728], [-102.171248, 45.944734], [-102.176859, 45.944754], [-102.182065, 45.944709], [-102.197121, 45.94476], [-102.217919, 45.944799], [-102.250397, 45.944932], [-102.268622, 45.944866], [-102.284982, 45.94482], [-102.300945, 45.944839], [-102.320699, 45.944933], [-102.331951, 45.945038], [-102.348203, 45.944909], [-102.373094, 45.944901], [-102.393098, 45.944967], [-102.398789, 45.944849], [-102.410561, 45.945033], [-102.42561, 45.944943], [-102.445607, 45.944917], [-102.449736, 45.945065], [-102.476147, 45.944982], [-102.500314, 45.945061], [-102.537937, 45.944962], [-102.549895, 45.944836], [-102.557506, 45.944952], [-102.569355, 45.944991], [-102.580493, 45.945027], [-102.600838, 45.944974], [-102.637962, 45.944904], [-102.642202, 45.945211], [-102.652345, 45.945269], [-102.676446, 45.945143], [-102.693705, 45.945175], [-102.704839, 45.94507], [-102.73453, 45.945236], [-102.793962, 45.945075], [-102.817928, 45.945131], [-102.828182, 45.945179], [-102.860282, 45.945144], [-102.870629, 45.945069], [-102.877021, 45.945125], [-102.920533, 45.945105], [-102.94207, 45.945], [-102.959869, 45.945035], [-102.983434, 45.945079], [-102.989913, 45.945211], [-102.995668, 45.945163], [-103.01398, 45.945211], [-103.034544, 45.945318], [-103.047376, 45.945118], [-103.066431, 45.945139], [-103.078524, 45.945111], [-103.097518, 45.945169], [-103.102555, 45.945095], [-103.126979, 45.945135], [-103.148397, 45.945114], [-103.168508, 45.945245], [-103.181401, 45.945186], [-103.193419, 45.945257], [-103.245118, 45.94516], [-103.252742, 45.945171], [-103.284093, 45.945152], [-103.307122, 45.945163], [-103.31211, 45.945153], [-103.369029, 45.945152], [-103.390552, 45.944978], [-103.410047, 45.945245], [-103.418132, 45.9451], [-103.431488, 45.945123], [-103.431646, 45.945308], [-103.466603, 45.945224], [-103.480235, 45.945088], [-103.493988, 45.944944], [-103.500553, 45.945252], [-103.54121, 45.945265], [-103.556767, 45.94515], [-103.55731, 45.945362], [-103.577098, 45.945331], [-103.584927, 45.945286], [-103.625499, 45.945303], [-103.660767, 45.945233], [-103.687448, 45.945178], [-103.744941, 45.945061], [-103.750347, 45.945255], [-103.784224, 45.94516], [-103.787222, 45.945202], [-103.842285, 45.945219], [-103.84535, 45.945121], [-103.853743, 45.945258], [-103.872818, 45.945191], [-103.875566, 45.945068], [-103.888425, 45.945052], [-103.897062, 45.94524], [-103.901225, 45.945144], [-103.907762, 45.945356], [-103.924006, 45.945333], [-103.981881, 45.945243], [-104.000552, 45.945231], [-104.045547, 45.945308], [-104.045281, 45.933912], [-104.044125, 45.878819], [-104.043661, 45.853705], [-104.042596, 45.749942], [-104.042617, 45.735772], [-104.042487, 45.679202], [-104.042465, 45.669422], [-104.042362, 45.635843], [-104.042255, 45.624747], [-104.042315, 45.619227], [-104.042096, 45.607771], [-104.041992, 45.593124], [-104.041863, 45.579136], [-104.041599, 45.548315], [-104.041409, 45.52464], [-104.041143, 45.491948], [-104.041528, 45.490974], [-104.041378, 45.481899], [-104.040955, 45.467514], [-104.040813, 45.462611], [-104.040594, 45.433265], [-104.040409, 45.393533], [-104.040227, 45.337455], [-104.040146, 45.295346], [-104.040061, 45.264596], [-104.040004, 45.212891], [-104.039977, 45.199629], [-104.040037, 45.154818], [-104.040035, 45.137202], [-104.040123, 45.079724], [-104.040253, 45.055171], [-104.039694, 44.99807], [-104.050783, 44.997783], [-104.057879, 44.997605], [-104.057739, 44.995828], [-104.056897, 44.940079], [-104.056618, 44.93319], [-104.056457, 44.915007], [-104.056556, 44.913382], [-104.055913, 44.874986], [-104.056495, 44.867034], [-104.056197, 44.811763], [-104.056215, 44.800795], [-104.05609, 44.788649], [-104.055865, 44.783624], [-104.055929, 44.780748], [-104.055927, 44.76363], [-104.055821, 44.749293], [-104.055899, 44.738122], [-104.055776, 44.700466], [-104.0559, 44.69625], [-104.055806, 44.687729], [-104.055952, 44.686081], [-104.055813, 44.665026], [-104.055778, 44.646459], [-104.055773, 44.641156], [-104.055737, 44.624985], [-104.0558, 44.602302], [-104.056012, 44.591587], [-104.05604, 44.581663], [-104.055918, 44.578668], [-104.055943, 44.571025], [-104.055971, 44.563101], [-104.055823, 44.546704], [-104.055928, 44.542621], [-104.05593, 44.54237], [-104.05586, 44.54218], [-104.055924, 44.524013], [-104.0559, 44.51762], [-104.055926, 44.517359], [-104.05574, 44.431089], [-104.055634, 44.394729], [-104.055632, 44.365511], [-104.05563, 44.36462], [-104.05563, 44.3636], [-104.055538, 44.324601], [-104.055522, 44.316027], [-104.055503, 44.309339], [-104.055408, 44.258329], [-104.055389, 44.249983], [-104.054838, 44.210005], [-104.054788, 44.203573], [-104.054487, 44.180381], [-104.054504, 44.174039], [-104.054546, 44.15778], [-104.054588, 44.141081], [-104.054589, 44.139697], [-104.054607, 44.113165], [-104.05463, 44.081558], [-104.054688, 43.999979], [-104.054839, 43.972387], [-104.054855, 43.969462], [-104.054978, 43.942909], [-104.054745, 43.938167], [-104.055046, 43.935163], [-104.055323, 43.882816], [-104.05534, 43.878565], [-104.055419, 43.865817], [-104.055482, 43.854583], [-104.055487, 43.853476], [-104.055462, 43.845884], [-104.055217, 43.773785], [-104.055176, 43.761633], [-104.05529, 43.748642], [-104.055122, 43.740398], [-104.055038, 43.688094], [-104.054879, 43.582999], [-104.055001, 43.579086], [-104.055082, 43.564921], [-104.055022, 43.557479], [-104.054969, 43.556408], [-104.054824, 43.533281], [-104.054786, 43.503072], [-104.054828, 43.492591], [-104.054803, 43.477815], [-104.05477, 43.432643], [-104.05476, 43.41675], [-104.054549, 43.405518], [-104.054643, 43.404809], [-104.054616, 43.391136], [-104.054721, 43.375102], [-104.05461, 43.37468], [-104.054552, 43.368716], [-104.054441, 43.336356], [-104.05419, 43.30424], [-104.053936, 43.297928], [-104.053876, 43.289801], [-104.05391, 43.249814], [-104.053945, 43.248447], [-104.053967, 43.245132], [-104.053823, 43.201755], [-104.053767, 43.198684], [-104.053514, 43.135491], [-104.053471, 43.124857], [-104.053327, 43.116218], [-104.053246, 43.083348], [-104.053303, 43.058418], [-104.053235, 43.043972], [-104.053261, 43.032463], [-104.053129, 43.014941], [-104.053127, 43.001505], [-104.053028, 43.000585], [-104.049653, 43.000587], [-104.034508, 43.000891], [-104.020647, 43.001262], [-104.001106, 43.001587], [-103.990999, 43.00169], [-103.9662, 43.001707], [-103.950136, 43.001259], [-103.936973, 43.001173], [-103.924865, 43.000918], [-103.875445, 43.001116], [-103.869045, 43.000928], [-103.860387, 43.000987], [-103.847411, 43.001118], [-103.815824, 43.001283], [-103.813647, 43.001376], [-103.798007, 43.00133], [-103.774888, 43.001192], [-103.757921, 43.00139], [-103.75043, 43.001389], [-103.749751, 43.001222], [-103.73383, 43.001069], [-103.715206, 43.000983], [-103.689817, 43.001003], [-103.675964, 43.001153], [-103.654243, 43.001407], [-103.653706, 43.001421], [-103.638341, 43.001062], [-103.625437, 43.000976], [-103.618296, 43.000679], [-103.603389, 43.000617], [-103.579943, 43.000731], [-103.576329, 43.000807], [-103.550189, 43.000984], [-103.543351, 43.000929], [-103.523784, 43.000798], [-103.505815, 43.000879], [-103.500358, 43.000766], [-103.475638, 43.00048], [-103.450801, 43.000516], [-103.42536, 43.00074], [-103.404778, 43.000721], [-103.404606, 43.000893], [-103.346849, 43.000926], [-103.336473, 43.000886], [-103.312275, 43.000925], [-103.274384, 43.00083], [-103.250506, 43.000828], [-103.24988, 43.000866], [-103.224159, 43.000855], [-103.170092, 43.000817], [-103.125673, 43.000808], [-103.103935, 43.000748], [-103.08428, 43.000784], [-103.020732, 43.000707], [-103.000609, 43.000751], [-102.976312, 43.000594], [-102.958212, 43.000598], [-102.949175, 43.00054], [-102.908518, 43.000528], [-102.889187, 43.000438], [-102.875457, 43.000209], [-102.867895, 42.99998], [-102.860919, 42.99998], [-102.833824, 42.999983], [-102.809335, 42.99998], [-102.795664, 42.999982], [-102.736815, 42.999979], [-102.652618, 42.999985], [-102.625701, 42.999773], [-102.573742, 42.999849], [-102.568576, 42.999838], [-102.558066, 42.999802], [-102.556382, 42.999804], [-102.554466, 42.99979], [-102.532408, 42.999717], [-102.500631, 42.999767], [-102.498171, 42.999888], [-102.486862, 42.999544], [-102.481593, 42.999754], [-102.451263, 42.99969], [-102.440733, 42.999721], [-102.435959, 42.999607], [-102.405551, 42.999599], [-102.374772, 42.999583], [-102.369616, 42.999536], [-102.354505, 42.999572], [-102.353082, 42.999511], [-102.333891, 42.999395], [-102.300217, 42.999428], [-102.250418, 42.999395], [-102.2498, 42.999447], [-102.214856, 42.999391], [-102.125427, 42.999196], [-102.101953, 42.999313], [-102.082486, 42.999355], [-102.041688, 42.999234], [-102.017552, 42.999275], [-102.000256, 42.999295], [-101.994598, 42.999229], [-101.941441, 42.999259], [-101.882924, 42.999298], [-101.875424, 42.999415], [-101.862762, 42.999374], [-101.812343, 42.998467], [-101.793368, 42.998147], [-101.778478, 42.997828], [-101.775901, 42.99786], [-101.761371, 42.997319], [-101.738673, 42.996998], [-101.715008, 42.996512], [-101.713906, 42.996533], [-101.633007, 42.996255], [-101.613435, 42.996417], [-101.570458, 42.996802], [-101.51424, 42.997054], [-101.495564, 42.997076], [-101.478662, 42.997154], [-101.446815, 42.997087], [-101.425417, 42.99719], [-101.376809, 42.997538], [-101.366252, 42.997428], [-101.336704, 42.997496], [-101.265749, 42.997661], [-101.239768, 42.997644], [-101.232873, 42.9979], [-101.229554, 42.997759], [-101.228013, 42.998136], [-101.22801, 42.997559], [-101.19034, 42.997791], [-101.140807, 42.997893], [-101.131498, 42.997873], [-101.110923, 42.997864], [-101.043147, 42.99796], [-101.03344, 42.997862], [-101.022989, 42.997757], [-101.006037, 42.997911], [-100.985274, 42.998156], [-100.964168, 42.998014], [-100.959882, 42.998036], [-100.95824, 42.99775], [-100.954901, 42.998046], [-100.935424, 42.998037], [-100.907005, 42.99801], [-100.88752, 42.998015], [-100.876643, 42.998178], [-100.854823, 42.998194], [-100.814164, 42.998426], [-100.806908, 42.998659], [-100.804368, 42.998654], [-100.786619, 42.99816], [-100.773662, 42.998117], [-100.748953, 42.998185], [-100.747883, 42.998184], [-100.710412, 42.998182], [-100.671495, 42.998235], [-100.632468, 42.998102], [-100.619286, 42.998102], [-100.609935, 42.998192], [-100.5733, 42.998147], [-100.563416, 42.998153], [-100.555254, 42.998287], [-100.550244, 42.998796], [-100.541598, 42.998854], [-100.537758, 42.998733], [-100.531345, 42.998896], [-100.525978, 42.999042], [-100.478779, 42.998927], [-100.458208, 42.998928], [-100.452585, 42.999065], [-100.435269, 42.999158], [-100.41515, 42.998964], [-100.413362, 42.99895], [-100.395991, 42.998979], [-100.385075, 42.998888], [-100.355137, 42.998812], [-100.349162, 42.998811], [-100.31114, 42.998644], [-100.30893, 42.999139], [-100.297707, 42.998808], [-100.277679, 42.998749], [-100.27682, 42.998669], [-100.250405, 42.998542], [-100.223659, 42.998734], [-100.198413, 42.998674], [-100.192983, 42.998542], [-100.15122, 42.998421], [-100.128344, 42.998693], [-100.126911, 42.998556], [-100.113072, 42.998513], [-100.107158, 42.998416], [-100.080463, 42.998363], [-100.068047, 42.998295], [-100.067732, 42.998381], [-100.034201, 42.998145], [-100.028039, 42.998146], [-100.022736, 42.998376], [-100.008483, 42.998208], [-100.005429, 42.998208], [-100.000396, 42.998207], [-99.962985, 42.997661], [-99.96078, 42.998085], [-99.951169, 42.998162], [-99.933943, 42.998011], [-99.927427, 42.998108], [-99.918619, 42.998027], [-99.889654, 42.998083], [-99.877274, 42.997816], [-99.872019, 42.997838], [-99.869864, 42.998068], [-99.865296, 42.9979], [-99.849943, 42.997999], [-99.835857, 42.997915], [-99.803732, 42.997991], [-99.790737, 42.997915], [-99.770818, 42.998112], [-99.768454, 42.997935], [-99.731213, 42.997908], [-99.726839, 42.99793], [-99.709404, 42.997951], [-99.705248, 42.998016], [-99.699308, 42.997801], [-99.690638, 42.997871], [-99.676893, 42.997857], [-99.652422, 42.997902], [-99.637755, 42.997916], [-99.636305, 42.997805], [-99.627784, 42.997866], [-99.62449, 42.997851], [-99.578352, 42.997972], [-99.553801, 42.997998], [-99.535967, 42.997973], [-99.534049, 42.998033], [-99.500387, 42.997909], [-99.494163, 42.997959], [-99.488741, 42.998121], [-99.474178, 42.998067], [-99.471513, 42.997917], [-99.435155, 42.998028], [-99.405138, 42.998034], [-99.395514, 42.998161], [-99.394228, 42.998032], [-99.38252, 42.997946], [-99.364172, 42.998154], [-99.355508, 42.998186], [-99.348353, 42.998209], [-99.347251, 42.998014], [-99.336231, 42.998016], [-99.296833, 42.998048], [-99.26271, 42.998234], [-99.257054, 42.998093], [-99.238889, 42.998194], [-99.234896, 42.998097], [-99.217717, 42.99816], [-99.19536, 42.998086], [-99.170335, 42.99837], [-99.161388, 42.998465], [-99.158338, 42.998364], [-99.157915, 42.998221], [-99.139306, 42.998499], [-99.136159, 42.998155], [-99.104363, 42.998221], [-99.098324, 42.998175], [-99.080456, 42.998223], [-99.080143, 42.998403], [-99.077076, 42.998283], [-99.064933, 42.998104], [-99.060518, 42.998268], [-99.022416, 42.998211], [-99.021618, 42.998358], [-98.981944, 42.998244], [-98.964728, 42.998215], [-98.96219, 42.998288], [-98.942608, 42.998265], [-98.936011, 42.998259], [-98.903124, 42.998246], [-98.880969, 42.998182], [-98.872228, 42.998228], [-98.824168, 42.998319], [-98.804632, 42.998306], [-98.803959, 42.998512], [-98.803385, 42.998324], [-98.785629, 42.998147], [-98.764491, 42.998295], [-98.752313, 42.998408], [-98.725116, 42.998379], [-98.70531, 42.998407], [-98.691761, 42.998503], [-98.666065, 42.998535], [-98.665621, 42.998465], [-98.645473, 42.99849], [-98.629115, 42.998532], [-98.614281, 42.998446], [-98.60421, 42.99837], [-98.585312, 42.998399], [-98.56858, 42.998491], [-98.566976, 42.998571], [-98.566483, 42.998556], [-98.561725, 42.99838], [-98.531944, 42.998456], [-98.505928, 42.998523], [-98.501701, 42.998595], [-98.49855, 42.998559], [-98.49706, 42.992323], [-98.495747, 42.988032], [-98.494817, 42.986678], [-98.490483, 42.977948], [-98.485655, 42.971736], [-98.483552, 42.96903], [-98.481447, 42.966519], [-98.480202, 42.965051], [-98.478919, 42.963539], [-98.473446, 42.955571], [-98.470591, 42.951813], [-98.470203, 42.951303], [-98.469701, 42.950642], [-98.467086, 42.947407], [-98.466819, 42.94726], [-98.463149, 42.945239], [-98.461673, 42.944427], [-98.458515, 42.943374], [-98.45222, 42.938389], [-98.448309, 42.936428], [-98.447047, 42.935117], [-98.445861, 42.93062], [-98.444145, 42.929242], [-98.439743, 42.928195], [-98.437285, 42.928393], [-98.434503, 42.929227], [-98.432416, 42.930683], [-98.430934, 42.931504], [-98.426287, 42.9321], [-98.421835, 42.932021], [-98.42074, 42.931924], [-98.418391, 42.930724], [-98.416561, 42.930233], [-98.411444, 42.927682], [-98.410788, 42.927333], [-98.409757, 42.926784], [-98.407824, 42.92575], [-98.399298, 42.922465], [-98.386445, 42.918407], [-98.375358, 42.913132], [-98.373509, 42.912637], [-98.372819, 42.912409], [-98.361703, 42.908658], [-98.356264, 42.906788], [-98.351449, 42.90497], [-98.348438, 42.903687], [-98.342408, 42.900847], [-98.33799, 42.89776], [-98.337028, 42.896773], [-98.335849, 42.895657], [-98.33533, 42.894767], [-98.334088, 42.892632], [-98.332422, 42.8905], [-98.329663, 42.888441], [-98.325548, 42.886404], [-98.322761, 42.885558], [-98.319513, 42.88454], [-98.316328, 42.883903], [-98.313888, 42.883423], [-98.309771, 42.882605], [-98.297465, 42.880059], [-98.293037, 42.878775], [-98.280007, 42.874996], [-98.278003, 42.874834], [-98.272131, 42.874373], [-98.268363, 42.874152], [-98.263473, 42.8745], [-98.258276, 42.87439], [-98.256296, 42.874083], [-98.25181, 42.872824], [-98.24982, 42.871843], [-98.248217, 42.869665], [-98.24683, 42.868397], [-98.231922, 42.86114], [-98.230431, 42.860261], [-98.226515, 42.857744], [-98.224231, 42.855521], [-98.222437, 42.854558], [-98.219826, 42.853157], [-98.20834, 42.848425], [-98.203946, 42.846646], [-98.196873, 42.844126], [-98.195235, 42.843512], [-98.189811, 42.841643], [-98.183464, 42.840201], [-98.181732, 42.839757], [-98.171113, 42.837114], [-98.165696, 42.837018], [-98.160232, 42.837625], [-98.159454, 42.837772], [-98.15854, 42.837945], [-98.153107, 42.838986], [-98.148234, 42.839821], [-98.147109, 42.839631], [-98.14321, 42.83672], [-98.139845, 42.834255], [-98.138103, 42.832543], [-98.135737, 42.829453], [-98.133571, 42.826625], [-98.130229, 42.82234], [-98.127674, 42.819956], [-98.124906, 42.819698], [-98.123893, 42.818389], [-98.121204, 42.816841], [-98.115121, 42.81381], [-98.112438, 42.813202], [-98.110172, 42.811484], [-98.107856, 42.810473], [-98.104865, 42.808317], [-98.103962, 42.807139], [-98.099295, 42.803535], [-98.098057, 42.802238], [-98.096172, 42.800269], [-98.093371, 42.79848], [-98.091945, 42.797626], [-98.087955, 42.795644], [-98.082911, 42.7942], [-98.080626, 42.792566], [-98.07461, 42.788944], [-98.074033, 42.788283], [-98.072845, 42.786925], [-98.0693, 42.785847], [-98.067486, 42.784635], [-98.066401, 42.783256], [-98.062999, 42.781001], [-98.061255, 42.777539], [-98.060359, 42.773334], [-98.059903, 42.772663], [-98.056684, 42.770676], [-98.055289, 42.770171], [-98.052197, 42.768884], [-98.049272, 42.768409], [-98.046523, 42.768123], [-98.044735, 42.767931], [-98.038696, 42.766274], [-98.037154, 42.765632], [-98.035071, 42.764114], [-98.034371, 42.764035], [-98.030624, 42.763629], [-98.025978, 42.763491], [-98.01979, 42.762708], [-98.018216, 42.762472], [-98.01431, 42.76229], [-98.012699, 42.762301], [-98.009171, 42.76326], [-98.005766, 42.764086], [-98.002557, 42.763186], [-98.000371, 42.763179], [-97.993282, 42.76517], [-97.990871, 42.764999], [-97.988441, 42.766319], [-97.984744, 42.767799], [-97.979533, 42.769443], [-97.97642, 42.769912], [-97.966436, 42.768838], [-97.962067, 42.768637], [-97.953513, 42.768972], [-97.95017, 42.76955], [-97.947189, 42.770709], [-97.940238, 42.774251], [-97.936746, 42.775683], [-97.932996, 42.77813], [-97.931896, 42.779373], [-97.925512, 42.784498], [-97.923258, 42.786934], [-97.92148, 42.788275], [-97.919766, 42.788947], [-97.917121, 42.789387], [-97.91485, 42.79052], [-97.911087, 42.79379], [-97.909036, 42.794833], [-97.905058, 42.798797], [-97.89831, 42.806806], [-97.894466, 42.811606], [-97.890323, 42.815038], [-97.888647, 42.817177], [-97.887333, 42.81995], [-97.886103, 42.823448], [-97.884422, 42.827253], [-97.882626, 42.82979], [-97.882079, 42.831776], [-97.880003, 42.835327], [-97.879692, 42.83634], [-97.879506, 42.841399], [-97.87912, 42.843602], [-97.876655, 42.846703], [-97.875813, 42.848526], [-97.876061, 42.8509], [-97.877055, 42.852592], [-97.877176, 42.854322], [-97.876161, 42.857828], [-97.875531, 42.858656], [-97.87221, 42.860123], [-97.86587, 42.862814], [-97.858113, 42.86506], [-97.850436, 42.866747], [-97.845393, 42.86772], [-97.841966, 42.868166], [-97.831393, 42.86896], [-97.828573, 42.868802], [-97.825872, 42.867536], [-97.819012, 42.86286], [-97.817112, 42.861777], [-97.808587, 42.859765], [-97.80484, 42.858732], [-97.801331, 42.858], [-97.798637, 42.857149], [-97.788414, 42.853359], [-97.781489, 42.851472], [-97.774381, 42.84974], [-97.764645, 42.849046], [-97.753705, 42.848935], [-97.750242, 42.84941], [-97.732481, 42.848106], [-97.720335, 42.84728], [-97.709395, 42.845249], [-97.700964, 42.843591], [-97.693217, 42.842774], [-97.686477, 42.842212], [-97.676101, 42.842495], [-97.668319, 42.842807], [-97.662088, 42.843586], [-97.657903, 42.8444], [-97.646806, 42.847376], [-97.63544, 42.851532], [-97.630444, 42.8531], [-97.625409, 42.854295], [-97.620323, 42.856522], [-97.617432, 42.857361], [-97.611811, 42.858367], [-97.603762, 42.858329], [-97.59926, 42.856229], [-97.595533, 42.855138], [-97.591916, 42.853837], [-97.587424, 42.852938], [-97.578474, 42.850544], [-97.567065, 42.848154], [-97.561928, 42.847552], [-97.554613, 42.847633], [-97.54474, 42.848275], [-97.536362, 42.849563], [-97.531867, 42.850105], [-97.526571, 42.85115], [-97.522371, 42.851979], [-97.515948, 42.853752], [-97.512073, 42.855166], [-97.50813, 42.857385], [-97.504847, 42.858477], [-97.500341, 42.85722], [-97.499088, 42.855197], [-97.49623, 42.853231], [-97.49149, 42.851625], [-97.48701, 42.850582], [-97.484064, 42.85028], [-97.482288, 42.850264], [-97.472989, 42.85051], [-97.468168, 42.850184], [-97.461666, 42.849176], [-97.458772, 42.848322], [-97.456383, 42.846937], [-97.452177, 42.846048], [-97.449565, 42.845807], [-97.444905, 42.845932], [-97.442279, 42.846224], [-97.439114, 42.84711], [-97.433455, 42.850393], [-97.428051, 42.854942], [-97.425543, 42.856658], [-97.425087, 42.858221], [-97.42319, 42.861168], [-97.420105, 42.863737], [-97.417066, 42.865918], [-97.415255, 42.866787], [-97.410847, 42.867984], [-97.406155, 42.868291], [-97.403569, 42.867327], [-97.399303, 42.864835], [-97.397477, 42.864635], [-97.397335, 42.864619], [-97.393964, 42.86425], [-97.38794, 42.864387], [-97.385122, 42.864452], [-97.376695, 42.865195], [-97.375786, 42.863395], [-97.371385, 42.860132], [-97.368643, 42.858419], [-97.361784, 42.855123], [-97.359569, 42.854816], [-97.356485, 42.855], [-97.352131, 42.856012], [-97.347658, 42.855775], [-97.341181, 42.855882], [-97.336156, 42.856802], [-97.330749, 42.858406], [-97.328511, 42.859501], [-97.327178, 42.86079], [-97.324457, 42.861998], [-97.321529, 42.862803], [-97.316173, 42.863342], [-97.311118, 42.865786], [-97.309568, 42.866918], [-97.306677, 42.867604], [-97.304398, 42.866771], [-97.301453, 42.865202], [-97.300812, 42.864503], [-97.30024, 42.863807], [-97.294982, 42.859624], [-97.292273, 42.857177], [-97.289859, 42.855499], [-97.285792, 42.855037], [-97.282009, 42.854248], [-97.278607, 42.854232], [-97.272857, 42.852954], [-97.269225, 42.852602], [-97.266105, 42.852701], [-97.262654, 42.853284], [-97.257089, 42.853854], [-97.255747, 42.854158], [-97.253589, 42.854894], [-97.25033, 42.855612], [-97.248116, 42.855287], [-97.23699, 42.852846], [-97.231929, 42.851335], [-97.228582, 42.849698], [-97.226153, 42.848801], [-97.225028, 42.848296], [-97.221688, 42.847132], [-97.21905, 42.845961], [-97.218046, 42.845113], [-97.217411, 42.843519], [-97.217415, 42.839738], [-97.217964, 42.835303], [-97.218184, 42.831168], [-97.218071, 42.828754], [-97.21783, 42.827766], [-97.214476, 42.821761], [-97.213575, 42.818323], [-97.213291, 42.813945], [-97.212659, 42.812069], [-97.210126, 42.809296], [-97.207793, 42.80784], [-97.204726, 42.806505], [-97.200431, 42.805485], [-97.19425, 42.805425], [-97.1876, 42.804835], [-97.178488, 42.80323], [-97.175805, 42.803103], [-97.172083, 42.802925], [-97.169631, 42.802451], [-97.166978, 42.802087], [-97.163857, 42.801257], [-97.160353, 42.799701], [-97.155677, 42.797579], [-97.150763, 42.795566], [-97.150258, 42.794457], [-97.144595, 42.790113], [-97.143081, 42.788592], [-97.142151, 42.786697], [-97.139678, 42.784345], [-97.138216, 42.783428], [-97.137028, 42.780963], [-97.137101, 42.778932], [-97.135724, 42.776999], [-97.134461, 42.774494], [-97.132034, 42.772351], [-97.130257, 42.771541], [-97.123241, 42.770805], [-97.120995, 42.770404], [-97.115508, 42.769344], [-97.112646, 42.769129], [-97.109984, 42.769707], [-97.104038, 42.769855], [-97.097588, 42.769442], [-97.09535, 42.769362], [-97.085178, 42.77009], [-97.079356, 42.771406], [-97.071849, 42.772305], [-97.065592, 42.772189], [-97.05496, 42.770664], [-97.052519, 42.770246], [-97.045357, 42.768356], [-97.041679, 42.767968], [-97.037903, 42.766724], [-97.033925, 42.766098], [-97.032301, 42.765416], [-97.030189, 42.763712], [-97.02839, 42.763043], [-97.0198, 42.761802], [-97.016886, 42.761454], [-97.009782, 42.760797], [-97.0029, 42.760319], [-96.999796, 42.760176], [-96.997515, 42.759903], [-96.99282, 42.759481], [-96.99007, 42.759537], [-96.985872, 42.760252], [-96.983181, 42.760599], [-96.9797, 42.760241], [-96.975339, 42.758321], [-96.968566, 42.753847], [-96.961752, 42.741682], [-96.960866, 42.739089], [-96.961291, 42.736569], [-96.965186, 42.728994], [-96.965833, 42.727096], [-96.965679, 42.724532], [-96.964776, 42.722455], [-96.963531, 42.720643], [-96.961576, 42.719841], [-96.955862, 42.719178], [-96.948902, 42.719465], [-96.946548, 42.719131], [-96.942432, 42.719578], [-96.937589, 42.719597], [-96.935708, 42.720603], [-96.933454, 42.723806], [-96.928723, 42.725539], [-96.92668, 42.727093], [-96.92347, 42.728686], [-96.918282, 42.731852], [-96.907922, 42.733857], [-96.90476, 42.732989], [-96.899588, 42.73066], [-96.889742, 42.726172], [-96.888644, 42.725812], [-96.886472, 42.725134], [-96.885063, 42.724799], [-96.879908, 42.724452], [-96.876853, 42.724439], [-96.872789, 42.724096], [-96.868571, 42.723026], [-96.864807, 42.722032], [-96.860436, 42.720797], [-96.855884, 42.718515], [-96.849956, 42.715034], [-96.843797, 42.71219], [-96.833576, 42.709399], [-96.829554, 42.708441], [-96.82417, 42.708177], [-96.822358, 42.707893], [-96.819912, 42.707783], [-96.819452, 42.707774], [-96.818764, 42.707624], [-96.818542, 42.707576], [-96.817916, 42.707439], [-96.815142, 42.706832], [-96.813148, 42.706397], [-96.806213, 42.704154], [-96.801616, 42.698776], [-96.801617, 42.696792], [-96.800483, 42.692464], [-96.800383, 42.689656], [-96.800315, 42.683602], [-96.801907, 42.673881], [-96.802071, 42.672882], [-96.802177, 42.672235], [-96.800837, 42.669661], [-96.799622, 42.668841], [-96.797729, 42.667787], [-96.793235, 42.666021], [-96.776782, 42.662716], [-96.772874, 42.662237], [-96.764061, 42.661983], [-96.751235, 42.664362], [-96.749812, 42.665411], [-96.746948, 42.666222], [-96.735211, 42.667168], [-96.728027, 42.66688], [-96.723861, 42.665826], [-96.722936, 42.665584], [-96.722111, 42.665375], [-96.710248, 42.662353], [-96.703199, 42.660557], [-96.701675, 42.660169], [-96.697639, 42.659141], [-96.691268, 42.656198], [-96.687421, 42.652694], [-96.68708, 42.652093], [-96.68705, 42.651391], [-96.687047, 42.651317], [-96.687022, 42.650757], [-96.687057, 42.649427], [-96.68737, 42.647958], [-96.687447, 42.647602], [-96.688492, 42.64495], [-96.689079, 42.644078], [-96.692596, 42.642038], [-96.694291, 42.640271], [-96.696853, 42.637594], [-96.702921, 42.630459], [-96.706876, 42.625805], [-96.70729, 42.625318], [-96.709487, 42.621931], [-96.710557, 42.619257], [-96.711402, 42.616372], [-96.711548, 42.614759], [-96.710998, 42.608129], [-96.709824, 42.6051], [-96.707926, 42.601553], [-96.706232, 42.599222], [-96.702696, 42.596133], [-96.698865, 42.592448], [-96.697171, 42.590335], [-96.687005, 42.579225], [-96.684059, 42.576462], [-96.681112, 42.574402], [-96.675949, 42.571601], [-96.658752, 42.566424], [-96.650188, 42.561938], [-96.648063, 42.560824], [-96.643585, 42.557607], [-96.63803, 42.551959], [-96.63533, 42.54764], [-96.633333, 42.540248], [-96.633343, 42.533092], [-96.632794, 42.528698], [-96.631492, 42.524318], [-96.629267, 42.519377], [-96.628181, 42.516964], [-96.625961, 42.513578], [-96.612469, 42.506594], [-96.608886, 42.505217], [-96.606246, 42.504846], [-96.60347, 42.50446], [-96.595992, 42.504618], [-96.591118, 42.505407], [-96.58435, 42.507836], [-96.572509, 42.515735], [-96.567893, 42.517875], [-96.557776, 42.52038], [-96.548789, 42.520547], [-96.53799, 42.518129], [-96.531579, 42.515143], [-96.528778, 42.513267], [-96.525088, 42.510183], [-96.520628, 42.504693], [-96.518744, 42.500804], [-96.517549, 42.496875], [-96.515837, 42.494223], [-96.508587, 42.486698], [-96.50595, 42.484888], [-96.501319, 42.482749], [-96.489494, 42.480109], [-96.479951, 42.479686], [-96.475578, 42.480198], [-96.465294, 42.483919], [-96.459753, 42.486921], [-96.456111, 42.488128], [-96.451044, 42.489441], [-96.445483, 42.49063], [-96.447918, 42.490442], [-96.455424, 42.492498], [-96.45767, 42.492371], [-96.462251, 42.49073], [-96.464466, 42.490491], [-96.469696, 42.491351], [-96.470047, 42.490051], [-96.471505, 42.489268], [-96.473496, 42.489253], [-96.476369, 42.490043], [-96.477186, 42.491011], [-96.477901, 42.494346], [-96.477498, 42.495213], [-96.477444, 42.49547], [-96.476913, 42.497879], [-96.474745, 42.501095], [-96.474136, 42.503288], [-96.473334, 42.503536], [-96.476048, 42.507783], [-96.477468, 42.509613], [-96.479023, 42.510843], [-96.484379, 42.510312], [-96.4866, 42.510739], [-96.488971, 42.511761], [-96.492444, 42.514183], [-96.49357, 42.515626], [-96.493449, 42.518259], [-96.492869, 42.51906], [-96.490777, 42.520239], [-96.490598, 42.520404], [-96.479949, 42.524246], [-96.479041, 42.526515], [-96.479813, 42.529601], [-96.477707, 42.535596], [-96.477409, 42.539888], [-96.476733, 42.545383], [-96.476952, 42.546696], [-96.47696, 42.555972], [-96.481281, 42.556744], [-96.486326, 42.556961], [-96.490128, 42.556755], [-96.493098, 42.556354], [-96.49554, 42.55644], [-96.497265, 42.556981], [-96.498544, 42.558116], [-96.498997, 42.560832], [-96.486146, 42.573149], [-96.485742, 42.57407], [-96.486198, 42.575784], [-96.487748, 42.576365], [-96.491373, 42.577067], [-96.495002, 42.578853], [-96.496026, 42.580382], [-96.49597, 42.581774], [-96.494909, 42.583536], [-96.491492, 42.586103], [-96.49152, 42.587346], [-96.493599, 42.588141], [-96.500167, 42.588638], [-96.501466, 42.590161], [-96.501438, 42.59061], [-96.500234, 42.59273], [-96.500183, 42.594104], [-96.504653, 42.604998], [-96.509453, 42.612704], [-96.510015, 42.613211], [-96.511842, 42.614406], [-96.513557, 42.615469], [-96.515024, 42.616183], [-96.51658, 42.616598], [-96.517663, 42.616647], [-96.518747, 42.616448], [-96.519694, 42.616083], [-96.520371, 42.615502], [-96.521318, 42.614506], [-96.52204, 42.612995], [-96.522807, 42.612148], [-96.523755, 42.611252], [-96.525718, 42.609276], [-96.52653, 42.60901], [-96.527816, 42.608961], [-96.528876, 42.609425], [-96.529327, 42.609757], [-96.529937, 42.610471], [-96.530884, 42.612795], [-96.531335, 42.613642], [-96.531615, 42.615318], [-96.531312, 42.616647], [-96.53059, 42.617444], [-96.529914, 42.617859], [-96.529034, 42.61824], [-96.528131, 42.61844], [-96.527455, 42.61834], [-96.526259, 42.617925], [-96.523754, 42.617592], [-96.522581, 42.617576], [-96.521453, 42.617676], [-96.520709, 42.618024], [-96.519039, 42.618986], [-96.518114, 42.619816], [-96.516828, 42.621891], [-96.516426, 42.622789], [-96.516201, 42.623551], [-96.515551, 42.624983], [-96.515405, 42.626388], [-96.51514, 42.628228], [-96.515607, 42.629611], [-96.51684, 42.630975], [-96.519824, 42.633181], [-96.521532, 42.634832], [-96.524271, 42.634511], [-96.525458, 42.635598], [-96.52523, 42.637869], [-96.526414, 42.641213], [-96.527671, 42.641875], [-96.531067, 42.642398], [-96.533822, 42.643535], [-96.537472, 42.645951], [-96.538164, 42.647686], [-96.538026, 42.649032], [-96.53727, 42.652781], [-96.537976, 42.655976], [-96.541393, 42.660089], [-96.543482, 42.661433], [-96.546302, 42.661534], [-96.549608, 42.660571], [-96.554316, 42.658407], [-96.556542, 42.657768], [-96.558672, 42.657608], [-96.559919, 42.659025], [-96.559408, 42.660664], [-96.559823, 42.662834], [-96.559454, 42.663357], [-96.555776, 42.663924], [-96.556012, 42.664596], [-96.55853, 42.666866], [-96.560278, 42.669152], [-96.562334, 42.669966], [-96.564297, 42.671244], [-96.565504, 42.672709], [-96.566184, 42.675287], [-96.566964, 42.676417], [-96.56801, 42.676289], [-96.569895, 42.674679], [-96.570293, 42.672632], [-96.571112, 42.671167], [-96.57357, 42.670721], [-96.578024, 42.671636], [-96.578576, 42.672207], [-96.577344, 42.672916], [-96.575655, 42.673121], [-96.573926, 42.674017], [-96.572614, 42.675564], [-96.571944, 42.677161], [-96.572488, 42.678884], [-96.573975, 42.67872], [-96.575428, 42.677931], [-96.577921, 42.677632], [-96.578704, 42.678598], [-96.574972, 42.68073], [-96.574568, 42.681966], [-96.575295, 42.682823], [-96.576692, 42.683109], [-96.580292, 42.682848], [-96.585833, 42.683059], [-96.586425, 42.68381], [-96.585462, 42.685829], [-96.58553, 42.687141], [-96.586303, 42.688448], [-96.586342, 42.689794], [-96.589595, 42.690946], [-96.591592, 42.690759], [-96.591505, 42.688885], [-96.592295, 42.68716], [-96.594022, 42.68671], [-96.598884, 42.686667], [-96.600177, 42.687926], [-96.598877, 42.689031], [-96.596559, 42.688288], [-96.593936, 42.689133], [-96.593614, 42.689723], [-96.594542, 42.690834], [-96.596453, 42.691472], [-96.595922, 42.6928], [-96.594167, 42.693576], [-96.594336, 42.694579], [-96.596635, 42.695057], [-96.599154, 42.697156], [-96.599603, 42.698829], [-96.60113, 42.699114], [-96.602241, 42.697053], [-96.604523, 42.696708], [-96.60442, 42.695618], [-96.605875, 42.694624], [-96.610208, 42.69456], [-96.612056, 42.695512], [-96.61179, 42.696885], [-96.609624, 42.698425], [-96.607896, 42.697852], [-96.605692, 42.697897], [-96.604528, 42.698565], [-96.6048, 42.701189], [-96.605596, 42.70202], [-96.609436, 42.702421], [-96.610284, 42.702082], [-96.611698, 42.700152], [-96.612956, 42.699168], [-96.615148, 42.698433], [-96.615722, 42.700254], [-96.616601, 42.700523], [-96.619194, 42.699812], [-96.619761, 42.701827], [-96.620822, 42.702731], [-96.621642, 42.704963], [-96.623881, 42.707555], [-96.625305, 42.707129], [-96.625208, 42.704345], [-96.626843, 42.704058], [-96.628521, 42.705015], [-96.62992, 42.705255], [-96.630441, 42.706888], [-96.62917, 42.709148], [-96.627498, 42.709486], [-96.625977, 42.711063], [-96.62426, 42.714717], [-96.625042, 42.716095], [-96.628011, 42.717798], [-96.625352, 42.719821], [-96.624465, 42.721113], [-96.624596, 42.722485], [-96.625393, 42.723327], [-96.624691, 42.725626], [-96.627019, 42.725934], [-96.632425, 42.72479], [-96.633703, 42.724137], [-96.634812, 42.725598], [-96.634363, 42.726379], [-96.632517, 42.727136], [-96.632021, 42.728776], [-96.630677, 42.72935], [-96.630985, 42.730863], [-96.632587, 42.732209], [-96.636077, 42.732851], [-96.638348, 42.734654], [-96.638947, 42.735764], [-96.639467, 42.737034], [-96.638749, 42.737501], [-96.635024, 42.736543], [-96.632829, 42.735343], [-96.630839, 42.735122], [-96.630393, 42.73557], [-96.631073, 42.737054], [-96.632152, 42.737535], [-96.634809, 42.739847], [-96.635561, 42.740847], [-96.63542, 42.7421], [-96.633967, 42.742759], [-96.629712, 42.743452], [-96.62942, 42.744126], [-96.631911, 42.744789], [-96.631369, 42.746589], [-96.630236, 42.746916], [-96.629835, 42.748018], [-96.63042, 42.750207], [-96.629521, 42.750823], [-96.627532, 42.750657], [-96.62682, 42.75211], [-96.625626, 42.752951], [-96.623344, 42.752852], [-96.620306, 42.753499], [-96.619269, 42.754752], [-96.620005, 42.75588], [-96.620267, 42.757585], [-96.623023, 42.758365], [-96.624471, 42.757102], [-96.625601, 42.754433], [-96.626944, 42.754232], [-96.627515, 42.754892], [-96.627811, 42.756783], [-96.630012, 42.758525], [-96.630967, 42.760094], [-96.632784, 42.761786], [-96.635409, 42.763381], [-96.636493, 42.76486], [-96.634828, 42.765595], [-96.632892, 42.764989], [-96.631625, 42.765533], [-96.632335, 42.768041], [-96.633137, 42.768783], [-96.63474, 42.767955], [-96.636393, 42.768631], [-96.636382, 42.76974], [-96.635091, 42.770748], [-96.632812, 42.7713], [-96.631309, 42.76965], [-96.629652, 42.771815], [-96.627126, 42.771225], [-96.626073, 42.771801], [-96.627055, 42.77411], [-96.626985, 42.775302], [-96.625171, 42.776163], [-96.623071, 42.776202], [-96.621985, 42.77683], [-96.621544, 42.780337], [-96.619849, 42.783792], [-96.616148, 42.785066], [-96.615201, 42.784497], [-96.615467, 42.782815], [-96.61384, 42.782629], [-96.613264, 42.784216], [-96.61169, 42.784278], [-96.611046, 42.782858], [-96.609406, 42.782518], [-96.608979, 42.784011], [-96.607993, 42.784434], [-96.605008, 42.783009], [-96.603582, 42.78414], [-96.603678, 42.785996], [-96.602404, 42.788323], [-96.604943, 42.790286], [-96.605229, 42.791163], [-96.604155, 42.792224], [-96.602712, 42.792305], [-96.600765, 42.791746], [-96.597198, 42.791924], [-96.595343, 42.792788], [-96.595017, 42.793575], [-96.596596, 42.794586], [-96.59729, 42.796603], [-96.599378, 42.797489], [-96.599683, 42.798435], [-96.598945, 42.799631], [-96.597802, 42.799701], [-96.597317, 42.798213], [-96.595808, 42.797415], [-96.594919, 42.797588], [-96.593296, 42.799187], [-96.592353, 42.801272], [-96.593005, 42.802958], [-96.591196, 42.805451], [-96.590485, 42.808447], [-96.591968, 42.809846], [-96.595697, 42.810437], [-96.595126, 42.812822], [-96.595879, 42.814171], [-96.595617, 42.81539], [-96.59457, 42.815893], [-96.591632, 42.81527], [-96.590392, 42.815642], [-96.589587, 42.817913], [-96.588943, 42.818487], [-96.587581, 42.817839], [-96.586029, 42.8178], [-96.584109, 42.819005], [-96.584305, 42.82029], [-96.585793, 42.821456], [-96.586128, 42.822348], [-96.585808, 42.823776], [-96.583128, 42.824851], [-96.580598, 42.824865], [-96.577531, 42.828136], [-96.57783, 42.829067], [-96.579796, 42.830733], [-96.580581, 42.832772], [-96.581815, 42.833179], [-96.582391, 42.834282], [-96.582135, 42.835371], [-96.581378, 42.83781], [-96.580583, 42.838149], [-96.578459, 42.837907], [-96.578049, 42.837097], [-96.57931, 42.83629], [-96.579377, 42.834983], [-96.577682, 42.834792], [-96.575599, 42.835783], [-96.574424, 42.837978], [-96.572942, 42.837104], [-96.57145, 42.837065], [-96.569079, 42.837923], [-96.567948, 42.837397], [-96.568117, 42.836577], [-96.569737, 42.835135], [-96.56928, 42.83401], [-96.567255, 42.832592], [-96.564937, 42.829814], [-96.564324, 42.828375], [-96.563042, 42.8283], [-96.561487, 42.82968], [-96.562749, 42.830706], [-96.563019, 42.831785], [-96.562387, 42.833398], [-96.562809, 42.836422], [-96.561938, 42.837585], [-96.560976, 42.839106], [-96.558942, 42.83965], [-96.557818, 42.838984], [-96.556, 42.836538], [-96.552778, 42.835961], [-96.551568, 42.836202], [-96.550308, 42.837555], [-96.548598, 42.840891], [-96.552045, 42.841876], [-96.554287, 42.843925], [-96.55494, 42.847196], [-96.556036, 42.84877], [-96.555891, 42.84952], [-96.554554, 42.849588], [-96.552809, 42.848238], [-96.550537, 42.847574], [-96.549541, 42.848655], [-96.550558, 42.850098], [-96.548777, 42.851211], [-96.547091, 42.849715], [-96.544831, 42.850193], [-96.542688, 42.854038], [-96.541142, 42.858167], [-96.542234, 42.859631], [-96.54302, 42.859561], [-96.543768, 42.858049], [-96.545212, 42.857081], [-96.546819, 42.857436], [-96.546948, 42.859129], [-96.546035, 42.860916], [-96.546575, 42.861512], [-96.548986, 42.861708], [-96.550206, 42.862824], [-96.549801, 42.864172], [-96.547243, 42.863534], [-96.546616, 42.863811], [-96.546005, 42.866291], [-96.546405, 42.867826], [-96.549623, 42.869565], [-96.546561, 42.874524], [-96.544918, 42.874468], [-96.543219, 42.875083], [-96.540484, 42.877485], [-96.53767, 42.878462], [-96.537837, 42.879104], [-96.540613, 42.881745], [-96.543258, 42.88287], [-96.543095, 42.8842], [-96.540627, 42.885007], [-96.537695, 42.886748], [-96.538144, 42.887668], [-96.539715, 42.888228], [-96.540376, 42.889449], [-96.539223, 42.889921], [-96.536887, 42.889381], [-96.534598, 42.890582], [-96.527163, 42.890628], [-96.525435, 42.891424], [-96.525739, 42.892774], [-96.529011, 42.893578], [-96.530104, 42.895835], [-96.528349, 42.896995], [-96.528536, 42.897666], [-96.533458, 42.89996], [-96.53637, 42.90088], [-96.539017, 42.899803], [-96.540054, 42.900359], [-96.541478, 42.902594], [-96.54293, 42.903756], [-96.542416, 42.905054], [-96.539406, 42.904537], [-96.537727, 42.904802], [-96.536467, 42.905643], [-96.538573, 42.907805], [-96.538458, 42.908771], [-96.53797, 42.911098], [-96.539909, 42.91166], [-96.5401, 42.912318], [-96.538943, 42.915306], [-96.538055, 42.916532], [-96.538087, 42.917982], [-96.541164, 42.919406], [-96.541705, 42.922498], [-96.540812, 42.924843], [-96.539926, 42.925066], [-96.536409, 42.923106], [-96.534106, 42.92371], [-96.532981, 42.92465], [-96.534592, 42.92698], [-96.533761, 42.928492], [-96.528843, 42.933391], [-96.526437, 42.935078], [-96.524458, 42.935798], [-96.522854, 42.935694], [-96.521373, 42.93488], [-96.519884, 42.932011], [-96.518312, 42.931762], [-96.51647, 42.93281], [-96.516819, 42.93586], [-96.519179, 42.937159], [-96.520164, 42.938924], [-96.519345, 42.94053], [-96.514857, 42.943531], [-96.513924, 42.94493], [-96.511312, 42.944391], [-96.509138, 42.945417], [-96.509187, 42.94672], [-96.508047, 42.947924], [-96.507962, 42.948962], [-96.509317, 42.952413], [-96.508886, 42.953742], [-96.504853, 42.954514], [-96.503646, 42.956407], [-96.502357, 42.957216], [-96.498982, 42.957769], [-96.499283, 42.958745], [-96.501324, 42.96009], [-96.501968, 42.961269], [-96.502367, 42.966084], [-96.503005, 42.968279], [-96.50516, 42.971095], [-96.511368, 42.971514], [-96.515992, 42.972988], [-96.517301, 42.975717], [-96.51958, 42.97698], [-96.52082, 42.979923], [-96.520431, 42.980652], [-96.518326, 42.980085], [-96.517199, 42.980556], [-96.5167, 42.981898], [-96.518897, 42.983895], [-96.518502, 42.985086], [-96.517672, 42.985282], [-96.515342, 42.984141], [-96.51243, 42.985596], [-96.51185, 42.987191], [-96.512355, 42.988874], [-96.511244, 42.990551], [-96.512857, 42.991627], [-96.512732, 42.992189], [-96.510564, 42.994585], [-96.507373, 42.996604], [-96.504246, 42.996804], [-96.501161, 42.997679], [-96.498436, 42.998081], [-96.497359, 42.998276], [-96.496571, 43.000632], [-96.494876, 43.001279], [-96.494416, 43.002084], [-96.494446, 43.003998], [-96.492811, 43.00565], [-96.492206, 43.007814], [-96.491981, 43.010197], [-96.493497, 43.01154], [-96.494113, 43.013729], [-96.495639, 43.015841], [-96.496526, 43.016288], [-96.498535, 43.016075], [-96.499532, 43.016548], [-96.498759, 43.018027], [-96.499619, 43.019403], [-96.501995, 43.019681], [-96.50451, 43.020781], [-96.506188, 43.022323], [-96.510209, 43.024229], [-96.512435, 43.026865], [-96.513952, 43.030075], [-96.513467, 43.030955], [-96.510666, 43.032036], [-96.509138, 43.036763], [-96.509333, 43.037962], [-96.512222, 43.040486], [-96.514052, 43.040105], [-96.516307, 43.038956], [-96.519511, 43.037856], [-96.521087, 43.037846], [-96.521519, 43.038781], [-96.520887, 43.040138], [-96.518393, 43.040105], [-96.515759, 43.041383], [-96.514636, 43.040943], [-96.512521, 43.04108], [-96.514325, 43.043338], [-96.514818, 43.044495], [-96.513681, 43.04703], [-96.510851, 43.04977], [-96.50881, 43.050183], [-96.506355, 43.049138], [-96.504363, 43.048735], [-96.500493, 43.048927], [-96.499241, 43.050045], [-96.494868, 43.050395], [-96.492032, 43.050621], [-96.489341, 43.05143], [-96.488861, 43.052014], [-96.488727, 43.054165], [-96.486967, 43.055779], [-96.485232, 43.056725], [-96.483872, 43.058134], [-96.481392, 43.0598], [-96.478548, 43.061124], [-96.47674, 43.062697], [-96.473048, 43.063717], [-96.470641, 43.062391], [-96.467345, 43.06196], [-96.463836, 43.062909], [-96.460742, 43.064337], [-96.460522, 43.066354], [-96.458577, 43.067177], [-96.458234, 43.068056], [-96.459337, 43.069904], [-96.457627, 43.070766], [-96.457107, 43.072583], [-96.455903, 43.073614], [-96.455324, 43.075469], [-96.455718, 43.077702], [-96.455798, 43.080845], [-96.45413, 43.08338], [-96.454401, 43.086152], [-96.455432, 43.088258], [-96.457893, 43.088933], [-96.462672, 43.089662], [-96.463168, 43.090096], [-96.462243, 43.093016], [-96.460729, 43.094887], [-96.459706, 43.095466], [-96.457762, 43.095523], [-96.456777, 43.096048], [-96.457023, 43.097647], [-96.454063, 43.097331], [-96.452311, 43.098542], [-96.453115, 43.099195], [-96.452462, 43.100771], [-96.450346, 43.100908], [-96.45037, 43.103906], [-96.448506, 43.104433], [-96.44697, 43.105546], [-96.447452, 43.106454], [-96.446374, 43.109542], [-96.443784, 43.110745], [-96.439832, 43.113423], [-96.438959, 43.1147], [-96.438492, 43.117215], [-96.436567, 43.119818], [-96.437031, 43.121305], [-96.439864, 43.122194], [-96.441581, 43.124496], [-96.441646, 43.12534], [-96.440122, 43.127391], [-96.440939, 43.128918], [-96.44276, 43.128615], [-96.443242, 43.131364], [-96.443236, 43.133756], [-96.445875, 43.136658], [-96.446939, 43.136006], [-96.448356, 43.136044], [-96.448389, 43.136973], [-96.447008, 43.137879], [-96.448823, 43.139864], [-96.450598, 43.142521], [-96.453698, 43.142532], [-96.455231, 43.144133], [-96.45639, 43.144196], [-96.458678, 43.143379], [-96.460824, 43.144177], [-96.4606, 43.146035], [-96.459208, 43.146557], [-96.459432, 43.147656], [-96.460858, 43.147973], [-96.461514, 43.149058], [-96.46305, 43.148634], [-96.463, 43.147701], [-96.465357, 43.147712], [-96.46554, 43.149242], [-96.46829, 43.151552], [-96.46825, 43.152505], [-96.465896, 43.152253], [-96.464422, 43.153311], [-96.463968, 43.156199], [-96.466723, 43.156236], [-96.467737, 43.15737], [-96.469556, 43.158353], [-96.467019, 43.159769], [-96.466025, 43.161877], [-96.467544, 43.163734], [-96.467053, 43.164795], [-96.466903, 43.168112], [-96.468743, 43.1687], [-96.468757, 43.170373], [-96.466018, 43.170734], [-96.465351, 43.172231], [-96.46683, 43.17438], [-96.465538, 43.176515], [-96.466375, 43.177748], [-96.464883, 43.180711], [-96.465247, 43.182916], [-96.4676, 43.184841], [-96.469125, 43.184704], [-96.469886, 43.185918], [-96.471668, 43.185397], [-96.472924, 43.186389], [-96.472363, 43.187158], [-96.473588, 43.188883], [-96.47407, 43.190309], [-96.473724, 43.192646], [-96.472148, 43.196023], [-96.472396, 43.197021], [-96.473977, 43.198685], [-96.474896, 43.202774], [-96.470744, 43.205179], [-96.471188, 43.206357], [-96.470811, 43.207543], [-96.471777, 43.207965], [-96.472117, 43.20925], [-96.47624, 43.212695], [-96.476525, 43.213535], [-96.475655, 43.214835], [-96.474962, 43.217431], [-96.475241, 43.220123], [-96.476729, 43.221987], [-96.479491, 43.222331], [-96.480499, 43.223108], [-96.482963, 43.223409], [-96.48504, 43.224061], [-96.487976, 43.223766], [-96.490323, 43.223293], [-96.491501, 43.223374], [-96.494189, 43.223266], [-96.496639, 43.223716], [-96.499956, 43.221072], [-96.501296, 43.220564], [-96.504706, 43.221705], [-96.506964, 43.22168], [-96.508841, 43.220469], [-96.508144, 43.217806], [-96.509342, 43.217224], [-96.512686, 43.218668], [-96.514588, 43.218782], [-96.51754, 43.217825], [-96.519649, 43.217778], [-96.521415, 43.218501], [-96.521451, 43.220276], [-96.526524, 43.224052], [-96.529363, 43.224296], [-96.532573, 43.226311], [-96.535823, 43.227606], [-96.537144, 43.22674], [-96.540119, 43.225655], [-96.5419, 43.226065], [-96.54548, 43.225973], [-96.548201, 43.226955], [-96.552038, 43.227065], [-96.555281, 43.226666], [-96.556445, 43.225928], [-96.556624, 43.22469], [-96.557888, 43.223288], [-96.559326, 43.222934], [-96.560708, 43.22521], [-96.563508, 43.227483], [-96.565207, 43.230281], [-96.568261, 43.231314], [-96.56939, 43.233356], [-96.569594, 43.234493], [-96.56896, 43.236764], [-96.56956, 43.23774], [-96.571165, 43.238197], [-96.571414, 43.239078], [-96.569864, 43.240181], [-96.568762, 43.241654], [-96.56567, 43.244201], [-96.564855, 43.244498], [-96.562031, 43.243725], [-96.56045, 43.243947], [-96.558669, 43.245479], [-96.554424, 43.246826], [-96.553054, 43.247513], [-96.549883, 43.246728], [-96.549109, 43.247093], [-96.549534, 43.248372], [-96.551038, 43.249603], [-96.552567, 43.251817], [-96.551855, 43.253222], [-96.552767, 43.25476], [-96.552497, 43.257384], [-96.553484, 43.259451], [-96.555541, 43.259901], [-96.556794, 43.259023], [-96.558852, 43.258957], [-96.561514, 43.25933], [-96.564823, 43.260227], [-96.566702, 43.261898], [-96.569859, 43.262794], [-96.571504, 43.264538], [-96.574333, 43.266232], [-96.575947, 43.267823], [-96.577708, 43.26839], [-96.581464, 43.268041], [-96.582601, 43.267566], [-96.58407, 43.26783], [-96.585341, 43.268869], [-96.58505, 43.270684], [-96.586291, 43.272445], [-96.586525, 43.273715], [-96.584194, 43.276501], [-96.58303, 43.275836], [-96.583171, 43.274605], [-96.581943, 43.274321], [-96.580846, 43.275007], [-96.580522, 43.276036], [-96.577754, 43.278373], [-96.577557, 43.279177], [-96.578319, 43.281456], [-96.578685, 43.284044], [-96.580753, 43.286071], [-96.581351, 43.288884], [-96.580261, 43.291217], [-96.579176, 43.292473], [-96.579543, 43.295739], [-96.581528, 43.295595], [-96.584891, 43.292968], [-96.587985, 43.292377], [-96.588899, 43.293425], [-96.588918, 43.293507], [-96.589274, 43.295265], [-96.588492, 43.296175], [-96.584869, 43.297015], [-96.582947, 43.298125], [-96.579966, 43.297968], [-96.577842, 43.298657], [-96.574542, 43.299064], [-96.57215, 43.298262], [-96.570786, 43.296324], [-96.567981, 43.295238], [-96.566168, 43.295935], [-96.56438, 43.294639], [-96.560879, 43.296087], [-96.554712, 43.296509], [-96.555396, 43.295481], [-96.554938, 43.294025], [-96.553082, 43.292835], [-96.550896, 43.293129], [-96.549452, 43.29436], [-96.547397, 43.294035], [-96.541156, 43.295392], [-96.540498, 43.2958], [-96.538764, 43.298544], [-96.537512, 43.298315], [-96.530691, 43.299713], [-96.530154, 43.300405], [-96.532222, 43.302546], [-96.531612, 43.304467], [-96.529407, 43.304933], [-96.527674, 43.304701], [-96.526909, 43.306284], [-96.528177, 43.3072], [-96.529138, 43.309111], [-96.527631, 43.309078], [-96.527382, 43.309726], [-96.525005, 43.310163], [-96.524104, 43.311029], [-96.524522, 43.312067], [-96.527127, 43.312888], [-96.528636, 43.314504], [-96.528674, 43.316566], [-96.527034, 43.315761], [-96.525824, 43.316899], [-96.525938, 43.319033], [-96.527695, 43.318632], [-96.529104, 43.318947], [-96.530939, 43.320638], [-96.52986, 43.321147], [-96.529009, 43.322472], [-96.528945, 43.324061], [-96.528848, 43.324337], [-96.531705, 43.326453], [-96.533189, 43.328714], [-96.531458, 43.331883], [-96.532491, 43.333573], [-96.53245, 43.334491], [-96.534429, 43.334878], [-96.535022, 43.336674], [-96.532102, 43.338657], [-96.531561, 43.339969], [-96.532828, 43.341778], [-96.531851, 43.3432], [-96.530383, 43.34191], [-96.528661, 43.342162], [-96.527621, 43.342897], [-96.52711, 43.344187], [-96.524376, 43.347134], [-96.524706, 43.348382], [-96.526308, 43.347745], [-96.527766, 43.348543], [-96.527004, 43.351528], [-96.525142, 43.353347], [-96.52722, 43.355286], [-96.52781, 43.357066], [-96.5272, 43.358642], [-96.527569, 43.362556], [-96.529143, 43.362413], [-96.529439, 43.364283], [-96.530907, 43.365997], [-96.530961, 43.368433], [-96.529944, 43.369253], [-96.528715, 43.369298], [-96.52765, 43.368127], [-96.526718, 43.368147], [-96.524762, 43.369859], [-96.525468, 43.370996], [-96.525138, 43.372281], [-96.524298, 43.372651], [-96.523125, 43.371738], [-96.522163, 43.372013], [-96.522155, 43.373333], [-96.521349, 43.375696], [-96.523367, 43.377687], [-96.524405, 43.379175], [-96.524309, 43.380213], [-96.522334, 43.380951], [-96.524459, 43.381825], [-96.524504, 43.382617], [-96.522517, 43.383867], [-96.521671, 43.385762], [-96.522583, 43.388926], [-96.523124, 43.389295], [-96.524434, 43.391231], [-96.524005, 43.393212], [-96.524218, 43.394698], [-96.525242, 43.396072], [-96.52924, 43.397589], [-96.530195, 43.397238], [-96.530015, 43.396157], [-96.531362, 43.395311], [-96.536157, 43.394777], [-96.537459, 43.394909], [-96.539527, 43.397049], [-96.541764, 43.397344], [-96.542765, 43.396019], [-96.544429, 43.396189], [-96.545595, 43.397436], [-96.544881, 43.400007], [-96.546588, 43.400984], [-96.548781, 43.403892], [-96.551985, 43.403756], [-96.554241, 43.404455], [-96.554458, 43.406106], [-96.556978, 43.406062], [-96.55799, 43.40778], [-96.559627, 43.409421], [-96.55963, 43.410741], [-96.560439, 43.412462], [-96.564051, 43.412828], [-96.565046, 43.413398], [-96.567046, 43.416046], [-96.568258, 43.416903], [-96.571494, 43.417956], [-96.573726, 43.419185], [-96.572803, 43.420099], [-96.57237, 43.421538], [-96.570891, 43.423551], [-96.569766, 43.426799], [-96.570512, 43.42869], [-96.573624, 43.43002], [-96.57433, 43.43112], [-96.57615, 43.431882], [-96.577348, 43.431678], [-96.583216, 43.432065], [-96.584903, 43.431595], [-96.585886, 43.432128], [-96.587703, 43.431464], [-96.589544, 43.432202], [-96.593141, 43.433045], [-96.594375, 43.434887], [-96.593574, 43.436654], [-96.594687, 43.437758], [-96.596046, 43.43801], [-96.596456, 43.439473], [-96.597414, 43.440479], [-96.596363, 43.441304], [-96.596392, 43.442156], [-96.598422, 43.44189], [-96.599659, 43.442888], [-96.598943, 43.444441], [-96.599494, 43.44555], [-96.600355, 43.446027], [-96.601366, 43.447978], [-96.602547, 43.449249], [-96.60254, 43.450887], [-96.601073, 43.449972], [-96.600017, 43.450577], [-96.599606, 43.452233], [-96.600452, 43.453105], [-96.601238, 43.454619], [-96.600148, 43.45692], [-96.59814, 43.45695], [-96.597268, 43.458438], [-96.59463, 43.458393], [-96.59358, 43.459163], [-96.593727, 43.46081], [-96.594735, 43.461692], [-96.594133, 43.462646], [-96.591106, 43.462675], [-96.590035, 43.463735], [-96.589872, 43.465911], [-96.588836, 43.466694], [-96.588423, 43.464871], [-96.587008, 43.464502], [-96.585259, 43.465002], [-96.582402, 43.466739], [-96.585083, 43.47013], [-96.585319, 43.471257], [-96.583639, 43.474399], [-96.584409, 43.475762], [-96.58672, 43.477357], [-96.58652, 43.478528], [-96.58118, 43.481149], [-96.581661, 43.482391], [-96.582667, 43.483444], [-96.583837, 43.483163], [-96.586002, 43.483433], [-96.587261, 43.484853], [-96.586242, 43.486161], [-96.586995, 43.487262], [-96.58505, 43.488187], [-96.584858, 43.489689], [-96.586741, 43.491388], [-96.589965, 43.491864], [-96.589784, 43.493649], [-96.590783, 43.494453], [-96.592378, 43.494209], [-96.594213, 43.493147], [-96.595126, 43.49319], [-96.59803, 43.494541], [-96.599452, 43.496104], [-96.598874, 43.498508], [-96.599191, 43.500456], [-96.599137, 43.500456], [-96.591423, 43.500455], [-96.551572, 43.500422], [-96.546368, 43.500413], [-96.53167, 43.500421], [-96.511725, 43.500395], [-96.508257, 43.500407], [-96.491748, 43.500389], [-96.478777, 43.500395], [-96.47187, 43.500393], [-96.45326, 43.50039], [-96.4533, 43.51493], [-96.45334, 43.5295], [-96.45339, 43.54405], [-96.45337, 43.55863], [-96.45339, 43.57318], [-96.45338, 43.575139], [-96.453393, 43.579943], [-96.453397, 43.581461], [-96.4534, 43.58268], [-96.45344, 43.58746], [-96.453365, 43.587725], [-96.453435, 43.593796], [-96.45344, 43.60197], [-96.45347, 43.6089], [-96.45347, 43.60911], [-96.4534, 43.6168], [-96.453403, 43.622561], [-96.45342, 43.63132], [-96.45345, 43.64593], [-96.45341, 43.66044], [-96.45347, 43.67496], [-96.4534, 43.68953], [-96.45336, 43.70408], [-96.45334, 43.71862], [-96.45337, 43.7332], [-96.45335, 43.74779], [-96.4533, 43.76217], [-96.453299, 43.762192], [-96.453287, 43.762535], [-96.453279, 43.762598], [-96.453278, 43.762692], [-96.453278, 43.762741], [-96.453283, 43.762791], [-96.453255, 43.767207], [-96.45328, 43.77682], [-96.4532, 43.79135], [-96.453093, 43.804354], [-96.453088, 43.805123], [-96.452873, 43.820443], [-96.452858, 43.826607], [-96.45301, 43.83497], [-96.452988, 43.849507], [-96.453289, 43.854706], [-96.453205, 43.861421], [-96.45332, 43.877085], [-96.453339, 43.891228], [-96.453533, 43.906408], [-96.453379, 43.913514], [-96.453396, 43.920319], [-96.453415, 43.934597], [-96.453321, 43.935293], [-96.453307, 43.949083], [-96.453218, 43.963564], [-96.45341, 43.967166], [-96.453318, 43.970215], [-96.453248, 43.992734], [-96.453085, 44.000975], [-96.453291, 44.007042], [-96.453172, 44.014395], [-96.453331, 44.021854], [-96.453404, 44.025431], [-96.453301, 44.03655], [-96.453143, 44.045213], [-96.453116, 44.065638], [-96.453144, 44.08199], [-96.453159, 44.093851], [-96.453031, 44.111182], [-96.452958, 44.125687], [-96.45293, 44.14021], [-96.452843, 44.154139], [-96.452767, 44.15475], [-96.452766, 44.169326], [-96.452706, 44.183779], [-96.452773, 44.19678]]]]}}]}