{"type": "FeatureCollection", "features": [{"type": "Feature", "properties": {"id": 1, "NAME": "1", "text-color": "#000000", "text-size": 16, "TotalPop": 643077, "PopDevPct": 0, "DemPct": 0.63827005, "RepPct": 0.32319407, "WhitePct": 0.90402721, "MinorityPct": 0.09597279, "BlackPct": 0.01723224, "HispanicPct": 0.02118853, "PacificPct": 0.00098764, "AsianPct": 0.02224099, "NativePct": 0.0243669, "TotalVAP": 524482, "Margin": 0.13827005, "color": "#e10000", "opacity": "0.5", "year": 2022, "state": "VT", "state-district": "VT-01"}, "geometry": {"type": "MultiPolygon", "coordinates": [[[[-73.371711, 44.675161], [-73.371105, 44.673689], [-73.3713, 44.67186], [-73.372686, 44.668989], [-73.372547, 44.668184], [-73.370064, 44.666071], [-73.369668, 44.663478], [-73.370589, 44.662518], [-73.373062, 44.662713], [-73.374133, 44.66234], [-73.37594, 44.660244], [-73.377209, 44.658142], [-73.379073, 44.656772], [-73.378967, 44.65518], [-73.378013, 44.653846], [-73.378317, 44.652165], [-73.381148, 44.649002], [-73.383974, 44.647605], [-73.384483, 44.646683], [-73.383564, 44.646142], [-73.378881, 44.641872], [-73.378907, 44.640958], [-73.380976, 44.639639], [-73.385811, 44.637202], [-73.387169, 44.635543], [-73.386112, 44.632298], [-73.38591, 44.630255], [-73.387346, 44.623673], [-73.389966, 44.619621], [-73.38982, 44.617211], [-73.387141, 44.615032], [-73.383842, 44.613033], [-73.382393, 44.611346], [-73.381619, 44.607221], [-73.379576, 44.603063], [-73.376849, 44.599599], [-73.376332, 44.597219], [-73.376806, 44.595456], [-73.377897, 44.593849], [-73.381, 44.591334], [-73.381849, 44.589316], [-73.377795, 44.585128], [-73.375667, 44.582038], [-73.37523, 44.580204], [-73.375308, 44.577546], [-73.37495, 44.575817], [-73.370301, 44.572013], [-73.367343, 44.567605], [-73.362694, 44.564137], [-73.361455, 44.563563], [-73.360088, 44.562547], [-73.356789, 44.557919], [-73.355187, 44.556919], [-73.351371, 44.556011], [-73.342933, 44.551907], [-73.338752, 44.548046], [-73.338609, 44.546132], [-73.33931, 44.543935], [-73.338806, 44.542926], [-73.335723, 44.540223], [-73.332519, 44.537082], [-73.33091, 44.534269], [-73.3308, 44.531713], [-73.329166, 44.528892], [-73.327812, 44.528222], [-73.324852, 44.527507], [-73.323273, 44.526697], [-73.321702, 44.524395], [-73.321673, 44.521185], [-73.321214, 44.52032], [-73.321427, 44.516454], [-73.320846, 44.51363], [-73.319747, 44.512339], [-73.316662, 44.510372], [-73.312874, 44.507244], [-73.308603, 44.502767], [-73.306713, 44.500335], [-73.305384, 44.494933], [-73.304869, 44.49153], [-73.30484, 44.489318], [-73.304107, 44.484585], [-73.300658, 44.478559], [-73.299896, 44.476651], [-73.298706, 44.469617], [-73.298706, 44.464453], [-73.300201, 44.455551], [-73.29948, 44.453009], [-73.296627, 44.448553], [-73.295225, 44.445883], [-73.293969, 44.442579], [-73.293594, 44.440232], [-73.293751, 44.438163], [-73.296052, 44.428334], [-73.301164, 44.419698], [-73.309599, 44.404505], [-73.310505, 44.402601], [-73.31179, 44.397867], [-73.312441, 44.394706], [-73.31504, 44.388526], [-73.317066, 44.385991], [-73.322563, 44.381551], [-73.330396, 44.376], [-73.333613, 44.3723], [-73.33495, 44.36444], [-73.334648, 44.356879], [-73.330255, 44.349824], [-73.326982, 44.343362], [-73.32515, 44.338528], [-73.324021, 44.333835], [-73.323828, 44.325165], [-73.324526, 44.319246], [-73.324195, 44.310033], [-73.322216, 44.301542], [-73.320124, 44.295909], [-73.316767, 44.287728], [-73.31221, 44.280069], [-73.310914, 44.274298], [-73.312741, 44.265411], [-73.313283, 44.26413], [-73.316427, 44.257737], [-73.319603, 44.249909], [-73.322479, 44.248733], [-73.323364, 44.24691], [-73.323174, 44.245061], [-73.324653, 44.243517], [-73.330375, 44.244312], [-73.332389, 44.242982], [-73.335213, 44.240475], [-73.339119, 44.238893], [-73.343376, 44.23819], [-73.343567, 44.23722], [-73.342636, 44.235334], [-73.343941, 44.233697], [-73.34951, 44.230905], [-73.350479, 44.229893], [-73.351379, 44.22598], [-73.355377, 44.223157], [-73.35566, 44.220055], [-73.357826, 44.217331], [-73.358177, 44.216355], [-73.359741, 44.214694], [-73.36164, 44.213354], [-73.36222, 44.212461], [-73.361847, 44.209421], [-73.363393, 44.207737], [-73.36866, 44.205729], [-73.370865, 44.204527], [-73.373739, 44.200964], [-73.374802, 44.200243], [-73.377876, 44.199567], [-73.381935, 44.197734], [-73.383392, 44.195936], [-73.383759, 44.194032], [-73.385925, 44.192766], [-73.388893, 44.192619], [-73.390625, 44.191068], [-73.390907, 44.18811], [-73.389984, 44.183771], [-73.389824, 44.181757], [-73.390228, 44.180331], [-73.391907, 44.178428], [-73.394653, 44.177377], [-73.396065, 44.175776], [-73.397171, 44.173838], [-73.397492, 44.170912], [-73.396007, 44.168232], [-73.395813, 44.166266], [-73.396759, 44.164514], [-73.398857, 44.161915], [-73.3993, 44.158653], [-73.400291, 44.154363], [-73.400933, 44.152698], [-73.402397, 44.151539], [-73.402877, 44.150483], [-73.402146, 44.14806], [-73.403045, 44.144984], [-73.408127, 44.139897], [-73.411972, 44.13778], [-73.415649, 44.133451], [-73.416138, 44.132355], [-73.414162, 44.128159], [-73.414049, 44.124082], [-73.412496, 44.121275], [-73.412027, 44.119631], [-73.411225, 44.113767], [-73.412044, 44.110641], [-73.413933, 44.107845], [-73.414589, 44.105243], [-73.415215, 44.101344], [-73.418579, 44.096637], [-73.423248, 44.08895], [-73.429215, 44.079831], [-73.430038, 44.077195], [-73.430234, 44.071941], [-73.431122, 44.067766], [-73.43235, 44.063956], [-73.432541, 44.062329], [-73.434654, 44.0553], [-73.436196, 44.050774], [-73.43721, 44.048438], [-73.437905, 44.045125], [-73.4375, 44.04346], [-73.43571, 44.04188], [-73.426899, 44.036692], [-73.42509, 44.034376], [-73.423249, 44.032822], [-73.421483, 44.031862], [-73.416691, 44.03038], [-73.414059, 44.029309], [-73.410385, 44.026503], [-73.407645, 44.021111], [-73.407395, 44.020206], [-73.406121, 44.016371], [-73.405838, 44.014071], [-73.406009, 44.011417], [-73.407166, 44.00695], [-73.407544, 44.004363], [-73.408805, 44.000679], [-73.409057, 43.996012], [-73.410408, 43.991851], [-73.411177, 43.986292], [-73.412048, 43.984388], [-73.41251, 43.982216], [-73.412048, 43.977604], [-73.409736, 43.973617], [-73.407069, 43.968172], [-73.406469, 43.962972], [-73.406448, 43.959582], [-73.405736, 43.955932], [-73.405511, 43.949726], [-73.405646, 43.948069], [-73.407448, 43.94248], [-73.408554, 43.93731], [-73.408859, 43.934505], [-73.408111, 43.930444], [-73.407134, 43.928186], [-73.402364, 43.919906], [-73.401194, 43.917008], [-73.39962, 43.91219], [-73.397956, 43.908508], [-73.396179, 43.903264], [-73.383694, 43.891284], [-73.374494, 43.876956], [-73.3741, 43.875304], [-73.376554, 43.869607], [-73.379089, 43.865187], [-73.380191, 43.861975], [-73.381248, 43.860018], [-73.382186, 43.857019], [-73.382004, 43.854113], [-73.380249, 43.851923], [-73.373627, 43.847521], [-73.372589, 43.845354], [-73.373711, 43.842966], [-73.375572, 43.840544], [-73.377793, 43.838716], [-73.381325, 43.83742], [-73.385002, 43.835343], [-73.388192, 43.832655], [-73.389297, 43.831235], [-73.391586, 43.826531], [-73.392799, 43.822771], [-73.392174, 43.820471], [-73.391014, 43.818411], [-73.389565, 43.81704], [-73.385666, 43.814806], [-73.382057, 43.812216], [-73.379601, 43.809201], [-73.377891, 43.804882], [-73.376793, 43.799158], [-73.370995, 43.795132], [-73.366928, 43.792669], [-73.364059, 43.791215], [-73.362213, 43.789955], [-73.358154, 43.786475], [-73.357521, 43.785557], [-73.355362, 43.777927], [-73.354401, 43.776373], [-73.350998, 43.772434], [-73.351265, 43.769823], [-73.353287, 43.766957], [-73.354644, 43.764564], [-73.359466, 43.758087], [-73.360123, 43.756818], [-73.362823, 43.753084], [-73.365944, 43.749738], [-73.366883, 43.747661], [-73.369944, 43.743855], [-73.370331, 43.74223], [-73.370724, 43.73557], [-73.369916, 43.728789], [-73.370612, 43.725329], [-73.37456, 43.720975], [-73.377756, 43.717713], [-73.381485, 43.715186], [-73.385493, 43.711756], [-73.388167, 43.708509], [-73.388639, 43.706655], [-73.39179, 43.703481], [-73.392928, 43.701732], [-73.393723, 43.6992], [-73.396307, 43.696042], [-73.398332, 43.694625], [-73.401561, 43.693359], [-73.402901, 43.692495], [-73.404973, 43.689763], [-73.405243, 43.688368], [-73.404026, 43.686406], [-73.40351, 43.683977], [-73.404127, 43.68134], [-73.407008, 43.674624], [-73.407878, 43.672164], [-73.408062, 43.669438], [-73.409734, 43.66656], [-73.412108, 43.661659], [-73.413677, 43.659733], [-73.415093, 43.65671], [-73.415189, 43.653467], [-73.415847, 43.651887], [-73.418396, 43.648284], [-73.419385, 43.647487], [-73.423139, 43.645894], [-73.425217, 43.644291], [-73.426463, 43.642599], [-73.426911, 43.640671], [-73.428505, 43.636817], [-73.42791, 43.634428], [-73.419898, 43.625065], [-73.41832, 43.623325], [-73.417669, 43.621687], [-73.417828, 43.620586], [-73.423709, 43.612357], [-73.423816, 43.61099], [-73.422155, 43.606512], [-73.421616, 43.603023], [-73.422421, 43.601557], [-73.424977, 43.598775], [-73.426882, 43.595215], [-73.430325, 43.590532], [-73.431229, 43.588285], [-73.430948, 43.587036], [-73.428637, 43.583994], [-73.426664, 43.582975], [-73.422159, 43.58213], [-73.420384, 43.581495], [-73.416965, 43.577731], [-73.408057, 43.572862], [-73.40563, 43.571179], [-73.400296, 43.568889], [-73.398126, 43.568065], [-73.395768, 43.568087], [-73.395169, 43.569619], [-73.39312, 43.569601], [-73.391673, 43.57012], [-73.391447, 43.570454], [-73.391381, 43.571171], [-73.391913, 43.572534], [-73.391891, 43.572949], [-73.391427, 43.57361], [-73.390794, 43.574183], [-73.389741, 43.574683], [-73.389288, 43.574741], [-73.387311, 43.574668], [-73.386126, 43.574799], [-73.384935, 43.575114], [-73.384339, 43.575398], [-73.383888, 43.576064], [-73.383285, 43.5772], [-73.382711, 43.579196], [-73.383414, 43.58055], [-73.384496, 43.581553], [-73.385108, 43.582455], [-73.385251, 43.583263], [-73.384722, 43.583777], [-73.383426, 43.584728], [-73.382616, 43.585625], [-73.382425, 43.586062], [-73.382465, 43.586578], [-73.38293, 43.587076], [-73.38432, 43.587334], [-73.385153, 43.587702], [-73.386253, 43.588411], [-73.386792, 43.58896], [-73.387039, 43.589463], [-73.386901, 43.59077], [-73.386282, 43.591252], [-73.385351, 43.591499], [-73.383518, 43.591308], [-73.382414, 43.591577], [-73.382138, 43.591824], [-73.381773, 43.592487], [-73.381715, 43.592963], [-73.382281, 43.593862], [-73.382578, 43.594495], [-73.382728, 43.59545], [-73.383597, 43.596975], [-73.38349, 43.597366], [-73.382186, 43.598265], [-73.381601, 43.598488], [-73.3811, 43.598407], [-73.380271, 43.597905], [-73.379505, 43.597944], [-73.378777, 43.598152], [-73.37737, 43.598398], [-73.377229, 43.598962], [-73.377748, 43.599656], [-73.377748, 43.600067], [-73.377395, 43.600421], [-73.376672, 43.600791], [-73.374557, 43.602365], [-73.373443, 43.603292], [-73.372908, 43.603887], [-73.372469, 43.604848], [-73.372343, 43.605374], [-73.372375, 43.606014], [-73.373163, 43.607248], [-73.374066, 43.607979], [-73.376103, 43.608664], [-73.376354, 43.609099], [-73.375284, 43.609555], [-73.374558, 43.610173], [-73.374226, 43.610197], [-73.374242, 43.61086], [-73.374558, 43.610928], [-73.375754, 43.611796], [-73.376037, 43.612117], [-73.376037, 43.612597], [-73.375595, 43.613351], [-73.374558, 43.614678], [-73.372952, 43.616006], [-73.371097, 43.61811], [-73.369934, 43.619094], [-73.369871, 43.619712], [-73.370376, 43.620352], [-73.371636, 43.621403], [-73.372487, 43.622752], [-73.372456, 43.623666], [-73.372299, 43.624078], [-73.37189, 43.62449], [-73.371104, 43.624756], [-73.3689, 43.624711], [-73.368271, 43.624586], [-73.367168, 43.623623], [-73.366538, 43.623463], [-73.365563, 43.623441], [-73.363738, 43.623922], [-73.359741, 43.624472], [-73.359111, 43.624599], [-73.358594, 43.625066], [-73.358455, 43.625416], [-73.357291, 43.625906], [-73.354703, 43.626244], [-73.353907, 43.626131], [-73.353638, 43.625927], [-73.35261, 43.624085], [-73.352071, 43.623586], [-73.351232, 43.622502], [-73.350473, 43.621882], [-73.349496, 43.621497], [-73.348753, 43.621458], [-73.348218, 43.621709], [-73.347621, 43.62251], [-73.347275, 43.623584], [-73.346992, 43.624156], [-73.346082, 43.625066], [-73.345171, 43.625865], [-73.34451, 43.626277], [-73.342842, 43.626506], [-73.342181, 43.626071], [-73.341578, 43.624739], [-73.340068, 43.624647], [-73.338827, 43.625066], [-73.338026, 43.625442], [-73.337806, 43.626095], [-73.337365, 43.626324], [-73.336201, 43.626644], [-73.334218, 43.626919], [-73.334313, 43.62788], [-73.333683, 43.628017], [-73.333085, 43.627766], [-73.332078, 43.627171], [-73.33129, 43.626074], [-73.330692, 43.625937], [-73.327702, 43.625914], [-73.326537, 43.626166], [-73.325939, 43.626463], [-73.324492, 43.627515], [-73.323894, 43.62763], [-73.32232, 43.627538], [-73.320715, 43.627264], [-73.319928, 43.627333], [-73.319298, 43.627653], [-73.318322, 43.628499], [-73.317693, 43.62843], [-73.317567, 43.627356], [-73.31678, 43.626784], [-73.315521, 43.626555], [-73.314797, 43.626144], [-73.313129, 43.625512], [-73.312967, 43.624706], [-73.311834, 43.624229], [-73.311173, 43.624092], [-73.310229, 43.624229], [-73.309491, 43.625066], [-73.308275, 43.62686], [-73.307534, 43.627758], [-73.306012, 43.628131], [-73.302553, 43.625709], [-73.302077, 43.623838], [-73.302076, 43.623108], [-73.302958, 43.621004], [-73.30299, 43.620524], [-73.302455, 43.619632], [-73.30085, 43.618397], [-73.300378, 43.617803], [-73.300315, 43.617323], [-73.301008, 43.616431], [-73.301134, 43.616019], [-73.301197, 43.615082], [-73.300851, 43.613458], [-73.300977, 43.613161], [-73.302236, 43.611789], [-73.302425, 43.611309], [-73.302425, 43.610463], [-73.302771, 43.610075], [-73.302488, 43.60948], [-73.302111, 43.609388], [-73.301481, 43.609617], [-73.300883, 43.610737], [-73.300285, 43.610806], [-73.299876, 43.610394], [-73.298303, 43.610211], [-73.29802, 43.610028], [-73.297863, 43.609434], [-73.297454, 43.609045], [-73.296699, 43.608633], [-73.296416, 43.607604], [-73.295283, 43.606849], [-73.295, 43.606049], [-73.293742, 43.605203], [-73.293711, 43.604357], [-73.293082, 43.603854], [-73.292484, 43.603122], [-73.292216, 43.602555], [-73.292698, 43.601955], [-73.292646, 43.60134], [-73.292158, 43.600567], [-73.291161, 43.599878], [-73.291019, 43.599235], [-73.292055, 43.598169], [-73.292679, 43.597088], [-73.292762, 43.596603], [-73.292447, 43.595994], [-73.292358, 43.595752], [-73.292802, 43.593862], [-73.29328, 43.592547], [-73.293839, 43.591978], [-73.295205, 43.589938], [-73.295811, 43.588877], [-73.295909, 43.58865], [-73.29691, 43.587672], [-73.29671, 43.587114], [-73.295573, 43.586683], [-73.295287, 43.586471], [-73.294189, 43.585777], [-73.292869, 43.585361], [-73.292111, 43.584885], [-73.292332, 43.584267], [-73.293215, 43.583571], [-73.294225, 43.582442], [-73.295226, 43.581724], [-73.297258, 43.579691], [-73.297324, 43.579373], [-73.297042, 43.579142], [-73.295984, 43.57889], [-73.295668, 43.578633], [-73.295725, 43.577146], [-73.295292, 43.576782], [-73.294506, 43.577148], [-73.294285, 43.577788], [-73.294474, 43.578314], [-73.294128, 43.578474], [-73.292021, 43.578588], [-73.291738, 43.578519], [-73.291109, 43.577856], [-73.289851, 43.577719], [-73.289159, 43.578336], [-73.2879, 43.578701], [-73.285825, 43.57893], [-73.284912, 43.579272], [-73.284189, 43.578746], [-73.283592, 43.578083], [-73.282051, 43.578128], [-73.281296, 43.577579], [-73.281077, 43.57655], [-73.280952, 43.575407], [-73.281109, 43.574973], [-73.281078, 43.574172], [-73.280858, 43.573578], [-73.280292, 43.573555], [-73.279726, 43.574241], [-73.278751, 43.574057], [-73.278185, 43.574537], [-73.277807, 43.574629], [-73.277367, 43.574423], [-73.276549, 43.574468], [-73.276419, 43.57433], [-73.276509, 43.573549], [-73.275338, 43.573045], [-73.273753, 43.572657], [-73.272297, 43.572569], [-73.271663, 43.572433], [-73.271187, 43.572065], [-73.270238, 43.571815], [-73.2697, 43.57177], [-73.269323, 43.571979], [-73.268296, 43.572185], [-73.267932, 43.57225], [-73.267528, 43.571972], [-73.267532, 43.571811], [-73.268354, 43.571592], [-73.268452, 43.571434], [-73.26836, 43.571295], [-73.267548, 43.571126], [-73.267458, 43.570873], [-73.267523, 43.570784], [-73.268153, 43.570721], [-73.268347, 43.570448], [-73.26929, 43.570506], [-73.269296, 43.570276], [-73.268988, 43.569929], [-73.268615, 43.569695], [-73.268269, 43.569669], [-73.268012, 43.569918], [-73.267539, 43.569981], [-73.267514, 43.569683], [-73.267834, 43.569481], [-73.267936, 43.569137], [-73.267528, 43.569], [-73.26693, 43.569], [-73.266679, 43.56916], [-73.266647, 43.569777], [-73.266489, 43.569868], [-73.266049, 43.569685], [-73.264163, 43.569136], [-73.2641, 43.568884], [-73.264572, 43.568633], [-73.264602, 43.568195], [-73.264008, 43.567592], [-73.263224, 43.567691], [-73.262354, 43.567212], [-73.262298, 43.567016], [-73.261813, 43.565548], [-73.260749, 43.566522], [-73.260015, 43.56591], [-73.258631, 43.56495], [-73.258192, 43.564287], [-73.258161, 43.563921], [-73.258381, 43.563509], [-73.25835, 43.563052], [-73.257156, 43.562548], [-73.25681, 43.562251], [-73.25593, 43.561885], [-73.255585, 43.560947], [-73.255555, 43.559895], [-73.255272, 43.559575], [-73.253827, 43.558431], [-73.252602, 43.556852], [-73.252603, 43.556441], [-73.254206, 43.556373], [-73.254395, 43.556282], [-73.25449, 43.555596], [-73.251441, 43.555388], [-73.248641, 43.553858], [-73.248766, 43.553149], [-73.24842, 43.552578], [-73.248985, 43.552417], [-73.24916, 43.551754], [-73.24867, 43.551503], [-73.24881, 43.551046], [-73.250219, 43.550792], [-73.250408, 43.550426], [-73.249925, 43.549724], [-73.249965, 43.549374], [-73.249206, 43.548896], [-73.249269, 43.548461], [-73.250028, 43.547933], [-73.250029, 43.547522], [-73.249253, 43.547204], [-73.249189, 43.546655], [-73.249856, 43.546127], [-73.248193, 43.545787], [-73.247815, 43.545421], [-73.247815, 43.545055], [-73.248223, 43.544941], [-73.249157, 43.545283], [-73.249936, 43.544869], [-73.250133, 43.543429], [-73.249554, 43.543064], [-73.247813, 43.542814], [-73.246586, 43.541855], [-73.24649, 43.540643], [-73.24671, 43.540346], [-73.246395, 43.539751], [-73.245637, 43.539549], [-73.244414, 43.538815], [-73.243531, 43.535408], [-73.242737, 43.534778], [-73.241614, 43.534995], [-73.242725, 43.534058], [-73.242178, 43.533489], [-73.241989, 43.532986], [-73.241486, 43.532621], [-73.241454, 43.532049], [-73.242365, 43.53118], [-73.242647, 43.530722], [-73.242678, 43.530105], [-73.241892, 43.529419], [-73.242331, 43.528642], [-73.243367, 43.527727], [-73.243901, 43.527429], [-73.244875, 43.527154], [-73.24544, 43.526857], [-73.246526, 43.526017], [-73.246821, 43.525781], [-73.246915, 43.525392], [-73.24682, 43.525278], [-73.24682, 43.524615], [-73.247698, 43.523174], [-73.247604, 43.522946], [-73.247195, 43.522557], [-73.247006, 43.522123], [-73.246502, 43.52146], [-73.246596, 43.521208], [-73.24735, 43.520819], [-73.247601, 43.520522], [-73.247538, 43.51995], [-73.247632, 43.519744], [-73.247631, 43.519241], [-73.24694, 43.519082], [-73.24672, 43.518876], [-73.246844, 43.517252], [-73.248037, 43.51636], [-73.248068, 43.515994], [-73.247816, 43.515789], [-73.246748, 43.515538], [-73.246716, 43.515332], [-73.247061, 43.51492], [-73.247063, 43.514612], [-73.247065, 43.514317], [-73.24711, 43.508044], [-73.247765, 43.492817], [-73.248396, 43.470634], [-73.248758, 43.461851], [-73.249552, 43.442889], [-73.249694, 43.438101], [-73.250147, 43.425713], [-73.250851, 43.408606], [-73.250952, 43.406147], [-73.251006, 43.404862], [-73.251012, 43.404733], [-73.251231, 43.39973], [-73.252129, 43.378315], [-73.252353, 43.372994], [-73.252675, 43.370286], [-73.252833, 43.363494], [-73.253303, 43.361208], [-73.253213, 43.35802], [-73.253085, 43.354714], [-73.253306, 43.352677], [-73.253323, 43.352296], [-73.253761, 43.340699], [-73.254293, 43.323169], [-73.254633, 43.314675], [-73.255131, 43.30214], [-73.255621, 43.283902], [-73.25579, 43.277564], [-73.256346, 43.26535], [-73.256475, 43.260093], [-73.257091, 43.252531], [-73.257613, 43.245188], [-73.258723, 43.229892], [-73.258801, 43.227462], [-73.259159, 43.216848], [-73.259651, 43.207421], [-73.262275, 43.157158], [-73.262438, 43.154023], [-73.264117, 43.122392], [-73.264406, 43.117082], [-73.264913, 43.108599], [-73.265031, 43.106237], [-73.265044, 43.1061], [-73.265595, 43.095926], [-73.266164, 43.087998], [-73.268898, 43.04866], [-73.269027, 43.046808], [-73.269777, 43.035976], [-73.270041, 43.030716], [-73.270825, 43.015147], [-73.271427, 43.000083], [-73.271846, 42.995467], [-73.271893, 42.994361], [-73.272515, 42.982091], [-73.272759, 42.975495], [-73.273325, 42.964782], [-73.273269, 42.963663], [-73.273303, 42.963075], [-73.27417, 42.949028], [-73.274244, 42.945783], [-73.274399, 42.942294], [-73.274462, 42.940457], [-73.27457, 42.937754], [-73.274575, 42.937659], [-73.274578, 42.937594], [-73.274743, 42.934417], [-73.275385, 42.916017], [-73.275961, 42.901225], [-73.275836, 42.897646], [-73.275997, 42.892697], [-73.276748, 42.875075], [-73.27686, 42.873957], [-73.276981, 42.871211], [-73.27707, 42.866826], [-73.27832, 42.837391], [-73.278673, 42.83341], [-73.284311, 42.834954], [-73.285388, 42.834093], [-73.286627, 42.823152], [-73.287063, 42.82014], [-73.285646, 42.817483], [-73.284328, 42.814901], [-73.284222, 42.814685], [-73.284139, 42.814515], [-73.283695, 42.813856], [-73.284559, 42.812663], [-73.285114, 42.811781], [-73.285194, 42.811667], [-73.285262, 42.811569], [-73.285314, 42.811497], [-73.285407, 42.811366], [-73.285856, 42.81073], [-73.286168, 42.810194], [-73.286547, 42.809484], [-73.286343, 42.808063], [-73.290944, 42.80192], [-73.281557, 42.76614], [-73.276421, 42.746019], [-73.264679, 42.745849], [-73.245295, 42.745488], [-73.235389, 42.745301], [-73.2149, 42.744909], [-73.214404, 42.744899], [-73.213732, 42.744885], [-73.213171, 42.744875], [-73.187745, 42.744401], [-73.142493, 42.743529], [-73.1416, 42.743574], [-73.117969, 42.743043], [-73.11659, 42.743016], [-73.089903, 42.74249], [-73.079419, 42.742282], [-73.071488, 42.742118], [-73.069447, 42.742079], [-73.067443, 42.742038], [-73.06216, 42.741934], [-73.054578, 42.741775], [-73.042195, 42.741526], [-73.018645, 42.741059], [-73.010662, 42.74084], [-73.006044, 42.740725], [-72.962979, 42.739933], [-72.948354, 42.739647], [-72.94798, 42.739639], [-72.930258, 42.739293], [-72.929844, 42.739285], [-72.928624, 42.739261], [-72.928298, 42.739254], [-72.925472, 42.7392], [-72.897653, 42.738604], [-72.891479, 42.738457], [-72.88279, 42.738264], [-72.877336, 42.738145], [-72.857657, 42.737689], [-72.837483, 42.73724], [-72.816355, 42.736749], [-72.809113, 42.736581], [-72.791012, 42.736022], [-72.779276, 42.735768], [-72.768068, 42.73547], [-72.749538, 42.734981], [-72.723506, 42.734199], [-72.721365, 42.734101], [-72.72014, 42.734069], [-72.692664, 42.733356], [-72.686264, 42.733192], [-72.686173, 42.733187], [-72.682977, 42.733106], [-72.676454, 42.732937], [-72.676127, 42.732929], [-72.675832, 42.732921], [-72.661152, 42.732541], [-72.643089, 42.732073], [-72.624535, 42.731634], [-72.616352, 42.731286], [-72.61326, 42.731222], [-72.598496, 42.730918], [-72.590563, 42.730641], [-72.575862, 42.730254], [-72.573131, 42.730185], [-72.570448, 42.730133], [-72.570265, 42.730128], [-72.56996, 42.730119], [-72.565352, 42.729977], [-72.529334, 42.728905], [-72.49223, 42.727844], [-72.464574, 42.72704], [-72.462235, 42.726966], [-72.458412, 42.726933], [-72.458732, 42.728993], [-72.460441, 42.732114], [-72.463537, 42.736372], [-72.466835, 42.739598], [-72.467689, 42.741536], [-72.470483, 42.74386], [-72.471428, 42.744023], [-72.47306, 42.745679], [-72.47361, 42.746785], [-72.474785, 42.751843], [-72.47538, 42.756588], [-72.476845, 42.760601], [-72.479363, 42.763333], [-72.483635, 42.764996], [-72.485314, 42.766278], [-72.486977, 42.768856], [-72.490547, 42.772747], [-72.495324, 42.77367], [-72.497704, 42.773365], [-72.498971, 42.772099], [-72.499474, 42.768925], [-72.501534, 42.767239], [-72.504067, 42.766125], [-72.506669, 42.765629], [-72.507653, 42.764706], [-72.511178, 42.763882], [-72.51307, 42.764073], [-72.515466, 42.765629], [-72.516442, 42.767956], [-72.516473, 42.769123], [-72.515169, 42.77087], [-72.514474, 42.771366], [-72.510491, 42.773831], [-72.509286, 42.775013], [-72.50866, 42.776432], [-72.508462, 42.778683], [-72.509286, 42.780537], [-72.512231, 42.784329], [-72.516258, 42.787972], [-72.530161, 42.798542], [-72.53837, 42.804714], [-72.541513, 42.807094], [-72.5422, 42.809993], [-72.542536, 42.813083], [-72.542398, 42.815365], [-72.544864, 42.820468], [-72.546124, 42.823874], [-72.546656, 42.825756], [-72.546625, 42.827707], [-72.547083, 42.838542], [-72.547358, 42.839549], [-72.549402, 42.843219], [-72.552439, 42.845722], [-72.553904, 42.848415], [-72.556099, 42.851545], [-72.556559, 42.851932], [-72.556709, 42.852095], [-72.557124, 42.853236], [-72.556453, 42.855371], [-72.554987, 42.858287], [-72.55427, 42.860614], [-72.554514, 42.863269], [-72.555453, 42.866777], [-72.555494, 42.86696], [-72.555501, 42.866996], [-72.555537, 42.86716], [-72.555567, 42.867488], [-72.555216, 42.870898], [-72.555258, 42.875426], [-72.554161, 42.878089], [-72.552805, 42.881709], [-72.552307, 42.884104], [-72.552622, 42.885043], [-72.550821, 42.886103], [-72.546625, 42.88695], [-72.540247, 42.889552], [-72.539362, 42.890597], [-72.535334, 42.893412], [-72.532697, 42.896111], [-72.531336, 42.898188], [-72.531091, 42.905474], [-72.531595, 42.907099], [-72.530359, 42.911074], [-72.528803, 42.912959], [-72.526422, 42.913683], [-72.524606, 42.914874], [-72.524133, 42.917391], [-72.524316, 42.919001], [-72.527078, 42.928347], [-72.5263, 42.935366], [-72.526422, 42.938563], [-72.526941, 42.941378], [-72.528131, 42.945009], [-72.529581, 42.94626], [-72.53129, 42.946566], [-72.532816, 42.94742], [-72.534433, 42.949358], [-72.533808, 42.952585], [-72.532022, 42.954943], [-72.527139, 42.957315], [-72.523914, 42.959268], [-72.520791, 42.961611], [-72.518365, 42.963137], [-72.514856, 42.963678], [-72.510141, 42.964006], [-72.506341, 42.964464], [-72.50538, 42.965372], [-72.503213, 42.966081], [-72.49218, 42.967676], [-72.490914, 42.968981], [-72.488106, 42.970361], [-72.487311, 42.971509], [-72.485649, 42.972406], [-72.483055, 42.973123], [-72.481728, 42.973924], [-72.478706, 42.973184], [-72.476921, 42.971788], [-72.47477, 42.971651], [-72.473076, 42.972528], [-72.470711, 42.975084], [-72.468803, 42.97661], [-72.466454, 42.977899], [-72.462516, 42.981744], [-72.46163, 42.983051], [-72.461814, 42.984216], [-72.463508, 42.985857], [-72.464317, 42.986574], [-72.46537, 42.989175], [-72.46537, 42.990404], [-72.464592, 42.993715], [-72.462242, 42.997735], [-72.459312, 43.000574], [-72.456626, 43.001253], [-72.454841, 43.001077], [-72.452201, 43.000055], [-72.450073, 43.000051], [-72.447135, 43.001848], [-72.44419, 43.005059], [-72.443259, 43.007577], [-72.443672, 43.009919], [-72.44564, 43.011499], [-72.449851, 43.013833], [-72.452064, 43.015535], [-72.457267, 43.017694], [-72.45832, 43.018579], [-72.459395, 43.020433], [-72.460853, 43.023156], [-72.462623, 43.025788], [-72.463157, 43.027741], [-72.46302, 43.029016], [-72.461204, 43.034402], [-72.460335, 43.041085], [-72.461082, 43.043298], [-72.465538, 43.046586], [-72.467445, 43.050103], [-72.467857, 43.052514], [-72.467445, 43.053727], [-72.465355, 43.0561], [-72.462898, 43.058228], [-72.461509, 43.059037], [-72.457664, 43.06099], [-72.454887, 43.06305], [-72.451286, 43.067505], [-72.449882, 43.068772], [-72.445991, 43.070336], [-72.444343, 43.071618], [-72.442084, 43.074013], [-72.440177, 43.075608], [-72.438239, 43.078385], [-72.43566, 43.080887], [-72.433982, 43.08445], [-72.434516, 43.086617], [-72.437385, 43.08944], [-72.438834, 43.091904], [-72.43885, 43.094567], [-72.439551, 43.096031], [-72.441413, 43.097481], [-72.442969, 43.100441], [-72.443198, 43.10302], [-72.441413, 43.105949], [-72.440543, 43.106598], [-72.436942, 43.107987], [-72.433478, 43.110588], [-72.432685, 43.112663], [-72.432196, 43.115868], [-72.432502, 43.118896], [-72.433066, 43.120705], [-72.434516, 43.12223], [-72.437597, 43.124744], [-72.438011, 43.125001], [-72.438168, 43.12535], [-72.440286, 43.126762], [-72.442298, 43.129303], [-72.442542, 43.131592], [-72.441518, 43.132566], [-72.440696, 43.133667], [-72.440623, 43.135396], [-72.440589, 43.136161], [-72.440803, 43.136627], [-72.441398, 43.136963], [-72.442062, 43.137069], [-72.444526, 43.137718], [-72.444968, 43.137458], [-72.445166, 43.137389], [-72.445532, 43.137359], [-72.445975, 43.137389], [-72.446086, 43.137393], [-72.447059, 43.137023], [-72.448821, 43.137522], [-72.45156, 43.138267], [-72.453056, 43.139412], [-72.457171, 43.146404], [-72.457283, 43.14801], [-72.456565, 43.149467], [-72.454109, 43.151168], [-72.45211, 43.153228], [-72.4524, 43.158538], [-72.451896, 43.165756], [-72.452247, 43.166648], [-72.452949, 43.171897], [-72.452138, 43.173902], [-72.450798, 43.174972], [-72.448023, 43.176216], [-72.444907, 43.178107], [-72.443854, 43.180411], [-72.444221, 43.182647], [-72.445106, 43.184028], [-72.447502, 43.186164], [-72.449531, 43.189002], [-72.450486, 43.192664], [-72.448639, 43.194165], [-72.447715, 43.194297], [-72.44532, 43.195868], [-72.444678, 43.196761], [-72.438849, 43.201186], [-72.438224, 43.202918], [-72.43827, 43.206336], [-72.438987, 43.209899], [-72.440795, 43.213791], [-72.441047, 43.218192], [-72.439139, 43.223387], [-72.434913, 43.229514], [-72.434165, 43.231909], [-72.43462, 43.233257], [-72.436988, 43.236891], [-72.438224, 43.239821], [-72.43856, 43.242049], [-72.439475, 43.244139], [-72.439506, 43.245665], [-72.438498, 43.249007], [-72.438659, 43.249932], [-72.438987, 43.251189], [-72.437385, 43.254408], [-72.43714, 43.256056], [-72.43508, 43.258024], [-72.431859, 43.259599], [-72.429981, 43.260196], [-72.427579, 43.26095], [-72.425778, 43.261858], [-72.42414, 43.262129], [-72.421927, 43.263151], [-72.420905, 43.264364], [-72.42092, 43.265524], [-72.419379, 43.267302], [-72.416037, 43.270231], [-72.415167, 43.272207], [-72.412726, 43.275129], [-72.412222, 43.276594], [-72.409293, 43.281004], [-72.408018, 43.284135], [-72.406378, 43.289121], [-72.404913, 43.291982], [-72.404714, 43.293905], [-72.403524, 43.297247], [-72.402594, 43.300855], [-72.402792, 43.302442], [-72.401464, 43.30348], [-72.399374, 43.306371], [-72.39916, 43.307981], [-72.395315, 43.312696], [-72.395559, 43.314352], [-72.397711, 43.317503], [-72.401693, 43.319486], [-72.403937, 43.322385], [-72.406042, 43.324346], [-72.409353, 43.328435], [-72.410559, 43.331121], [-72.409031, 43.334017], [-72.406339, 43.337781], [-72.40505, 43.339368], [-72.400701, 43.346044], [-72.399289, 43.347581], [-72.394216, 43.35114], [-72.389822, 43.356023], [-72.390905, 43.357434], [-72.392843, 43.357968], [-72.395025, 43.357595], [-72.397589, 43.357755], [-72.400396, 43.357442], [-72.403082, 43.357747], [-72.404867, 43.358586], [-72.407294, 43.36041], [-72.410162, 43.361707], [-72.412036, 43.362097], [-72.414806, 43.36437], [-72.415274, 43.365926], [-72.414694, 43.36781], [-72.41474, 43.370084], [-72.41593, 43.374974], [-72.415769, 43.378298], [-72.415213, 43.380284], [-72.413728, 43.382959], [-72.411063, 43.385731], [-72.408606, 43.387677], [-72.40473, 43.389943], [-72.403509, 43.391583], [-72.403174, 43.394387], [-72.40328, 43.396458], [-72.402059, 43.398655], [-72.401707, 43.401627], [-72.401248, 43.403187], [-72.401161, 43.403625], [-72.400823, 43.406132], [-72.400106, 43.408612], [-72.399832, 43.411107], [-72.399939, 43.415135], [-72.398596, 43.419026], [-72.398596, 43.419934], [-72.396276, 43.426937], [-72.396056, 43.428625], [-72.395742, 43.430912], [-72.395956, 43.435032], [-72.395732, 43.437777], [-72.39356, 43.444454], [-72.392645, 43.446491], [-72.391256, 43.448322], [-72.39031, 43.451557], [-72.390402, 43.454365], [-72.391012, 43.455959], [-72.391653, 43.459209], [-72.391653, 43.462558], [-72.392736, 43.465397], [-72.392569, 43.466884], [-72.389952, 43.469594], [-72.389099, 43.470213], [-72.387082, 43.471908], [-72.386507, 43.472416], [-72.384362, 43.473872], [-72.383032, 43.475139], [-72.381816, 43.478573], [-72.381475, 43.48003], [-72.381315, 43.484192], [-72.380514, 43.486713], [-72.380344, 43.488387], [-72.379934, 43.491168], [-72.380147, 43.492229], [-72.381569, 43.494864], [-72.383062, 43.496875], [-72.383794, 43.498859], [-72.385106, 43.500698], [-72.38738, 43.502658], [-72.396582, 43.508434], [-72.397833, 43.509708], [-72.398871, 43.512653], [-72.397294, 43.516521], [-72.396361, 43.519887], [-72.396092, 43.523416], [-72.394857, 43.526317], [-72.394003, 43.527568], [-72.390417, 43.52756], [-72.386984, 43.530398], [-72.384283, 43.5339], [-72.381171, 43.539155], [-72.380638, 43.54063], [-72.380498, 43.541858], [-72.38149, 43.546893], [-72.380712, 43.550708], [-72.381383, 43.553576], [-72.381277, 43.555384], [-72.382177, 43.558665], [-72.382986, 43.563418], [-72.381338, 43.565661], [-72.380147, 43.564974], [-72.379812, 43.567088], [-72.380254, 43.569346], [-72.380336, 43.572255], [-72.380237, 43.573435], [-72.379415, 43.574603], [-72.3738, 43.579119], [-72.369492, 43.581262], [-72.366776, 43.582096], [-72.364056, 43.583479], [-72.3588, 43.58494], [-72.356648, 43.586443], [-72.354527, 43.586542], [-72.349644, 43.587817], [-72.348088, 43.589152], [-72.346352, 43.590472], [-72.345082, 43.590952], [-72.343133, 43.59179], [-72.341069, 43.593562], [-72.337543, 43.595835], [-72.333332, 43.5991], [-72.331776, 43.599871], [-72.32848, 43.600909], [-72.3279, 43.603182], [-72.3284, 43.606313], [-72.328581, 43.607408], [-72.329868, 43.608538], [-72.333195, 43.610285], [-72.334446, 43.613382], [-72.335148, 43.616159], [-72.334416, 43.619249], [-72.33321, 43.62208], [-72.332294, 43.625048], [-72.330051, 43.626223], [-72.329075, 43.627008], [-72.329517, 43.627939], [-72.32822, 43.62903], [-72.327442, 43.631197], [-72.328724, 43.631738], [-72.329762, 43.633447], [-72.329515, 43.634683], [-72.329443, 43.634893], [-72.327213, 43.63685], [-72.322406, 43.638864], [-72.319189, 43.639688], [-72.315952, 43.640726], [-72.314167, 43.642671], [-72.313815, 43.644228], [-72.314146, 43.647128], [-72.314308, 43.647505], [-72.31487, 43.64862], [-72.31483, 43.649358], [-72.31474, 43.650867], [-72.314472, 43.654428], [-72.313388, 43.657457], [-72.312519, 43.658601], [-72.310917, 43.65957], [-72.309101, 43.662022], [-72.306155, 43.665193], [-72.305271, 43.667383], [-72.303253, 43.668379], [-72.303165, 43.671525], [-72.302737, 43.673677], [-72.301395, 43.674432], [-72.301425, 43.67576], [-72.302676, 43.676195], [-72.302447, 43.679261], [-72.303424, 43.680696], [-72.304523, 43.681245], [-72.306, 43.683499], [-72.305453, 43.686433], [-72.305408, 43.691507], [-72.305031, 43.692399], [-72.305133, 43.695321], [-72.303638, 43.697381], [-72.302753, 43.697961], [-72.301776, 43.699655], [-72.300332, 43.703052], [-72.300062, 43.703669], [-72.30005, 43.703703], [-72.30004, 43.703731], [-72.299869, 43.705827], [-72.299167, 43.706643], [-72.294879, 43.708886], [-72.292178, 43.711068], [-72.291613, 43.712525], [-72.288958, 43.71534], [-72.286608, 43.717271], [-72.284442, 43.721032], [-72.282901, 43.722169], [-72.282061, 43.723481], [-72.280795, 43.724343], [-72.277102, 43.725938], [-72.275271, 43.727532], [-72.27402, 43.730401], [-72.272021, 43.733193], [-72.271105, 43.733918], [-72.268389, 43.734292], [-72.265505, 43.733796], [-72.26343, 43.734307], [-72.260943, 43.735673], [-72.252916, 43.739037], [-72.249574, 43.740632], [-72.24666, 43.742486], [-72.241594, 43.744073], [-72.237489, 43.744668], [-72.235322, 43.745354], [-72.23163, 43.747613], [-72.230409, 43.748871], [-72.230699, 43.750039], [-72.229264, 43.751557], [-72.229036, 43.751857], [-72.227082, 43.754365], [-72.226731, 43.755219], [-72.226365, 43.755639], [-72.225373, 43.756363], [-72.224303, 43.757404], [-72.223573, 43.758576], [-72.222474, 43.759644], [-72.222199, 43.760262], [-72.221137, 43.761895], [-72.22078, 43.762894], [-72.219661, 43.76399], [-72.219575, 43.764359], [-72.21901, 43.765038], [-72.218201, 43.765702], [-72.216941, 43.766331], [-72.216095, 43.766602], [-72.213929, 43.767098], [-72.212445, 43.767346], [-72.211136, 43.767685], [-72.208863, 43.768685], [-72.208222, 43.769074], [-72.206757, 43.770111], [-72.205948, 43.770386], [-72.205219, 43.770964], [-72.20517, 43.771325], [-72.205475, 43.772316], [-72.205369, 43.774758], [-72.205292, 43.775399], [-72.205277, 43.776779], [-72.204712, 43.777504], [-72.204178, 43.778359], [-72.204102, 43.779084], [-72.203934, 43.779404], [-72.205262, 43.781098], [-72.205628, 43.781845], [-72.205704, 43.782761], [-72.205643, 43.784142], [-72.205536, 43.784584], [-72.204346, 43.786072], [-72.202866, 43.787033], [-72.20163, 43.787766], [-72.198654, 43.788857], [-72.197083, 43.790108], [-72.196182, 43.790917], [-72.194046, 43.793694], [-72.193146, 43.795357], [-72.192718, 43.796753], [-72.192001, 43.798157], [-72.191925, 43.79863], [-72.191436, 43.799812], [-72.190994, 43.800484], [-72.190216, 43.801201], [-72.188171, 43.802627], [-72.186127, 43.803673], [-72.185989, 43.804031], [-72.18573, 43.803864], [-72.184936, 43.804649], [-72.184311, 43.805733], [-72.184051, 43.806404], [-72.183883, 43.807434], [-72.183517, 43.809021], [-72.18338, 43.810127], [-72.18395, 43.811872], [-72.184051, 43.812103], [-72.184326, 43.812553], [-72.184646, 43.812881], [-72.184982, 43.813286], [-72.185089, 43.81356], [-72.185409, 43.814056], [-72.18544, 43.814422], [-72.185486, 43.814483], [-72.185684, 43.814545], [-72.185852, 43.814659], [-72.186157, 43.815109], [-72.186554, 43.815765], [-72.18692, 43.816299], [-72.187469, 43.817337], [-72.187607, 43.818008], [-72.187835, 43.818596], [-72.188278, 43.819305], [-72.188476, 43.819588], [-72.188736, 43.820267], [-72.18895, 43.82119], [-72.188934, 43.822265], [-72.188797, 43.822845], [-72.188522, 43.823288], [-72.188324, 43.823479], [-72.188217, 43.823631], [-72.187698, 43.824531], [-72.187546, 43.824669], [-72.187485, 43.824791], [-72.18721, 43.825134], [-72.186844, 43.825966], [-72.186508, 43.826629], [-72.186126, 43.827202], [-72.185654, 43.827957], [-72.183853, 43.830223], [-72.183639, 43.830444], [-72.183334, 43.831146], [-72.18309, 43.831627], [-72.18277, 43.832611], [-72.182632, 43.832985], [-72.182449, 43.834121], [-72.182449, 43.834297], [-72.182586, 43.835014], [-72.182601, 43.835632], [-72.182693, 43.836174], [-72.182953, 43.837249], [-72.182907, 43.8377], [-72.183044, 43.838531], [-72.183105, 43.839134], [-72.183227, 43.84011], [-72.18338, 43.840934], [-72.183563, 43.841163], [-72.183411, 43.841331], [-72.18341, 43.841568], [-72.183319, 43.842285], [-72.18309, 43.843116], [-72.183029, 43.843383], [-72.182968, 43.844162], [-72.18309, 43.84468], [-72.183639, 43.845718], [-72.183883, 43.846328], [-72.184188, 43.847023], [-72.184234, 43.847168], [-72.184647, 43.847892], [-72.18489, 43.848426], [-72.185119, 43.849182], [-72.185409, 43.849616], [-72.185806, 43.85012], [-72.186416, 43.851181], [-72.186477, 43.851478], [-72.186599, 43.851898], [-72.187232, 43.853156], [-72.187637, 43.854011], [-72.187759, 43.854454], [-72.188034, 43.855155], [-72.188034, 43.855613], [-72.187942, 43.855842], [-72.187866, 43.856361], [-72.187546, 43.857048], [-72.186523, 43.85839], [-72.186523, 43.858451], [-72.186096, 43.8591], [-72.185608, 43.859947], [-72.185394, 43.860359], [-72.185119, 43.861007], [-72.184982, 43.861846], [-72.184998, 43.862098], [-72.185058, 43.86235], [-72.185028, 43.862891], [-72.184936, 43.863426], [-72.184784, 43.863822], [-72.184418, 43.864471], [-72.184265, 43.864654], [-72.184051, 43.864829], [-72.183853, 43.864936], [-72.183487, 43.865188], [-72.182846, 43.865524], [-72.181839, 43.865905], [-72.181472, 43.865997], [-72.180816, 43.866119], [-72.180145, 43.866187], [-72.179794, 43.866187], [-72.179199, 43.866256], [-72.17871, 43.866332], [-72.17778, 43.86637], [-72.177032, 43.866363], [-72.176239, 43.866393], [-72.175598, 43.866371], [-72.175414, 43.866393], [-72.174712, 43.866569], [-72.174239, 43.866737], [-72.173568, 43.867034], [-72.172378, 43.867446], [-72.171493, 43.867622], [-72.170959, 43.867889], [-72.170486, 43.868102], [-72.169799, 43.868339], [-72.169601, 43.868385], [-72.168563, 43.86872], [-72.167968, 43.869041], [-72.167877, 43.869163], [-72.168136, 43.870162], [-72.168319, 43.870513], [-72.168548, 43.870902], [-72.168655, 43.871169], [-72.16902, 43.871666], [-72.169692, 43.872672], [-72.170028, 43.873527], [-72.170242, 43.873733], [-72.17102, 43.87503], [-72.171447, 43.87548], [-72.172393, 43.876731], [-72.17279, 43.877433], [-72.173584, 43.879615], [-72.173202, 43.883002], [-72.172988, 43.883781], [-72.172454, 43.884612], [-72.172103, 43.884986], [-72.170562, 43.886184], [-72.169626, 43.886194], [-72.167861, 43.886253], [-72.166137, 43.886222], [-72.16426, 43.886291], [-72.162298, 43.886575], [-72.160918, 43.887031], [-72.159728, 43.887664], [-72.159316, 43.888122], [-72.159148, 43.889052], [-72.158874, 43.889861], [-72.158736, 43.891852], [-72.158492, 43.892806], [-72.15808, 43.893317], [-72.157164, 43.89495], [-72.155517, 43.897223], [-72.153868, 43.899123], [-72.152099, 43.900809], [-72.15013, 43.902411], [-72.149047, 43.903098], [-72.14839, 43.903388], [-72.146987, 43.90422], [-72.145812, 43.904845], [-72.14247, 43.906295], [-72.139829, 43.907516], [-72.136061, 43.909171], [-72.134031, 43.911719], [-72.132197, 43.91341], [-72.126997, 43.915427], [-72.122114, 43.918067], [-72.119566, 43.920691], [-72.118253, 43.923186], [-72.117857, 43.92678], [-72.118299, 43.92787], [-72.118086, 43.929785], [-72.116911, 43.933844], [-72.117018, 43.935446], [-72.11806, 43.93936], [-72.118925, 43.941206], [-72.119276, 43.943747], [-72.118345, 43.946532], [-72.116911, 43.947493], [-72.111722, 43.947562], [-72.107801, 43.948714], [-72.10574, 43.949829], [-72.104062, 43.95127], [-72.101926, 43.954298], [-72.099113, 43.957333], [-72.098951, 43.958418], [-72.101224, 43.961378], [-72.100492, 43.963186], [-72.098371, 43.964079], [-72.091413, 43.965452], [-72.091153, 43.966444], [-72.092206, 43.967055], [-72.098722, 43.968703], [-72.102979, 43.969076], [-72.106397, 43.969984], [-72.111372, 43.966948], [-72.114091, 43.967767], [-72.114607, 43.969794], [-72.113676, 43.971472], [-72.112775, 43.975615], [-72.112727, 43.977996], [-72.113126, 43.981405], [-72.111998, 43.984625], [-72.11218, 43.986845], [-72.113843, 43.98937], [-72.116392, 43.991606], [-72.116636, 43.991972], [-72.116889, 43.994407], [-72.116529, 43.994902], [-72.112531, 43.996794], [-72.10922, 44.000356], [-72.104123, 44.002371], [-72.10362, 44.003553], [-72.104612, 44.007917], [-72.105619, 44.010519], [-72.105802, 44.011984], [-72.105283, 44.013059], [-72.102369, 44.014776], [-72.099805, 44.015425], [-72.097593, 44.015226], [-72.094418, 44.013746], [-72.093549, 44.012861], [-72.093243, 44.011366], [-72.093564, 44.009657], [-72.091931, 44.009145], [-72.090527, 44.009924], [-72.090375, 44.010809], [-72.092069, 44.013143], [-72.093583, 44.014314], [-72.094892, 44.01547], [-72.095945, 44.018758], [-72.095426, 44.021757], [-72.094022, 44.023435], [-72.092084, 44.024404], [-72.09068, 44.024229], [-72.088025, 44.02239], [-72.085095, 44.021169], [-72.08334, 44.021352], [-72.082013, 44.022909], [-72.081555, 44.024793], [-72.081906, 44.02635], [-72.081342, 44.028364], [-72.079174, 44.029752], [-72.077084, 44.030317], [-72.075848, 44.031118], [-72.075116, 44.031812], [-72.074811, 44.032407], [-72.074902, 44.03314], [-72.076428, 44.035543], [-72.077267, 44.036375], [-72.07771, 44.037114], [-72.078244, 44.037771], [-72.0789, 44.038801], [-72.079434, 44.040578], [-72.079358, 44.041387], [-72.078976, 44.042333], [-72.07832, 44.043378], [-72.077283, 44.044324], [-72.076092, 44.045034], [-72.07417, 44.045835], [-72.072278, 44.046476], [-72.068219, 44.048177], [-72.066113, 44.049009], [-72.06477, 44.049222], [-72.063153, 44.049268], [-72.062359, 44.049367], [-72.061901, 44.049596], [-72.061749, 44.050054], [-72.062145, 44.051274], [-72.063122, 44.052198], [-72.063885, 44.052472], [-72.065228, 44.052694], [-72.06683, 44.053098], [-72.067471, 44.053327], [-72.068509, 44.05393], [-72.068936, 44.054281], [-72.069149, 44.054685], [-72.068981, 44.055349], [-72.068096, 44.057378], [-72.067334, 44.057943], [-72.065594, 44.058301], [-72.059338, 44.057683], [-72.057293, 44.058339], [-72.055309, 44.060773], [-72.053936, 44.063863], [-72.051768, 44.066336], [-72.050319, 44.067334], [-72.048946, 44.068753], [-72.048305, 44.069707], [-72.048244, 44.070355], [-72.048565, 44.071195], [-72.049221, 44.072286], [-72.05006, 44.073148], [-72.052273, 44.0743], [-72.052303, 44.074758], [-72.052685, 44.075131], [-72.053005, 44.0761], [-72.052517, 44.076642], [-72.051632, 44.077069], [-72.05038, 44.077352], [-72.047588, 44.077771], [-72.046978, 44.077901], [-72.045559, 44.078404], [-72.044841, 44.078855], [-72.043514, 44.079244], [-72.04269, 44.079221], [-72.041362, 44.078877], [-72.040279, 44.077603], [-72.039623, 44.077077], [-72.038905, 44.076734], [-72.038036, 44.076543], [-72.036952, 44.076505], [-72.035793, 44.076657], [-72.034175, 44.077115], [-72.032811, 44.077744], [-72.032085, 44.078229], [-72.031627, 44.07916], [-72.031841, 44.080182], [-72.032329, 44.080869], [-72.033245, 44.08151], [-72.034038, 44.081876], [-72.038204, 44.083035], [-72.038662, 44.083211], [-72.039974, 44.083951], [-72.041316, 44.084554], [-72.042675, 44.08524], [-72.044383, 44.085996], [-72.044979, 44.086499], [-72.045284, 44.087308], [-72.045146, 44.08785], [-72.044491, 44.088544], [-72.043483, 44.088902], [-72.041881, 44.089002], [-72.041134, 44.088826], [-72.038967, 44.088559], [-72.037105, 44.088636], [-72.03532, 44.089192], [-72.034053, 44.089856], [-72.03326, 44.090474], [-72.032359, 44.091527], [-72.03184, 44.092801], [-72.031383, 44.095112], [-72.030909, 44.096562], [-72.030681, 44.097714], [-72.03065, 44.098767], [-72.030971, 44.099911], [-72.031597, 44.100812], [-72.032405, 44.101483], [-72.033046, 44.101781], [-72.034969, 44.102292], [-72.035945, 44.102833], [-72.03683, 44.103169], [-72.038249, 44.103551], [-72.039455, 44.10352], [-72.04005, 44.103352], [-72.040935, 44.102773], [-72.042263, 44.101353], [-72.042675, 44.099965], [-72.042583, 44.099171], [-72.042995, 44.098271], [-72.043132, 44.097241], [-72.04391, 44.0966], [-72.044521, 44.096341], [-72.045925, 44.096288], [-72.047008, 44.096402], [-72.047843, 44.096577], [-72.05038, 44.09821], [-72.051906, 44.099812], [-72.052715, 44.101453], [-72.052807, 44.103673], [-72.05299, 44.104939], [-72.054394, 44.107983], [-72.055386, 44.110898], [-72.053341, 44.1144], [-72.053179, 44.117183], [-72.053143, 44.119511], [-72.050533, 44.120312], [-72.048809, 44.122311], [-72.046398, 44.123547], [-72.045131, 44.124691], [-72.043071, 44.12473], [-72.041256, 44.125348], [-72.038554, 44.124577], [-72.037094, 44.125049], [-72.035549, 44.129239], [-72.033412, 44.1311], [-72.033794, 44.132344], [-72.03744, 44.133396], [-72.041408, 44.136326], [-72.041973, 44.137173], [-72.041546, 44.139958], [-72.041892, 44.142904], [-72.042141, 44.14542], [-72.041866, 44.147137], [-72.042827, 44.150036], [-72.042501, 44.152138], [-72.042435, 44.152354], [-72.041152, 44.154022], [-72.03956, 44.155989], [-72.039669, 44.157223], [-72.041956, 44.156631], [-72.043582, 44.157073], [-72.043911, 44.158054], [-72.042034, 44.161526], [-72.045299, 44.161694], [-72.046428, 44.161381], [-72.047817, 44.162205], [-72.048275, 44.164227], [-72.049038, 44.165317], [-72.05183, 44.1665], [-72.053249, 44.168667], [-72.054348, 44.172436], [-72.056255, 44.175571], [-72.057705, 44.180103], [-72.060146, 44.183864], [-72.065853, 44.189327], [-72.066082, 44.190716], [-72.064999, 44.19334], [-72.064352, 44.196077], [-72.064327, 44.197574], [-72.060375, 44.199825], [-72.058743, 44.20203], [-72.057751, 44.205837], [-72.058758, 44.207615], [-72.058162, 44.208194], [-72.059826, 44.209827], [-72.058392, 44.211788], [-72.056728, 44.212055], [-72.05537, 44.212833], [-72.053936, 44.214939], [-72.052578, 44.21783], [-72.052639, 44.219516], [-72.053814, 44.222858], [-72.053753, 44.224735], [-72.052852, 44.22768], [-72.050747, 44.232296], [-72.049877, 44.235088], [-72.047954, 44.23785], [-72.048046, 44.240459], [-72.049572, 44.243564], [-72.050978, 44.245064], [-72.053356, 44.246455], [-72.05473, 44.247875], [-72.055355, 44.249866], [-72.059229, 44.255825], [-72.06007, 44.258105], [-72.059994, 44.259952], [-72.06068, 44.261149], [-72.059563, 44.261738], [-72.060772, 44.261851], [-72.061245, 44.263126], [-72.060513, 44.26459], [-72.059323, 44.265674], [-72.059323, 44.264247], [-72.058605, 44.265056], [-72.058742, 44.266978], [-72.060055, 44.267589], [-72.0583, 44.269351], [-72.058331, 44.270083], [-72.063152, 44.269046], [-72.064754, 44.267688], [-72.065869, 44.268664], [-72.066891, 44.268092], [-72.068478, 44.270801], [-72.067724, 44.273562], [-72.066235, 44.275233], [-72.065977, 44.276379], [-72.064389, 44.279323], [-72.062512, 44.28171], [-72.061657, 44.28226], [-72.060223, 44.284831], [-72.058636, 44.286502], [-72.057324, 44.287263], [-72.056225, 44.287707], [-72.053463, 44.290355], [-72.053158, 44.290454], [-72.052959, 44.290477], [-72.052898, 44.290492], [-72.049319, 44.291103], [-72.048733, 44.291301], [-72.047604, 44.291522], [-72.047092, 44.291719], [-72.045788, 44.29243], [-72.044918, 44.294467], [-72.044002, 44.295337], [-72.040233, 44.295687], [-72.037212, 44.297412], [-72.034662, 44.300415], [-72.032878, 44.302165], [-72.032299, 44.30398], [-72.032268, 44.306895], [-72.032558, 44.310305], [-72.03149, 44.313601], [-72.031413, 44.315249], [-72.032985, 44.316096], [-72.033626, 44.318057], [-72.032816, 44.320446], [-72.032342, 44.320556], [-72.029002, 44.322383], [-72.026241, 44.322131], [-72.019252, 44.320193], [-72.012522, 44.321268], [-72.008525, 44.322428], [-72.004661, 44.323844], [-72.000618, 44.325579], [-71.994028, 44.327792], [-71.991785, 44.329005], [-71.988871, 44.329737], [-71.98678, 44.331072], [-71.985498, 44.333544], [-71.984552, 44.336131], [-71.981424, 44.337366], [-71.977808, 44.337489], [-71.974481, 44.336893], [-71.971322, 44.336657], [-71.962076, 44.336558], [-71.958047, 44.337427], [-71.953362, 44.337611], [-71.945595, 44.33771], [-71.944344, 44.337557], [-71.939217, 44.335863], [-71.93525, 44.335757], [-71.932518, 44.336382], [-71.929375, 44.337481], [-71.928001, 44.33861], [-71.925225, 44.341853], [-71.921522, 44.343822], [-71.917213, 44.346636], [-71.914222, 44.347735], [-71.910621, 44.348376], [-71.905357, 44.348223], [-71.898765, 44.346438], [-71.893302, 44.343775], [-71.891407, 44.343352], [-71.89087, 44.343233], [-71.889039, 44.343057], [-71.886832, 44.342615], [-71.882742, 44.340815], [-71.881461, 44.339953], [-71.877091, 44.338262], [-71.874033, 44.337102], [-71.871704, 44.336686], [-71.870245, 44.336947], [-71.864752, 44.339404], [-71.8617, 44.34022], [-71.85607, 44.340518], [-71.85285, 44.340922], [-71.844396, 44.344317], [-71.843023, 44.344706], [-71.837853, 44.347993], [-71.8337, 44.350046], [-71.82842, 44.351237], [-71.824971, 44.352465], [-71.822972, 44.352862], [-71.818623, 44.353045], [-71.814229, 44.354738], [-71.812993, 44.355715], [-71.812413, 44.357325], [-71.812642, 44.358423], [-71.814732, 44.362741], [-71.816182, 44.366495], [-71.816182, 44.368105], [-71.813054, 44.370523], [-71.812428, 44.371332], [-71.812626, 44.372606], [-71.815678, 44.375025], [-71.815511, 44.377329], [-71.814427, 44.381922], [-71.812596, 44.382883], [-71.80962, 44.383669], [-71.807484, 44.38376], [-71.803074, 44.38328], [-71.800343, 44.384234], [-71.799885, 44.386072], [-71.800984, 44.387667], [-71.803685, 44.390711], [-71.803488, 44.39189], [-71.802205, 44.393549], [-71.799214, 44.395388], [-71.795536, 44.398294], [-71.793675, 44.399461], [-71.791584, 44.400171], [-71.789982, 44.400255], [-71.785572, 44.39982], [-71.779865, 44.399698], [-71.777942, 44.399973], [-71.774692, 44.40156], [-71.773517, 44.402597], [-71.767383, 44.405725], [-71.764101, 44.406771], [-71.761966, 44.407027], [-71.757225, 44.406635], [-71.755048, 44.40598], [-71.74956, 44.401925], [-71.747439, 44.401072], [-71.744547, 44.400949], [-71.742317, 44.40141], [-71.741579, 44.402252], [-71.738375, 44.407958], [-71.736995, 44.409233], [-71.735413, 44.410005], [-71.732326, 44.410179], [-71.731072, 44.410665], [-71.725743, 44.410964], [-71.723131, 44.410901], [-71.717267, 44.409845], [-71.71467, 44.409563], [-71.713022, 44.409806], [-71.703155, 44.413276], [-71.701078, 44.414594], [-71.696369, 44.41739], [-71.69413, 44.419391], [-71.691021, 44.420406], [-71.688813, 44.421741], [-71.684836, 44.423277], [-71.683469, 44.425377], [-71.682701, 44.42734], [-71.679928, 44.427674], [-71.67806, 44.426552], [-71.676705, 44.427168], [-71.675951, 44.428906], [-71.676691, 44.43045], [-71.679282, 44.434337], [-71.677382, 44.435499], [-71.67544, 44.435733], [-71.669299, 44.435788], [-71.665546, 44.436712], [-71.663454, 44.437788], [-71.660883, 44.439937], [-71.658906, 44.442633], [-71.657756, 44.445552], [-71.65695, 44.448606], [-71.656765, 44.453467], [-71.656371, 44.455159], [-71.655076, 44.457696], [-71.652855, 44.460235], [-71.651012, 44.460854], [-71.647133, 44.460056], [-71.644266, 44.46025], [-71.640818, 44.462341], [-71.639271, 44.463917], [-71.638863, 44.464956], [-71.639627, 44.466351], [-71.64556, 44.468926], [-71.646977, 44.469945], [-71.647617, 44.471629], [-71.646325, 44.473876], [-71.642308, 44.476501], [-71.639549, 44.477208], [-71.638291, 44.477942], [-71.636517, 44.47998], [-71.633727, 44.481175], [-71.633552, 44.482862], [-71.632192, 44.484105], [-71.630798, 44.484315], [-71.628382, 44.484365], [-71.626372, 44.483895], [-71.625548, 44.48346], [-71.624877, 44.482804], [-71.624648, 44.482407], [-71.624663, 44.481744], [-71.625274, 44.48105], [-71.626002, 44.480483], [-71.627638, 44.479676], [-71.630477, 44.479127], [-71.633437, 44.478211], [-71.63423, 44.478844], [-71.634825, 44.476143], [-71.63391, 44.474968], [-71.632659, 44.474244], [-71.631789, 44.474023], [-71.630141, 44.473848], [-71.628707, 44.473985], [-71.626952, 44.474267], [-71.626205, 44.474466], [-71.624953, 44.474931], [-71.624557, 44.475183], [-71.62387, 44.476747], [-71.62329, 44.477899], [-71.621123, 44.481744], [-71.619872, 44.483712], [-71.619353, 44.484452], [-71.618392, 44.485474], [-71.617843, 44.485841], [-71.617079, 44.486047], [-71.615584, 44.485978], [-71.615202, 44.485879], [-71.612105, 44.484651], [-71.610869, 44.484361], [-71.609526, 44.4842], [-71.608748, 44.484269], [-71.606086, 44.484828], [-71.600157, 44.485833], [-71.598601, 44.486825], [-71.597441, 44.490325], [-71.595869, 44.492112], [-71.594907, 44.4944], [-71.594884, 44.496141], [-71.59461, 44.500036], [-71.593885, 44.501031], [-71.592421, 44.501534], [-71.590223, 44.500535], [-71.58943, 44.498223], [-71.587065, 44.498422], [-71.585874, 44.500024], [-71.586958, 44.501771], [-71.58621, 44.503106], [-71.588285, 44.505189], [-71.588133, 44.506585], [-71.586302, 44.506554], [-71.58505, 44.505257], [-71.584516, 44.502999], [-71.582349, 44.501977], [-71.579741, 44.501504], [-71.577253, 44.501901], [-71.576642, 44.503793], [-71.577924, 44.505219], [-71.580931, 44.506768], [-71.582853, 44.50818], [-71.584715, 44.510865], [-71.586104, 44.514368], [-71.586592, 44.51497], [-71.591658, 44.51767], [-71.593458, 44.519639], [-71.594038, 44.521859], [-71.59288, 44.523189], [-71.587889, 44.522385], [-71.584669, 44.522645], [-71.582265, 44.523618], [-71.578962, 44.526177], [-71.578184, 44.527558], [-71.575498, 44.530541], [-71.573499, 44.533143], [-71.572156, 44.536278], [-71.572263, 44.538689], [-71.576459, 44.542229], [-71.580519, 44.54451], [-71.583892, 44.546174], [-71.585752, 44.546578], [-71.594145, 44.551888], [-71.598599, 44.554844], [-71.598143, 44.555199], [-71.597182, 44.558983], [-71.594954, 44.56202], [-71.594935, 44.562869], [-71.594038, 44.563164], [-71.591174, 44.565347], [-71.587664, 44.565798], [-71.58383, 44.565018], [-71.58091, 44.564831], [-71.576856, 44.565155], [-71.575498, 44.564957], [-71.570646, 44.563042], [-71.568235, 44.56276], [-71.564314, 44.56292], [-71.561368, 44.563332], [-71.559217, 44.564297], [-71.558225, 44.565598], [-71.559156, 44.568138], [-71.557711, 44.570404], [-71.556804, 44.570506], [-71.553433, 44.569328], [-71.551931, 44.569107], [-71.549695, 44.569466], [-71.547726, 44.571381], [-71.548718, 44.573204], [-71.552045, 44.575302], [-71.553418, 44.576821], [-71.554593, 44.578819], [-71.55493, 44.580182], [-71.554837, 44.580773], [-71.552675, 44.584035], [-71.551968, 44.58461], [-71.550244, 44.583641], [-71.551679, 44.58078], [-71.549664, 44.578323], [-71.548657, 44.577904], [-71.545788, 44.577934], [-71.540463, 44.580841], [-71.538464, 44.582131], [-71.537319, 44.583504], [-71.536892, 44.585731], [-71.534939, 44.5877], [-71.538067, 44.587428], [-71.539593, 44.587936], [-71.54028, 44.589119], [-71.539486, 44.590752], [-71.537869, 44.592262], [-71.537914, 44.593872], [-71.539242, 44.594147], [-71.53999, 44.593331], [-71.543576, 44.591278], [-71.546307, 44.590591], [-71.547482, 44.591667], [-71.546048, 44.593574], [-71.545208, 44.59565], [-71.545972, 44.59713], [-71.547253, 44.59684], [-71.548394, 44.595524], [-71.550763, 44.59417], [-71.553372, 44.593171], [-71.555009, 44.593227], [-71.555264, 44.594185], [-71.554211, 44.595352], [-71.554288, 44.597664], [-71.553235, 44.598915], [-71.55061, 44.599693], [-71.550427, 44.600654], [-71.551769, 44.60112], [-71.55322, 44.600143], [-71.557279, 44.599381], [-71.559723, 44.599643], [-71.559949, 44.599662], [-71.560421, 44.599769], [-71.56091, 44.59996], [-71.561276, 44.600181], [-71.56149, 44.600333], [-71.56174, 44.600607], [-71.561825, 44.6007], [-71.562131, 44.601181], [-71.562268, 44.601631], [-71.562298, 44.602088], [-71.562222, 44.602493], [-71.562115, 44.60276], [-71.561932, 44.602989], [-71.561764, 44.603134], [-71.561276, 44.603286], [-71.561184, 44.603312], [-71.558563, 44.603276], [-71.555859, 44.603706], [-71.55386, 44.605598], [-71.553533, 44.60703], [-71.553982, 44.609718], [-71.554911, 44.611545], [-71.555555, 44.61396], [-71.555737, 44.614944], [-71.556149, 44.61589], [-71.556455, 44.617187], [-71.556561, 44.618118], [-71.55647, 44.620727], [-71.556073, 44.622139], [-71.555264, 44.623939], [-71.555188, 44.625137], [-71.55502, 44.625305], [-71.553937, 44.625397], [-71.552991, 44.625183], [-71.55193, 44.624475], [-71.550152, 44.623], [-71.547237, 44.622108], [-71.546352, 44.623389], [-71.547756, 44.625007], [-71.5509, 44.625122], [-71.552243, 44.625656], [-71.553113, 44.627006], [-71.556531, 44.627205], [-71.55734, 44.62825], [-71.557019, 44.629486], [-71.55589, 44.629776], [-71.554013, 44.629257], [-71.552091, 44.627922], [-71.552104, 44.627314], [-71.54924, 44.628192], [-71.546931, 44.62855], [-71.547226, 44.630355], [-71.54951, 44.630903], [-71.55214, 44.630082], [-71.553756, 44.630426], [-71.558187, 44.634275], [-71.56297, 44.636406], [-71.563999, 44.637936], [-71.563775, 44.638943], [-71.559704, 44.639298], [-71.558225, 44.640526], [-71.55779, 44.64196], [-71.558225, 44.643354], [-71.559541, 44.645102], [-71.561962, 44.647189], [-71.56231, 44.64863], [-71.562, 44.650579], [-71.562616, 44.651976], [-71.565076, 44.653796], [-71.567053, 44.653349], [-71.567708, 44.651536], [-71.569025, 44.65029], [-71.573316, 44.649961], [-71.577081, 44.650686], [-71.579869, 44.651684], [-71.579906, 44.652247], [-71.576098, 44.652762], [-71.57443, 44.654203], [-71.575215, 44.65583], [-71.577412, 44.656146], [-71.579184, 44.655449], [-71.581315, 44.65545], [-71.584606, 44.656882], [-71.587365, 44.659715], [-71.587668, 44.661099], [-71.587198, 44.661475], [-71.586006, 44.662177], [-71.585371, 44.662767], [-71.584942, 44.663508], [-71.584933, 44.664054], [-71.585188, 44.665561], [-71.585157, 44.666057], [-71.585789, 44.667103], [-71.587771, 44.669286], [-71.587877, 44.669932], [-71.587454, 44.670309], [-71.586174, 44.670629], [-71.585013, 44.670785], [-71.583756, 44.671106], [-71.582566, 44.671609], [-71.581604, 44.672379], [-71.581463, 44.673204], [-71.582122, 44.674061], [-71.583044, 44.674416], [-71.584247, 44.6745], [-71.586776, 44.674347], [-71.587748, 44.674479], [-71.588439, 44.67474], [-71.589011, 44.675191], [-71.59021, 44.67635], [-71.590831, 44.67662], [-71.591641, 44.676726], [-71.59323, 44.676672], [-71.594903, 44.677115], [-71.596089, 44.677637], [-71.596615, 44.678088], [-71.596766, 44.678792], [-71.596375, 44.679335], [-71.594978, 44.680481], [-71.59415, 44.681533], [-71.59399, 44.682152], [-71.593959, 44.683425], [-71.594055, 44.683931], [-71.594876, 44.684781], [-71.595965, 44.686302], [-71.596564, 44.687324], [-71.596792, 44.689046], [-71.596974, 44.690007], [-71.597698, 44.691195], [-71.597955, 44.691767], [-71.597937, 44.692222], [-71.597673, 44.692815], [-71.597186, 44.693531], [-71.596851, 44.694214], [-71.59597, 44.694943], [-71.595226, 44.695095], [-71.594735, 44.695062], [-71.594108, 44.695267], [-71.593802, 44.695632], [-71.593861, 44.696415], [-71.59457, 44.697033], [-71.596208, 44.697558], [-71.598175, 44.697972], [-71.599475, 44.69817], [-71.600496, 44.698737], [-71.601007, 44.699444], [-71.600887, 44.700101], [-71.600174, 44.70122], [-71.598926, 44.702467], [-71.598589, 44.703241], [-71.598626, 44.70387], [-71.598846, 44.704583], [-71.599392, 44.705315], [-71.600695, 44.706532], [-71.601293, 44.706892], [-71.602215, 44.707181], [-71.603948, 44.707583], [-71.605014, 44.70841], [-71.605812, 44.709268], [-71.606526, 44.710332], [-71.606414, 44.710863], [-71.606746, 44.711387], [-71.607551, 44.712317], [-71.60852, 44.713956], [-71.609544, 44.714532], [-71.610594, 44.715448], [-71.611583, 44.715999], [-71.612512, 44.716673], [-71.612418, 44.717408], [-71.612993, 44.718195], [-71.612654, 44.718657], [-71.612548, 44.719186], [-71.613766, 44.719956], [-71.614871, 44.720477], [-71.61716, 44.72138], [-71.618644, 44.722193], [-71.618699, 44.722764], [-71.618368, 44.723952], [-71.617871, 44.726107], [-71.617209, 44.727681], [-71.617038, 44.72825], [-71.617199, 44.728774], [-71.617827, 44.729009], [-71.619079, 44.729035], [-71.620526, 44.728451], [-71.621416, 44.727912], [-71.622863, 44.727361], [-71.623583, 44.727316], [-71.624392, 44.727455], [-71.625613, 44.728043], [-71.626093, 44.728543], [-71.626307, 44.729702], [-71.626111, 44.732752], [-71.626004, 44.733694], [-71.625783, 44.734502], [-71.625352, 44.735359], [-71.625013, 44.736299], [-71.624996, 44.73744], [-71.625241, 44.738137], [-71.626166, 44.739864], [-71.626411, 44.74051], [-71.626214, 44.741286], [-71.625528, 44.742141], [-71.625148, 44.74275], [-71.625092, 44.743361], [-71.625358, 44.744174], [-71.626532, 44.746366], [-71.626986, 44.747014], [-71.627768, 44.747516], [-71.629825, 44.748036], [-71.63106, 44.748509], [-71.63216, 44.750985], [-71.631231, 44.75303], [-71.630754, 44.753306], [-71.629919, 44.753578], [-71.628119, 44.753757], [-71.62661, 44.753659], [-71.625189, 44.753843], [-71.624629, 44.754054], [-71.623374, 44.75492], [-71.622171, 44.755449], [-71.620259, 44.756021], [-71.619446, 44.756048], [-71.618534, 44.755793], [-71.617721, 44.755828], [-71.616669, 44.756299], [-71.614635, 44.758053], [-71.614118, 44.758413], [-71.613255, 44.758704], [-71.612856, 44.758998], [-71.61273, 44.759642], [-71.613176, 44.76082], [-71.613101, 44.7612], [-71.612557, 44.761874], [-71.612122, 44.762978], [-71.611879, 44.764064], [-71.611545, 44.765016], [-71.611073, 44.765517], [-71.609051, 44.7657], [-71.607943, 44.766022], [-71.606213, 44.766819], [-71.605098, 44.767595], [-71.604428, 44.768169], [-71.603673, 44.768593], [-71.602873, 44.769261], [-71.602205, 44.770397], [-71.601705, 44.771587], [-71.60116, 44.772327], [-71.600547, 44.772934], [-71.599842, 44.773442], [-71.598838, 44.773847], [-71.596574, 44.774623], [-71.595615, 44.775029], [-71.595099, 44.775405], [-71.594789, 44.775932], [-71.594664, 44.776477], [-71.594774, 44.776858], [-71.595643, 44.777725], [-71.595844, 44.778239], [-71.595641, 44.779312], [-71.595164, 44.780152], [-71.59455, 44.780825], [-71.593752, 44.781365], [-71.592486, 44.782669], [-71.590947, 44.78276], [-71.588864, 44.783558], [-71.586608, 44.783821], [-71.58565, 44.784161], [-71.583522, 44.785103], [-71.58308, 44.785182], [-71.581693, 44.784774], [-71.580627, 44.784633], [-71.57972, 44.784725], [-71.579182, 44.784936], [-71.57864, 44.785444], [-71.577737, 44.786776], [-71.577074, 44.787548], [-71.575862, 44.789258], [-71.574736, 44.78996], [-71.573382, 44.790446], [-71.572817, 44.790871], [-71.572532, 44.791299], [-71.572375, 44.792389], [-71.572041, 44.792948], [-71.571315, 44.793339], [-71.57116, 44.794314], [-71.57152, 44.795044], [-71.572363, 44.796044], [-71.57263, 44.796773], [-71.572852, 44.798892], [-71.5728, 44.799206], [-71.57192, 44.800489], [-71.571888, 44.801415], [-71.570484, 44.802835], [-71.570271, 44.803642], [-71.569535, 44.804372], [-71.569244, 44.805147], [-71.568643, 44.805849], [-71.568392, 44.806479], [-71.568384, 44.80704], [-71.569245, 44.807975], [-71.571153, 44.809231], [-71.571809, 44.810311], [-71.572903, 44.811241], [-71.575128, 44.811942], [-71.57605, 44.812429], [-71.576781, 44.813229], [-71.576954, 44.814024], [-71.576865, 44.815197], [-71.576508, 44.815757], [-71.575349, 44.817054], [-71.57489, 44.818109], [-71.574438, 44.818766], [-71.574001, 44.819987], [-71.573668, 44.820464], [-71.573151, 44.820823], [-71.571104, 44.821642], [-71.569527, 44.822208], [-71.56583, 44.82379], [-71.565617, 44.824003], [-71.565035, 44.824081], [-71.56476, 44.82388], [-71.564422, 44.823216], [-71.563776, 44.822946], [-71.563217, 44.823008], [-71.562353, 44.823282], [-71.561836, 44.823625], [-71.561221, 44.824265], [-71.561049, 44.824666], [-71.558911, 44.83058], [-71.556923, 44.834201], [-71.55431, 44.834792], [-71.552553, 44.835654], [-71.551114, 44.836965], [-71.550704, 44.839293], [-71.551577, 44.842757], [-71.553623, 44.845519], [-71.555277, 44.846756], [-71.555794, 44.848567], [-71.554562, 44.850678], [-71.551568, 44.853108], [-71.550169, 44.854139], [-71.548358, 44.854686], [-71.547595, 44.85516], [-71.547253, 44.856132], [-71.547744, 44.857075], [-71.549537, 44.859033], [-71.5499, 44.860285], [-71.549961, 44.860798], [-71.549451, 44.862084], [-71.548388, 44.863092], [-71.545923, 44.865932], [-71.545103, 44.866289], [-71.54382, 44.866584], [-71.543375, 44.866763], [-71.539928, 44.868478], [-71.538739, 44.868675], [-71.537391, 44.868598], [-71.53597, 44.868743], [-71.535128, 44.869033], [-71.532911, 44.870222], [-71.532025, 44.871016], [-71.531311, 44.871994], [-71.530334, 44.872697], [-71.529153, 44.873067], [-71.528751, 44.873494], [-71.528456, 44.87445], [-71.528923, 44.875711], [-71.528835, 44.876781], [-71.528372, 44.877712], [-71.527301, 44.878443], [-71.526216, 44.87864], [-71.524931, 44.878646], [-71.524348, 44.878732], [-71.523552, 44.879023], [-71.522965, 44.879357], [-71.52221, 44.879979], [-71.521937, 44.880348], [-71.521545, 44.881519], [-71.520801, 44.882836], [-71.520255, 44.883476], [-71.519274, 44.884427], [-71.518674, 44.884802], [-71.517779, 44.884803], [-71.516946, 44.884506], [-71.516085, 44.884523], [-71.515669, 44.885057], [-71.515507, 44.886412], [-71.515124, 44.887037], [-71.513206, 44.888294], [-71.511991, 44.8893], [-71.510789, 44.890199], [-71.510812, 44.890911], [-71.511502, 44.891363], [-71.512599, 44.891819], [-71.513267, 44.89223], [-71.514007, 44.893171], [-71.514016, 44.894023], [-71.513646, 44.894574], [-71.512474, 44.895068], [-71.510571, 44.895456], [-71.509985, 44.895662], [-71.509453, 44.896019], [-71.508273, 44.89652], [-71.507806, 44.897245], [-71.507835, 44.89831], [-71.507656, 44.899024], [-71.507137, 44.899668], [-71.505563, 44.900498], [-71.503642, 44.901267], [-71.503, 44.901737], [-71.501654, 44.903197], [-71.500523, 44.904713], [-71.500057, 44.90475], [-71.498338, 44.904561], [-71.497841, 44.904342], [-71.496898, 44.903705], [-71.496178, 44.903624], [-71.495347, 44.903931], [-71.49491, 44.904299], [-71.49471, 44.905083], [-71.494835, 44.905919], [-71.495724, 44.906977], [-71.496093, 44.907849], [-71.496017, 44.908898], [-71.495646, 44.909457], [-71.494716, 44.910102], [-71.49327, 44.910271], [-71.493019, 44.910641], [-71.493169, 44.91137], [-71.493363, 44.911612], [-71.494057, 44.911874], [-71.495326, 44.911794], [-71.498425, 44.910945], [-71.499553, 44.910996], [-71.499945, 44.911174], [-71.500548, 44.911956], [-71.500628, 44.912717], [-71.50044, 44.913493], [-71.500497, 44.914229], [-71.50096, 44.915044], [-71.50216, 44.916344], [-71.503328, 44.918083], [-71.50438, 44.919183], [-71.505045, 44.919743], [-71.506564, 44.920773], [-71.507882, 44.921942], [-71.508703, 44.922909], [-71.509051, 44.923648], [-71.509717, 44.924216], [-71.510202, 44.924418], [-71.511339, 44.924643], [-71.511707, 44.924886], [-71.512201, 44.925965], [-71.51308, 44.926415], [-71.514467, 44.926493], [-71.515185, 44.926731], [-71.515723, 44.927232], [-71.51576, 44.927786], [-71.515146, 44.928285], [-71.513685, 44.928661], [-71.513272, 44.928988], [-71.513433, 44.929759], [-71.51389, 44.930292], [-71.515306, 44.931189], [-71.515868, 44.931715], [-71.516146, 44.932453], [-71.516141, 44.933114], [-71.515939, 44.933822], [-71.516059, 44.934842], [-71.516433, 44.935432], [-71.517077, 44.935876], [-71.519728, 44.93675], [-71.520176, 44.937118], [-71.520488, 44.937617], [-71.52144, 44.938088], [-71.52196, 44.938792], [-71.522794, 44.94003], [-71.521297, 44.940625], [-71.520994, 44.93917], [-71.52096, 44.938919], [-71.520361, 44.938583], [-71.519896, 44.938488], [-71.518475, 44.938575], [-71.517068, 44.939117], [-71.516183, 44.939862], [-71.515893, 44.94043], [-71.515487, 44.941741], [-71.51479, 44.943695], [-71.514933, 44.944159], [-71.515557, 44.944437], [-71.517288, 44.944692], [-71.517795, 44.944994], [-71.518004, 44.94569], [-71.516896, 44.947161], [-71.516663, 44.947864], [-71.516918, 44.9486], [-71.518923, 44.949155], [-71.519241, 44.94962], [-71.519069, 44.950173], [-71.518821, 44.950386], [-71.517092, 44.951355], [-71.516278, 44.952001], [-71.516015, 44.952379], [-71.515793, 44.953105], [-71.515844, 44.954908], [-71.515724, 44.955816], [-71.515186, 44.957284], [-71.515001, 44.958597], [-71.515183, 44.959533], [-71.515921, 44.961284], [-71.516194, 44.962361], [-71.516298, 44.963122], [-71.516321, 44.964478], [-71.517087, 44.964642], [-71.517674, 44.964383], [-71.518864, 44.963626], [-71.519785, 44.963491], [-71.520751, 44.963525], [-71.52304, 44.963858], [-71.523376, 44.96396], [-71.523706, 44.964451], [-71.523352, 44.964721], [-71.521994, 44.965081], [-71.521565, 44.965517], [-71.521084, 44.966183], [-71.51826, 44.966953], [-71.518947, 44.967869], [-71.521747, 44.966206], [-71.522506, 44.96603], [-71.52292, 44.966156], [-71.523146, 44.966555], [-71.523114, 44.967944], [-71.522947, 44.968066], [-71.521953, 44.969189], [-71.522686, 44.969746], [-71.524581, 44.969574], [-71.525305, 44.969549], [-71.526272, 44.970334], [-71.527447, 44.973187], [-71.531179, 44.975015], [-71.532009, 44.976269], [-71.532269, 44.978482], [-71.532971, 44.979893], [-71.535527, 44.98049], [-71.537396, 44.980984], [-71.53677, 44.982235], [-71.536755, 44.983899], [-71.538189, 44.984372], [-71.540527, 44.983611], [-71.541424, 44.984074], [-71.541317, 44.985302], [-71.539874, 44.986141], [-71.538647, 44.987256], [-71.538769, 44.989285], [-71.538143, 44.98985], [-71.534008, 44.990414], [-71.533108, 44.991391], [-71.537091, 44.992611], [-71.537014, 44.993481], [-71.534901, 44.995741], [-71.531747, 44.997325], [-71.530403, 44.999364], [-71.529962, 44.999575], [-71.529776, 44.999661], [-71.529539, 44.99977], [-71.528474, 45.000026], [-71.524185, 45.002122], [-71.521996, 45.001988], [-71.519996, 45.002417], [-71.515877, 45.004044], [-71.513777, 45.004505], [-71.508784, 45.007844], [-71.507478, 45.00794], [-71.505861, 45.007854], [-71.505343, 45.007971], [-71.504669, 45.008315], [-71.504251, 45.008223], [-71.503361, 45.007629], [-71.502178, 45.007298], [-71.501323, 45.006947], [-71.50053, 45.006367], [-71.499736, 45.005421], [-71.499217, 45.005009], [-71.498417, 45.003944], [-71.497359, 45.003789], [-71.496473, 45.004114], [-71.495796, 45.004652], [-71.495343, 45.004602], [-71.494648, 45.003998], [-71.494323, 45.003211], [-71.493913, 45.002963], [-71.492722, 45.002655], [-71.491803, 45.002614], [-71.491044, 45.002475], [-71.490126, 45.001976], [-71.490092, 45.001534], [-71.489675, 45.00114], [-71.488839, 45.000782], [-71.488281, 45.000739], [-71.487481, 45.00111], [-71.486907, 45.00189], [-71.486495, 45.002131], [-71.485847, 45.002264], [-71.484858, 45.002242], [-71.483855, 45.002048], [-71.481423, 45.002188], [-71.480552, 45.002334], [-71.479797, 45.003005], [-71.479594, 45.003401], [-71.479332, 45.004453], [-71.479182, 45.005639], [-71.478921, 45.006533], [-71.478458, 45.007486], [-71.477228, 45.008725], [-71.476348, 45.009426], [-71.47484, 45.010115], [-71.473153, 45.010503], [-71.472099, 45.010842], [-71.471437, 45.01091], [-71.469103, 45.01098], [-71.467631, 45.011289], [-71.465964, 45.011919], [-71.465614, 45.01215], [-71.465065, 45.012918], [-71.46505, 45.013638], [-71.465242, 45.013638], [-71.466387, 45.013639], [-71.499689, 45.013336], [-71.501016, 45.013347], [-71.501128, 45.013443], [-71.505308, 45.013399], [-71.518802, 45.013239], [-71.530392, 45.013053], [-71.556649, 45.012711], [-71.556838, 45.012709], [-71.560284, 45.012662], [-71.572517, 45.012498], [-71.59501, 45.012641], [-71.597835, 45.012653], [-71.613649, 45.012701], [-71.634589, 45.012347], [-71.63967, 45.012333], [-71.661042, 45.011903], [-71.670928, 45.011645], [-71.68304, 45.011483], [-71.689697, 45.011392], [-71.697766, 45.011304], [-71.723829, 45.011417], [-71.754112, 45.011335], [-71.763153, 45.011198], [-71.780252, 45.010937], [-71.793478, 45.010678], [-71.796596, 45.010617], [-71.796747, 45.010614], [-71.796853, 45.010612], [-71.79873, 45.010576], [-71.805992, 45.010424], [-71.821384, 45.009966], [-71.829034, 45.00974], [-71.864136, 45.008841], [-71.899313, 45.007927], [-71.913971, 45.007611], [-71.929314, 45.008057], [-71.946923, 45.008255], [-71.955116, 45.008084], [-71.979077, 45.007663], [-71.981812, 45.007614], [-72.007057, 45.007161], [-72.023291, 45.006797], [-72.02909, 45.006676], [-72.051325, 45.006271], [-72.072102, 45.006031], [-72.087669, 45.005869], [-72.087725, 45.005869], [-72.088267, 45.005863], [-72.090781, 45.005836], [-72.095426, 45.005786], [-72.099371, 45.00574], [-72.104627, 45.005679], [-72.107954, 45.00565], [-72.109182, 45.005642], [-72.109922, 45.005637], [-72.11132, 45.005637], [-72.11174, 45.00564], [-72.128577, 45.005738], [-72.141983, 45.005864], [-72.151068, 45.006015], [-72.158221, 45.005953], [-72.173029, 45.005839], [-72.192342, 45.005562], [-72.192732, 45.005557], [-72.211104, 45.00529], [-72.24674, 45.004642], [-72.255663, 45.004423], [-72.258463, 45.00438], [-72.274604, 45.00421], [-72.281775, 45.004232], [-72.28861, 45.004303], [-72.293367, 45.004353], [-72.304521, 45.004076], [-72.311947, 45.003787], [-72.329215, 45.004788], [-72.334013, 45.005068], [-72.367411, 45.006179], [-72.367578, 45.006184], [-72.379039, 45.006378], [-72.388006, 45.006262], [-72.400769, 45.006737], [-72.402913, 45.006816], [-72.404982, 45.006892], [-72.406291, 45.006941], [-72.406578, 45.006951], [-72.412163, 45.007157], [-72.415991, 45.0073], [-72.418127, 45.007378], [-72.4335, 45.007943], [-72.442894, 45.008288], [-72.450435, 45.008564], [-72.478974, 45.008829], [-72.488314, 45.008671], [-72.530851, 45.00777], [-72.553885, 45.00801], [-72.555384, 45.008023], [-72.58474, 45.011569], [-72.585946, 45.011662], [-72.586093, 45.011673], [-72.588141, 45.011836], [-72.588375, 45.011855], [-72.604298, 45.013113], [-72.619046, 45.013882], [-72.63466, 45.014691], [-72.662524, 45.015076], [-72.667605, 45.015143], [-72.667797, 45.015145], [-72.673426, 45.015222], [-72.699848, 45.015578], [-72.70345, 45.015625], [-72.72216, 45.01575], [-72.733897, 45.01583], [-72.748169, 45.01562], [-72.760834, 45.015738], [-72.777302, 45.01589], [-72.784818, 45.015959], [-72.821305, 45.016279], [-72.825413, 45.01634], [-72.832624, 45.016446], [-72.846985, 45.016658], [-72.86711, 45.016295], [-72.869072, 45.016191], [-72.906364, 45.015626], [-72.936158, 45.01491], [-72.966867, 45.014142], [-72.978015, 45.014385], [-72.993178, 45.01471], [-72.996666, 45.014784], [-73.013968, 45.015104], [-73.015276, 45.015129], [-73.027599, 45.015342], [-73.047563, 45.015668], [-73.052247, 45.015744], [-73.052479, 45.015748], [-73.063235, 45.015926], [-73.06535, 45.015956], [-73.084466, 45.015484], [-73.084908, 45.015473], [-73.090815, 45.015332], [-73.12506, 45.014814], [-73.17015, 45.014005], [-73.192113, 45.013437], [-73.209879, 45.013076], [-73.212153, 45.013031], [-73.226316, 45.012754], [-73.241182, 45.01253], [-73.242825, 45.012512], [-73.272377, 45.012061], [-73.296332, 45.011601], [-73.296834, 45.011589], [-73.335366, 45.010835], [-73.343178, 45.010713], [-73.348323, 44.998643], [-73.349191, 44.997101], [-73.350862, 44.993049], [-73.353429, 44.990165], [-73.354633, 44.987352], [-73.354112, 44.984062], [-73.352886, 44.980644], [-73.350218, 44.976222], [-73.347579, 44.973038], [-73.34474, 44.970468], [-73.339709, 44.966792], [-73.338244, 44.964751], [-73.337907, 44.960542], [-73.33903, 44.951338], [-73.339603, 44.943371], [-73.339192, 44.933076], [-73.338483, 44.924112], [-73.338622, 44.919366], [-73.339439, 44.916534], [-73.341106, 44.914632], [-73.342744, 44.913716], [-73.347837, 44.911309], [-73.350652, 44.909634], [-73.353657, 44.907346], [-73.356218, 44.904492], [-73.360328, 44.897236], [-73.36223, 44.891463], [-73.36448, 44.883234], [-73.36646, 44.875041], [-73.369104, 44.866681], [-73.371968, 44.862415], [-73.376331, 44.860238], [-73.377482, 44.858151], [-73.379822, 44.857038], [-73.379877, 44.85554], [-73.379365, 44.852553], [-73.379986, 44.850837], [-73.381296, 44.849861], [-73.381397, 44.848806], [-73.380468, 44.847591], [-73.381336, 44.844683], [-73.379684, 44.843904], [-73.379412, 44.842551], [-73.379918, 44.840578], [-73.379452, 44.83801], [-73.378717, 44.837358], [-73.375346, 44.836307], [-73.372686, 44.832997], [-73.37133, 44.830742], [-73.368275, 44.828007], [-73.365679, 44.826451], [-73.358081, 44.82331], [-73.353472, 44.820386], [-73.3502, 44.816394], [-73.346995, 44.814083], [-73.34508, 44.813015], [-73.343499, 44.811546], [-73.341429, 44.808827], [-73.335044, 44.804109], [-73.33443, 44.802189], [-73.33375, 44.79788], [-73.333152, 44.789588], [-73.333771, 44.785192], [-73.334759, 44.783285], [-73.336377, 44.78148], [-73.339958, 44.778893], [-73.343075, 44.777156], [-73.345245, 44.775339], [-73.347085, 44.77298], [-73.348712, 44.76823], [-73.350019, 44.765279], [-73.351193, 44.763647], [-73.352061, 44.760708], [-73.352382, 44.759521], [-73.354361, 44.755296], [-73.357671, 44.751018], [-73.358684, 44.750042], [-73.361497, 44.747772], [-73.363792, 44.745254], [-73.365227, 44.742673], [-73.365751, 44.741062], [-73.365084, 44.73383], [-73.365069, 44.725647], [-73.365547, 44.719202], [-73.365247, 44.710648], [-73.365784, 44.707095], [-73.365326, 44.703294], [-73.365752, 44.698821], [-73.365977, 44.697559], [-73.365249, 44.69657], [-73.362264, 44.696004], [-73.361308, 44.694524], [-73.362316, 44.692492], [-73.36446, 44.689652], [-73.365736, 44.687169], [-73.370142, 44.684855], [-73.369685, 44.68376], [-73.367414, 44.681293], [-73.367209, 44.678514], [-73.367546, 44.678151], [-73.371089, 44.677531], [-73.371843, 44.676957], [-73.371711, 44.675161]]]]}}]}