{"type": "FeatureCollection", "features": [{"type": "Feature", "properties": {"id": 1, "NAME": "1", "text-color": "#000000", "text-size": 16, "TotalPop": 576851, "PopDevPct": 2.774e-05, "DemPct": 0.25841857, "RepPct": 0.71598005, "WhitePct": 0.83845451, "MinorityPct": 0.16154549, "BlackPct": 0.01343191, "HispanicPct": 0.08644868, "PacificPct": 0.00228623, "AsianPct": 0.01477329, "NativePct": 0.04176627, "TotalVAP": 441337, "Margin": -0.24158143, "color": "#e10000", "opacity": "0.5", "year": 2022, "state": "WY", "state-district": "WY-01"}, "geometry": {"type": "MultiPolygon", "coordinates": [[[[-104.055176, 43.761633], [-104.055217, 43.773785], [-104.055239, 43.780132], [-104.055487, 43.853476], [-104.05534, 43.878565], [-104.055046, 43.935163], [-104.055026, 43.935492], [-104.054745, 43.938167], [-104.054978, 43.942909], [-104.054855, 43.969462], [-104.054688, 43.999979], [-104.05463, 44.081558], [-104.054607, 44.113165], [-104.054588, 44.140627], [-104.054546, 44.15778], [-104.054504, 44.174039], [-104.054487, 44.180381], [-104.0547, 44.196742], [-104.054788, 44.203573], [-104.054849, 44.2082], [-104.05515, 44.231458], [-104.055389, 44.249983], [-104.055404, 44.257458], [-104.055408, 44.258329], [-104.05541, 44.258396], [-104.05541, 44.258607], [-104.055411, 44.259441], [-104.055412, 44.25972], [-104.055413, 44.260176], [-104.055503, 44.309339], [-104.055515, 44.312647], [-104.055538, 44.324601], [-104.055595, 44.347719], [-104.055626, 44.360729], [-104.055634, 44.394729], [-104.055705, 44.414246], [-104.05577, 44.444821], [-104.055926, 44.517359], [-104.0559, 44.51762], [-104.05586, 44.54218], [-104.05593, 44.54237], [-104.055928, 44.542621], [-104.055904, 44.543475], [-104.055823, 44.546704], [-104.055971, 44.563101], [-104.055943, 44.571025], [-104.055918, 44.578668], [-104.05604, 44.581663], [-104.056012, 44.591587], [-104.0558, 44.602302], [-104.055749, 44.620534], [-104.055773, 44.641156], [-104.055778, 44.646459], [-104.055813, 44.665026], [-104.055952, 44.686081], [-104.05584, 44.69124], [-104.05591, 44.69376], [-104.05576, 44.70026], [-104.055871, 44.723427], [-104.055899, 44.738122], [-104.055829, 44.751422], [-104.055963, 44.76804], [-104.055865, 44.783624], [-104.05609, 44.788649], [-104.056215, 44.800795], [-104.056192, 44.811356], [-104.056197, 44.811763], [-104.056299, 44.830649], [-104.056495, 44.867034], [-104.055913, 44.874986], [-104.056556, 44.913382], [-104.05649, 44.914465], [-104.056618, 44.93319], [-104.056897, 44.940079], [-104.057739, 44.995828], [-104.057879, 44.997605], [-104.069715, 44.99768], [-104.092997, 44.997687], [-104.110889, 44.997731], [-104.129347, 44.997966], [-104.141251, 44.997957], [-104.171687, 44.997848], [-104.193324, 44.997931], [-104.263043, 44.998127], [-104.295613, 44.99815], [-104.366242, 44.99831], [-104.411468, 44.998373], [-104.431522, 44.998393], [-104.47002, 44.998418], [-104.493087, 44.998452], [-104.506573, 44.998493], [-104.520913, 44.998539], [-104.54527, 44.998594], [-104.573563, 44.998623], [-104.591872, 44.998655], [-104.631296, 44.998808], [-104.659023, 44.998955], [-104.680078, 44.999052], [-104.687098, 44.999087], [-104.747847, 44.999385], [-104.783945, 44.999542], [-104.801776, 44.99962], [-104.871096, 44.999949], [-104.902033, 45.000043], [-104.944931, 45.00009], [-104.986455, 45.000091], [-105.025522, 45.000108], [-105.059946, 45.000115], [-105.076601, 44.999926], [-105.07946, 44.999892], [-105.099875, 45.000117], [-105.140289, 45.000132], [-105.160531, 45.000107], [-105.208001, 45.000155], [-105.322037, 45.000151], [-105.371303, 45.000185], [-105.402435, 45.000167], [-105.423187, 45.000245], [-105.456463, 45.000219], [-105.481635, 45.000268], [-105.504951, 45.000327], [-105.524888, 45.000227], [-105.565679, 45.000356], [-105.582401, 45.000345], [-105.595317, 45.000357], [-105.666432, 45.000446], [-105.699669, 45.000439], [-105.709638, 45.000446], [-105.752059, 45.000418], [-105.766841, 45.00036], [-105.77931, 45.000377], [-105.807329, 45.000363], [-105.853884, 45.000371], [-105.887464, 45.000245], [-105.899919, 45.000233], [-105.910493, 45.000231], [-105.913149, 45.000238], [-105.928174, 44.993487], [-105.948599, 44.993475], [-105.968461, 44.99353], [-106.000573, 44.993455], [-106.004455, 44.993502], [-106.024815, 44.993495], [-106.047459, 44.993495], [-106.069362, 44.993437], [-106.08961, 44.993469], [-106.114095, 44.99331], [-106.126207, 44.993268], [-106.141571, 44.993308], [-106.183541, 44.993523], [-106.197054, 44.993597], [-106.235517, 44.993718], [-106.272157, 44.993836], [-106.294897, 44.99402], [-106.320649, 44.994041], [-106.361669, 44.994171], [-106.413832, 44.994367], [-106.419618, 44.994319], [-106.431935, 44.994199], [-106.433437, 44.994175], [-106.45526, 44.99451], [-106.459804, 44.994514], [-106.475923, 44.994514], [-106.495169, 44.994413], [-106.50951, 44.994607], [-106.51985, 44.994636], [-106.563756, 44.994758], [-106.56674, 44.99481], [-106.570918, 44.994815], [-106.597417, 44.99485], [-106.622707, 44.99492], [-106.650622, 44.995068], [-106.687678, 44.995274], [-106.734614, 44.995467], [-106.761164, 44.995505], [-106.789227, 44.995615], [-106.792771, 44.995618], [-106.815508, 44.995705], [-106.823746, 44.995733], [-106.848178, 44.995818], [-106.866638, 44.995888], [-106.884757, 44.995953], [-106.892921, 44.995985], [-106.901595, 44.996007], [-106.966407, 44.996223], [-106.987565, 44.996297], [-106.989628, 44.996305], [-107.024373, 44.996437], [-107.034676, 44.996309], [-107.062775, 44.996695], [-107.073883, 44.997076], [-107.084886, 44.9966], [-107.090219, 44.996942], [-107.09547, 44.997248], [-107.10543, 44.998501], [-107.127418, 44.999837], [-107.138121, 45.000128], [-107.155618, 44.999938], [-107.1664, 45.000139], [-107.187386, 45.000284], [-107.196598, 45.000453], [-107.237781, 45.000592], [-107.282718, 45.00087], [-107.297953, 45.00094], [-107.298576, 45.000942], [-107.31495, 45.00103], [-107.318506, 45.00103], [-107.328822, 45.00107], [-107.339075, 45.001003], [-107.345029, 45.000953], [-107.350732, 45.000893], [-107.352735, 45.000882], [-107.369607, 45.000917], [-107.388614, 45.001068], [-107.408403, 45.001166], [-107.45099, 45.001317], [-107.470894, 45.001404], [-107.47601, 45.001424], [-107.483747, 45.001426], [-107.500106, 45.001304], [-107.528658, 45.00113], [-107.55426, 45.001026], [-107.560903, 45.000917], [-107.574377, 45.000932], [-107.606865, 45.000639], [-107.625946, 45.000653], [-107.642403, 45.000654], [-107.655385, 45.000587], [-107.674225, 45.000633], [-107.683839, 45.000434], [-107.694379, 45.000634], [-107.709866, 45.000672], [-107.773269, 45.000703], [-107.796063, 45.000682], [-107.874727, 45.000668], [-107.894811, 45.000676], [-107.911523, 45.000678], [-107.956345, 45.000619], [-108.033806, 45.000512], [-108.095074, 45.000428], [-108.112847, 45.000411], [-108.16389, 45.000409], [-108.229514, 45.000413], [-108.248011, 44.999942], [-108.250837, 44.999866], [-108.264686, 45.000109], [-108.271397, 45.000228], [-108.278878, 45.000212], [-108.281447, 45.000207], [-108.310807, 45.000113], [-108.362313, 44.999989], [-108.366837, 44.999977], [-108.371414, 44.999965], [-108.428699, 44.999818], [-108.514041, 44.999649], [-108.534403, 45.000365], [-108.539889, 45.000383], [-108.565567, 45.000425], [-108.621315, 45.000361], [-108.622562, 45.000361], [-108.628076, 45.000353], [-108.683057, 45.000275], [-108.683851, 45.000273], [-108.69898, 45.000244], [-108.714764, 45.000179], [-108.751178, 45.000127], [-108.772523, 45.000098], [-108.792849, 45.00007], [-108.826684, 45.00002], [-108.842642, 44.999989], [-108.863409, 44.999937], [-108.900681, 44.99989], [-108.902863, 44.999881], [-108.925974, 44.999781], [-108.950237, 44.999622], [-108.961595, 44.999493], [-108.965037, 44.999703], [-108.984761, 44.999693], [-109.005435, 44.999625], [-109.054608, 44.999549], [-109.057754, 44.99954], [-109.06776, 44.99952], [-109.08222, 44.999501], [-109.083095, 44.999551], [-109.089891, 45.001661], [-109.103228, 45.005815], [-109.148677, 45.00576], [-109.167249, 45.005745], [-109.212109, 45.005669], [-109.227327, 45.005544], [-109.269316, 45.005369], [-109.285922, 45.005286], [-109.301424, 45.005323], [-109.315884, 45.005344], [-109.335754, 45.00521], [-109.361834, 45.004976], [-109.407125, 45.004575], [-109.410964, 45.004569], [-109.44757, 45.00452], [-109.469901, 45.004213], [-109.515565, 45.003557], [-109.528584, 45.003329], [-109.539835, 45.003274], [-109.565199, 45.002977], [-109.598057, 45.002886], [-109.600478, 45.002864], [-109.645362, 45.00242], [-109.664248, 45.002277], [-109.669934, 45.002267], [-109.69142, 45.002267], [-109.718439, 45.002075], [-109.764786, 45.001798], [-109.78609, 45.001795], [-109.806591, 45.002671], [-109.825663, 45.003224], [-109.851572, 45.003269], [-109.859276, 45.003277], [-109.932512, 45.003327], [-110.001506, 45.003357], [-110.043544, 45.003536], [-110.047237, 45.003535], [-110.105776, 45.003533], [-110.106959, 45.003433], [-110.166657, 44.998416], [-110.183221, 44.996953], [-110.223949, 44.99674], [-110.284774, 44.997359], [-110.29773, 44.998172], [-110.325198, 44.999677], [-110.368029, 44.99961], [-110.407116, 44.999496], [-110.445743, 44.993682], [-110.48808, 44.992871], [-110.506978, 44.992516], [-110.516469, 44.992518], [-110.5179, 44.992524], [-110.547158, 44.992515], [-110.55226, 44.992515], [-110.554483, 44.992515], [-110.563788, 44.992515], [-110.5649, 44.992515], [-110.577017, 44.992489], [-110.640608, 44.992291], [-110.671714, 44.9922], [-110.691045, 44.992182], [-110.692329, 44.992183], [-110.704476, 44.992174], [-110.790119, 45.000883], [-110.810538, 45.000868], [-110.851116, 45.000767], [-110.865121, 45.000772], [-110.876086, 45.000706], [-110.901387, 45.000643], [-110.946202, 45.000654], [-110.995271, 45.000803], [-111.010153, 45.000867], [-111.054556, 45.000955], [-111.054517, 44.93076], [-111.054496, 44.906965], [-111.054437, 44.889508], [-111.054356, 44.857214], [-111.054265, 44.827201], [-111.054241, 44.800755], [-111.054165, 44.78277], [-111.054084, 44.748271], [-111.053986, 44.726245], [-111.053571, 44.6791], [-111.053447, 44.666268], [-111.05332, 44.653496], [-111.053325, 44.653124], [-111.053325, 44.651666], [-111.053242, 44.631379], [-111.05321, 44.624995], [-111.053185, 44.616189], [-111.053062, 44.591977], [-111.052969, 44.571358], [-111.052928, 44.570411], [-111.052948, 44.564242], [-111.052664, 44.51579], [-111.052567, 44.499695], [-111.052531, 44.489649], [-111.052434, 44.478411], [-111.048974, 44.474072], [-111.048995, 44.460387], [-111.049194, 44.438061], [-111.049163, 44.437246], [-111.04891, 44.43668], [-111.049268, 44.430638], [-111.049298, 44.42783], [-111.049197, 44.405346], [-111.049148, 44.374925], [-111.049695, 44.353626], [-111.049653, 44.328429], [-111.049496, 44.270594], [-111.049596, 44.267978], [-111.049318, 44.264402], [-111.049326, 44.250256], [-111.049078, 44.219895], [-111.049075, 44.198414], [-111.049091, 44.132368], [-111.049101, 44.129474], [-111.049106, 44.128074], [-111.049119, 44.124923], [-111.048452, 44.114831], [-111.048487, 44.106208], [-111.04849, 44.105673], [-111.048655, 44.077374], [-111.048597, 44.068219], [-111.04861, 44.06624], [-111.048633, 44.062903], [-111.048757, 44.059318], [-111.04884, 44.044071], [-111.048887, 44.030667], [-111.049074, 44.020032], [-111.047349, 43.999921], [-111.047228, 43.99422], [-111.047044, 43.983469], [-111.047152, 43.978963], [-111.047012, 43.968843], [-111.047029, 43.961774], [-111.046983, 43.956801], [-111.046881, 43.94453], [-111.046923, 43.9372], [-111.046939, 43.931587], [-111.046816, 43.924184], [-111.046612, 43.914095], [-111.046657, 43.906939], [-111.046699, 43.896089], [-111.04668, 43.886014], [-111.046677, 43.883881], [-111.046676, 43.882595], [-111.046623, 43.871587], [-111.046713, 43.864384], [-111.046784, 43.845224], [-111.046715, 43.823158], [-111.046704, 43.820956], [-111.046727, 43.815838], [-111.046561, 43.808296], [-111.046562, 43.807105], [-111.046599, 43.783328], [-111.046547, 43.772202], [-111.046591, 43.76033], [-111.046589, 43.759294], [-111.046586, 43.755992], [-111.046582, 43.75079], [-111.046571, 43.739691], [-111.04649, 43.732372], [-111.046419, 43.726058], [-111.046294, 43.71063], [-111.046236, 43.696121], [-111.046081, 43.683412], [-111.046011, 43.677987], [-111.045631, 43.642524], [-111.045597, 43.630067], [-111.045423, 43.622121], [-111.045496, 43.613756], [-111.045396, 43.58309], [-111.045364, 43.556287], [-111.045282, 43.543324], [-111.045282, 43.528851], [-111.045492, 43.509784], [-111.045228, 43.479901], [-111.04529, 43.471849], [-111.045153, 43.465446], [-111.045134, 43.446409], [-111.044832, 43.407678], [-111.044743, 43.380963], [-111.044937, 43.364303], [-111.044858, 43.351082], [-111.044988, 43.334095], [-111.044893, 43.315719], [-111.044457, 43.265901], [-111.044014, 43.233369], [-111.043925, 43.212919], [-111.043969, 43.202254], [-111.043976, 43.200424], [-111.04401, 43.195658], [-111.044055, 43.189271], [-111.044042, 43.184819], [-111.044054, 43.177848], [-111.044048, 43.177036], [-111.044048, 43.176525], [-111.044046, 43.174096], [-111.044107, 43.164239], [-111.044043, 43.156506], [-111.044102, 43.152376], [-111.04406, 43.143526], [-111.044051, 43.142816], [-111.044007, 43.129683], [-111.04406, 43.107712], [-111.044006, 43.095369], [-111.043986, 43.090648], [-111.043979, 43.081191], [-111.044, 43.0777], [-111.044041, 43.067849], [-111.044031, 43.046116], [-111.044048, 43.044544], [-111.044056, 43.025065], [-111.044068, 43.010338], [-111.04406, 43.002161], [-111.044063, 42.988377], [-111.04405, 42.98259], [-111.044068, 42.97527], [-111.043967, 42.969299], [-111.043965, 42.96803], [-111.04396, 42.96426], [-111.043967, 42.953485], [-111.043976, 42.943129], [-111.043956, 42.924699], [-111.043788, 42.905183], [-111.043836, 42.886374], [-111.044132, 42.874922], [-111.043831, 42.857355], [-111.04382, 42.851752], [-111.043812, 42.828266], [-111.043781, 42.809621], [-111.043699, 42.786698], [-111.043697, 42.785359], [-111.043579, 42.749928], [-111.043496, 42.746758], [-111.043557, 42.721358], [-111.043547, 42.719502], [-111.044467, 42.666215], [-111.04432, 42.657038], [-111.044634, 42.656146], [-111.044644, 42.655534], [-111.044763, 42.64855], [-111.045163, 42.624928], [-111.045441, 42.618114], [-111.045715, 42.601198], [-111.046017, 42.582723], [-111.046204, 42.564134], [-111.046637, 42.521111], [-111.046817, 42.513925], [-111.046939, 42.484263], [-111.047217, 42.468597], [-111.047076, 42.450833], [-111.047033, 42.447873], [-111.047082, 42.43949], [-111.047181, 42.400749], [-111.047262, 42.397426], [-111.047321, 42.392647], [-111.04712, 42.386797], [-111.047115, 42.377486], [-111.04723, 42.370956], [-111.047158, 42.36087], [-111.047027, 42.356259], [-111.046989, 42.34806], [-111.047046, 42.327962], [-111.04703, 42.315645], [-111.047159, 42.30732], [-111.047188, 42.292633], [-111.047182, 42.280845], [-111.047274, 42.274628], [-111.047256, 42.259941], [-111.047207, 42.254972], [-111.047171, 42.23088], [-111.047242, 42.213449], [-111.047236, 42.207616], [-111.047235, 42.207321], [-111.047234, 42.206339], [-111.047234, 42.206087], [-111.047233, 42.203855], [-111.047233, 42.203468], [-111.047234, 42.20208], [-111.047232, 42.201723], [-111.04723, 42.199109], [-111.047335, 42.193116], [-111.047195, 42.182795], [-111.047188, 42.182282], [-111.047123, 42.16083], [-111.047148, 42.151599], [-111.047071, 42.144287], [-111.047164, 42.140944], [-111.047129, 42.132262], [-111.046989, 42.111768], [-111.046936, 42.105396], [-111.04689, 42.096716], [-111.046969, 42.085995], [-111.046995, 42.073367], [-111.046996, 42.068143], [-111.046997, 42.056234], [-111.046814, 42.009651], [-111.046664, 41.995402], [-111.046513, 41.975093], [-111.046496, 41.956233], [-111.046609, 41.938088], [-111.046617, 41.920992], [-111.046654, 41.904136], [-111.046491, 41.895695], [-111.046445, 41.890394], [-111.046541, 41.875375], [-111.046353, 41.870212], [-111.046634, 41.868356], [-111.04636, 41.866569], [-111.046678, 41.864582], [-111.04672, 41.86111], [-111.046577, 41.840747], [-111.04648, 41.817724], [-111.046528, 41.779643], [-111.046514, 41.77781], [-111.046469, 41.767387], [-111.046391, 41.747237], [-111.046525, 41.732799], [-111.0465, 41.715816], [-111.046365, 41.710034], [-111.046314, 41.699683], [-111.04602, 41.689667], [-111.046005, 41.680607], [-111.046055, 41.662985], [-111.045907, 41.646505], [-111.045981, 41.642776], [-111.045954, 41.623081], [-111.045858, 41.592649], [-111.045837, 41.579845], [-111.045789, 41.565208], [-111.045794, 41.552617], [-111.045804, 41.521585], [-111.0458, 41.514198], [-111.045796, 41.506066], [-111.046022, 41.473672], [-111.046162, 41.460606], [-111.046265, 41.442774], [-111.046242, 41.415185], [-111.04625, 41.414338], [-111.046314, 41.400917], [-111.046333, 41.378115], [-111.046353, 41.358152], [-111.046427, 41.329694], [-111.046409, 41.315851], [-111.046543, 41.300113], [-111.046595, 41.285761], [-111.046775, 41.250472], [-111.046774, 41.249946], [-111.046784, 41.248763], [-111.046788, 41.248164], [-111.046791, 41.247662], [-111.046796, 41.23908], [-111.046701, 41.225056], [-111.046803, 41.174815], [-111.046818, 41.156718], [-111.046736, 41.140125], [-111.046782, 41.119405], [-111.046788, 41.116497], [-111.046752, 41.104379], [-111.046719, 41.093974], [-111.046674, 41.070033], [-111.046691, 41.055322], [-111.046732, 41.02955], [-111.046742, 41.023084], [-111.046769, 41.008811], [-111.046815, 40.997875], [-111.03383, 40.997916], [-111.006826, 40.997965], [-110.995693, 40.997898], [-110.982108, 40.997806], [-110.980532, 40.997581], [-110.964531, 40.997529], [-110.937911, 40.997417], [-110.910892, 40.997235], [-110.907899, 40.997217], [-110.890378, 40.997199], [-110.872057, 40.997209], [-110.864764, 40.997202], [-110.844964, 40.99709], [-110.841821, 40.997074], [-110.81622, 40.996919], [-110.802729, 40.996873], [-110.778078, 40.996725], [-110.752917, 40.996655], [-110.729803, 40.996532], [-110.717144, 40.99643], [-110.681369, 40.996239], [-110.670434, 40.996235], [-110.6387, 40.996183], [-110.60953, 40.996254], [-110.606794, 40.996255], [-110.593622, 40.996275], [-110.584225, 40.996292], [-110.580866, 40.996292], [-110.558755, 40.996318], [-110.545664, 40.996325], [-110.505074, 40.994804], [-110.503081, 40.994804], [-110.482673, 40.994801], [-110.448923, 40.994828], [-110.436382, 40.994803], [-110.433663, 40.994798], [-110.404478, 40.994777], [-110.384569, 40.994805], [-110.382912, 40.994794], [-110.372903, 40.99485], [-110.355905, 40.994838], [-110.338198, 40.994838], [-110.330311, 40.994846], [-110.316567, 40.994796], [-110.286796, 40.994819], [-110.274112, 40.994817], [-110.269833, 40.994914], [-110.253869, 40.995196], [-110.242466, 40.995332], [-110.223384, 40.995669], [-110.200101, 40.995766], [-110.18346, 40.995763], [-110.173417, 40.995971], [-110.15756, 40.996222], [-110.156324, 40.996233], [-110.146466, 40.996322], [-110.12662, 40.996692], [-110.099538, 40.997047], [-110.086964, 40.997128], [-110.069845, 40.99715], [-110.048483, 40.997295], [-110.032599, 40.997337], [-110.022021, 40.997376], [-109.999954, 40.99745], [-109.990266, 40.997341], [-109.975335, 40.997456], [-109.962807, 40.997496], [-109.945323, 40.997443], [-109.934598, 40.997474], [-109.913663, 40.997662], [-109.90246, 40.997672], [-109.882795, 40.997721], [-109.871131, 40.997542], [-109.857022, 40.99765], [-109.8419, 40.997665], [-109.806906, 40.997699], [-109.797512, 40.997814], [-109.776621, 40.997926], [-109.751191, 40.998], [-109.748439, 40.998094], [-109.710262, 40.998212], [-109.685519, 40.998315], [-109.678515, 40.998376], [-109.676636, 40.998393], [-109.660876, 40.99847], [-109.657686, 40.998482], [-109.640238, 40.99834], [-109.6257, 40.998261], [-109.620991, 40.998353], [-109.613181, 40.99836], [-109.604015, 40.998367], [-109.565094, 40.99839], [-109.543697, 40.998396], [-109.514201, 40.998995], [-109.5042, 40.999064], [-109.493729, 40.999231], [-109.471812, 40.999327], [-109.433393, 40.999686], [-109.430889, 40.999702], [-109.428832, 40.999714], [-109.400234, 40.99988], [-109.374028, 41.000072], [-109.307349, 41.000521], [-109.27407, 41.000796], [-109.250007, 41.00105], [-109.232505, 41.002107], [-109.22889, 41.002097], [-109.222144, 41.002071], [-109.213249, 41.002009], [-109.20259, 41.001507], [-109.197811, 41.001185], [-109.178685, 41.000902], [-109.146995, 41.000923], [-109.114719, 41.000843], [-109.088529, 41.000673], [-109.063438, 41.000628], [-109.050026, 41.000691], [-109.024975, 41.000459], [-109.020809, 41.000477], [-109.000532, 41.000558], [-108.943528, 41.00033], [-108.884138, 41.000094], [-108.875671, 41.000166], [-108.859513, 41.000127], [-108.822867, 41.000153], [-108.817489, 41.000105], [-108.801849, 41.00019], [-108.787609, 41.000155], [-108.780179, 41.000114], [-108.750667, 41.000187], [-108.740026, 41.000069], [-108.711516, 41.000092], [-108.677725, 41.000119], [-108.654358, 41.000138], [-108.643033, 41.000147], [-108.631108, 41.000156], [-108.625663, 40.999962], [-108.571465, 40.999962], [-108.561854, 40.999962], [-108.557658, 40.999622], [-108.538795, 40.999721], [-108.530729, 40.999645], [-108.526029, 40.999592], [-108.519605, 40.999962], [-108.496663, 41.000109], [-108.488746, 41.000103], [-108.475251, 41.000093], [-108.4044, 41.000036], [-108.388203, 41.000023], [-108.363349, 41.000023], [-108.326205, 41.000052], [-108.300222, 41.000073], [-108.250649, 41.000114], [-108.24972, 41.000362], [-108.228681, 41.000319], [-108.222193, 41.000396], [-108.209644, 41.000329], [-108.206461, 41.000412], [-108.181227, 41.000455], [-108.169395, 41.000595], [-108.149321, 41.000962], [-108.126215, 41.001276], [-108.122619, 41.001198], [-108.105669, 41.001391], [-108.089508, 41.001233], [-108.089224, 41.001578], [-108.046539, 41.002064], [-108.024237, 41.002064], [-108.018354, 41.002002], [-108.000636, 41.001814], [-107.97033, 41.002012], [-107.923195, 41.002011], [-107.918421, 41.002036], [-107.900799, 41.002], [-107.880406, 41.002024], [-107.863262, 41.001933], [-107.810988, 41.001953], [-107.808128, 41.001933], [-107.791647, 41.001967], [-107.784142, 41.001931], [-107.760183, 41.001957], [-107.750627, 41.001971], [-107.706884, 41.002173], [-107.705488, 41.002147], [-107.69141, 41.00216], [-107.669596, 41.002134], [-107.636509, 41.002125], [-107.625649, 41.002123], [-107.573624, 41.002251], [-107.573133, 41.002251], [-107.554789, 41.002277], [-107.526638, 41.002356], [-107.50062, 41.002349], [-107.478678, 41.002671], [-107.423807, 41.002856], [-107.39864, 41.002969], [-107.386192, 41.003028], [-107.367488, 41.003073], [-107.359378, 41.003053], [-107.353777, 41.002989], [-107.320166, 41.002923], [-107.302937, 41.002937], [-107.291968, 41.002905], [-107.274964, 41.002829], [-107.257882, 41.002845], [-107.250612, 41.002881], [-107.241194, 41.002804], [-107.240693, 41.002805], [-107.216907, 41.002832], [-107.206798, 41.002898], [-107.145206, 41.003011], [-107.116081, 41.003087], [-107.102262, 41.00312], [-107.092001, 41.003245], [-107.074405, 41.00328], [-107.070255, 41.003289], [-107.045163, 41.003338], [-107.040237, 41.003348], [-107.030615, 41.003367], [-107.000606, 41.003444], [-106.974207, 41.003372], [-106.902205, 41.003097], [-106.90179, 41.003094], [-106.8756, 41.002996], [-106.857773, 41.002663], [-106.834463, 41.00267], [-106.816398, 41.002675], [-106.814678, 41.002675], [-106.776573, 41.002681], [-106.751902, 41.002702], [-106.685346, 41.00238], [-106.653883, 41.002237], [-106.632612, 41.002141], [-106.625592, 41.00211], [-106.593895, 41.002129], [-106.576194, 41.002084], [-106.568816, 41.002065], [-106.531882, 41.001972], [-106.526278, 41.001973], [-106.500588, 41.001895], [-106.493979, 41.00214], [-106.479013, 41.002139], [-106.455715, 41.002118], [-106.453757, 41.002046], [-106.439563, 41.001978], [-106.437419, 41.001795], [-106.43095, 41.001752], [-106.402896, 41.001206], [-106.398637, 41.001097], [-106.386356, 41.001144], [-106.375567, 41.00072], [-106.353966, 40.999971], [-106.346414, 40.999637], [-106.338239, 40.999529], [-106.321165, 40.999123], [-106.314218, 40.998923], [-106.261887, 40.998405], [-106.215123, 40.997723], [-106.203007, 40.997648], [-106.184247, 40.997569], [-106.160929, 40.997522], [-106.150074, 40.997364], [-106.127888, 40.997332], [-106.115004, 40.997232], [-106.088733, 40.997212], [-106.061181, 40.996999], [-106.045096, 40.997056], [-106.01663, 40.997224], [-106.013941, 40.997198], [-106.008698, 40.997235], [-105.93206, 40.99714], [-105.869507, 40.997039], [-105.86199, 40.997029], [-105.843402, 40.997047], [-105.822732, 40.997008], [-105.797731, 40.996968], [-105.77055, 40.996928], [-105.770148, 40.996927], [-105.764383, 40.996917], [-105.741364, 40.996907], [-105.726441, 40.996836], [-105.724858, 40.996907], [-105.722907, 40.996915], [-105.707294, 40.996944], [-105.68162, 40.997055], [-105.669579, 40.997076], [-105.645468, 40.997115], [-105.630969, 40.997118], [-105.604728, 40.997223], [-105.588623, 40.997278], [-105.554325, 40.9974], [-105.491371, 40.997613], [-105.449421, 40.997685], [-105.442122, 40.997751], [-105.412721, 40.997804], [-105.375542, 40.997887], [-105.36355, 40.997874], [-105.34427, 40.997948], [-105.323451, 40.998028], [-105.30577, 40.998083], [-105.27686, 40.998172], [-105.254844, 40.998209], [-105.249138, 40.998432], [-105.242649, 40.998432], [-105.210413, 40.998387], [-105.161926, 40.99832], [-105.155054, 40.998247], [-105.130838, 40.998268], [-105.077014, 40.998333], [-105.074809, 40.998298], [-105.000526, 40.998276], [-104.982147, 40.998244], [-104.962578, 40.998203], [-104.938393, 40.99821], [-104.907683, 40.998192], [-104.906905, 40.998205], [-104.906648, 40.99821], [-104.906329, 40.998217], [-104.882452, 40.998186], [-104.869223, 40.998285], [-104.855273, 40.998048], [-104.838689, 40.998857], [-104.81831, 40.999197], [-104.816284, 40.999293], [-104.797867, 40.999457], [-104.773018, 40.999833], [-104.759665, 40.999982], [-104.750523, 40.999982], [-104.736562, 41.000219], [-104.675999, 41.000957], [-104.664347, 41.001065], [-104.625519, 41.001428], [-104.623121, 41.001411], [-104.599526, 41.001488], [-104.577579, 41.001559], [-104.550139, 41.001535], [-104.514559, 41.001675], [-104.487217, 41.001693], [-104.467672, 41.001473], [-104.452883, 41.001494], [-104.420552, 41.001454], [-104.390476, 41.001499], [-104.371258, 41.001496], [-104.3461, 41.001534], [-104.336984, 41.00167], [-104.314663, 41.001643], [-104.295812, 41.001719], [-104.276867, 41.001695], [-104.257569, 41.001679], [-104.250507, 41.00162], [-104.223289, 41.001618], [-104.216456, 41.001656], [-104.211441, 41.00158], [-104.181665, 41.001741], [-104.173436, 41.00177], [-104.162579, 41.001569], [-104.125505, 41.001705], [-104.123823, 41.001625], [-104.10459, 41.001543], [-104.088854, 41.00156], [-104.067016, 41.001785], [-104.067013, 41.001615], [-104.054077, 41.001615], [-104.053249, 41.001406], [-104.053097, 41.018045], [-104.053094, 41.042216], [-104.053063, 41.050213], [-104.053169, 41.085658], [-104.053026, 41.090598], [-104.053083, 41.104985], [-104.053387, 41.105338], [-104.053397, 41.11387], [-104.053488, 41.142205], [-104.053514, 41.157257], [-104.053423, 41.170539], [-104.05336, 41.180643], [-104.053359, 41.180867], [-104.053338, 41.185912], [-104.053336, 41.18654], [-104.053275, 41.199948], [-104.05327, 41.200683], [-104.05317, 41.218151], [-104.053153, 41.240762], [-104.053084, 41.24998], [-104.052711, 41.272627], [-104.052874, 41.278066], [-104.052453, 41.278197], [-104.05257, 41.298292], [-104.0526, 41.316142], [-104.052676, 41.316522], [-104.052512, 41.32267], [-104.052686, 41.330562], [-104.052504, 41.346592], [-104.052529, 41.367535], [-104.052245, 41.398065], [-104.052289, 41.407588], [-104.052313, 41.416826], [-104.052481, 41.418346], [-104.052532, 41.447364], [-104.05254, 41.461816], [-104.052536, 41.47636], [-104.052378, 41.48215], [-104.052438, 41.490784], [-104.052466, 41.50811], [-104.052372, 41.522828], [-104.052462, 41.524411], [-104.052583, 41.546943], [-104.05254, 41.564274], [-104.052645, 41.566877], [-104.052573, 41.581099], [-104.052859, 41.592254], [-104.052825, 41.60932], [-104.052707, 41.610036], [-104.052797, 41.621296], [-104.052899, 41.622275], [-104.052824, 41.622587], [-104.052803, 41.635963], [-104.052833, 41.638068], [-104.052869, 41.645191], [-104.052819, 41.661206], [-104.052691, 41.678754], [-104.052681, 41.709839], [-104.052674, 41.727075], [-104.052883, 41.727158], [-104.052797, 41.734703], [-104.052982, 41.739437], [-104.052885, 41.73964], [-104.052847, 41.782786], [-104.052815, 41.805681], [-104.052812, 41.809288], [-104.052786, 41.827378], [-104.052768, 41.841851], [-104.05279, 41.856343], [-104.052796, 41.870338], [-104.052765, 41.885379], [-104.053008, 41.889262], [-104.052934, 41.905828], [-104.052793, 41.90734], [-104.052796, 41.914912], [-104.052967, 41.916972], [-104.052791, 41.929005], [-104.052659, 41.944052], [-104.052631, 41.95476], [-104.052622, 41.957937], [-104.052668, 41.972627], [-104.052853, 41.97599], [-104.052758, 41.977385], [-104.052805, 41.989355], [-104.052808, 41.990072], [-104.052811, 41.990411], [-104.052829, 41.994607], [-104.052627, 41.998468], [-104.052634, 42.002574], [-104.052645, 42.002974], [-104.052727, 42.004883], [-104.052648, 42.016365], [-104.0528, 42.025711], [-104.052968, 42.075084], [-104.052982, 42.082701], [-104.052857, 42.096078], [-104.052716, 42.100587], [-104.052477, 42.11611], [-104.053048, 42.131346], [-104.052952, 42.140446], [-104.052951, 42.146762], [-104.052761, 42.152873], [-104.052547, 42.166801], [-104.052741, 42.172445], [-104.052797, 42.181118], [-104.052877, 42.188442], [-104.052925, 42.218063], [-104.052847, 42.219793], [-104.05298, 42.234512], [-104.053023, 42.246289], [-104.053125, 42.249962], [-104.05265, 42.249962], [-104.05277, 42.259692], [-104.052753, 42.272473], [-104.052793, 42.296348], [-104.052794, 42.333281], [-104.052929, 42.340076], [-104.052776, 42.349737], [-104.052677, 42.356158], [-104.052804, 42.374963], [-104.052838, 42.41024], [-104.052835, 42.411715], [-104.052897, 42.473118], [-104.053107, 42.499964], [-104.053059, 42.524422], [-104.052975, 42.566224], [-104.052898, 42.593864], [-104.052979, 42.605187], [-104.052838, 42.611767], [-104.052885, 42.629993], [-104.052598, 42.631139], [-104.05286, 42.636739], [-104.05287, 42.641846], [-104.05285, 42.6492], [-104.052585, 42.650194], [-104.052728, 42.654737], [-104.052622, 42.66109], [-104.05276, 42.698279], [-104.052828, 42.704645], [-104.052997, 42.741531], [-104.052809, 42.749966], [-104.052863, 42.754569], [-104.052893, 42.771613], [-104.052896, 42.772923], [-104.052944, 42.798039], [-104.052988, 42.823869], [-104.05301, 42.831233], [-104.053064, 42.859546], [-104.053132, 42.870265], [-104.052984, 42.874967], [-104.052975, 42.886935], [-104.05303, 42.930035], [-104.0531, 42.943004], [-104.053111, 42.97149], [-104.053126, 42.982867], [-104.053127, 43.001505], [-104.053188, 43.023386], [-104.053261, 43.032463], [-104.053235, 43.043972], [-104.053303, 43.058418], [-104.053246, 43.083348], [-104.053327, 43.116218], [-104.053471, 43.124857], [-104.053514, 43.135491], [-104.053629, 43.164854], [-104.053676, 43.176442], [-104.053736, 43.191027], [-104.053823, 43.201755], [-104.053897, 43.223981], [-104.053967, 43.245132], [-104.05391, 43.249814], [-104.05389, 43.272687], [-104.053908, 43.296876], [-104.05419, 43.30424], [-104.05438, 43.32598], [-104.054427, 43.332473], [-104.054463, 43.340487], [-104.054552, 43.368716], [-104.054721, 43.375102], [-104.054645, 43.394991], [-104.054674, 43.411881], [-104.0548, 43.41872], [-104.05477, 43.432643], [-104.054837, 43.499973], [-104.054786, 43.503328], [-104.0548, 43.514054], [-104.054824, 43.533281], [-104.054969, 43.556408], [-104.055022, 43.557479], [-104.055001, 43.579086], [-104.054879, 43.582999], [-104.05497, 43.644744], [-104.055039, 43.686729], [-104.055122, 43.740398], [-104.055289, 43.752288], [-104.055176, 43.761633]]]]}}]}